{"type":"FeatureCollection","name":"Bangkok Canal Impact Areas","features":[{"type":"Feature","properties":{"name":"คลองสามเสน | Bangkok-wide canal impact corridor","area_type":"canal_impact","status":"improving_recent","severity":"improving","buffer_m":180,"area_km2":3.723,"derived":true,"source":"BMA 39-canal master geometry + current situation evidence","evidence":"ระดับเริ่มลดลงจากรายงาน 27-29 ก.ย.","evidence_date":"2026-09-30","disclaimer":"Derived situational-awareness corridor; not a surveyed inundation boundary."},"geometry":{"type":"MultiPolygon","coordinates":[[[[100.52835858594959,13.77188297177663],[100.52705465388996,13.77279137882866],[100.52892195398957,13.775485435116282],[100.52948848419861,13.775110295555631],[100.52855482728219,13.773763272103073],[100.52954297225905,13.775072635784614],[100.53100011020459,13.774056638908288],[100.53022171209469,13.772618444207774],[100.5311834658511,13.773946443898284],[100.53194794497647,13.773417515620508],[100.53098618971642,13.772089519087565],[100.53216024293741,13.773214013653407],[100.53311489461598,13.772585106833152],[100.53240486428436,13.771113505577926],[100.53337374215938,13.772436542625236],[100.53377478378154,13.772155962748228],[100.5328059051505,13.770832927365685],[100.53386147167518,13.772091005501194],[100.53412440695716,13.771880240798398],[100.53306884021795,13.770622163818082],[100.53419852642608,13.771817160352752],[100.53448387899935,13.77155944213476],[100.53335419286519,13.7703644469081],[100.53451697381314,13.771468683961757],[100.53509850216773,13.77108114900595],[100.53416079213099,13.769736833105835],[100.53530175474884,13.77092154529111],[100.53694092758498,13.769668811538972],[100.53621286277725,13.76820566010351],[100.53727631293437,13.769170377533719],[100.53790280146075,13.768559923967675],[100.53723591309831,13.768217427440142],[100.53706174215903,13.767503938069936],[100.53803709561312,13.768367652525619],[100.53856587865994,13.768241625868614],[100.53823547241186,13.767851218451826],[100.53893688053321,13.767983843580401],[100.53810054682562,13.766577081528439],[100.53912301201962,13.767860992974644],[100.53999858232082,13.76725498298317],[100.53911808473407,13.765874210563194],[100.54016821499813,13.767136604614585],[100.54054896323183,13.766833999631489],[100.53993343761458,13.76542374957524],[100.54070442651948,13.766870106630908],[100.54003883335744,13.765378807243817],[100.54103194110853,13.766684543768978],[100.54123562990355,13.765768951258574],[100.5417316994274,13.765828244774797],[100.54113370755039,13.765419445658011],[100.54201970496361,13.765824569488435],[100.54096504784506,13.764565792427451],[100.5421567117325,13.765480030464904],[100.54283738803036,13.765227148360218],[100.54233906464243,13.763700806643852],[100.54343507005686,13.764925366305846],[100.5425042981351,13.763559511769623],[100.54374247240631,13.764646934380552],[100.5439450091759,13.764426597947327],[100.54270683535206,13.763339176312822],[100.5440154654727,13.76434468352433],[100.54456949680176,13.763887275545548],[100.54379615222423,13.762446505766114],[100.54488189083615,13.763679766614182],[100.54616307313235,13.762816979522583],[100.54542041238064,13.761360870653387],[100.54662534825279,13.762483386228235],[100.54660498822936,13.762053335085513],[100.54739204401794,13.761432017604767],[100.54700490045929,13.761146102275383],[100.54707865795469,13.76045964723911],[100.54802236100858,13.761810324719757],[100.54775804650465,13.761333652744945],[100.54827649560313,13.761271930954377],[100.54815925056486,13.760572169917403],[100.54891808505553,13.760988247159261],[100.54948721284863,13.76077325923531],[100.54893114507556,13.759239708990803],[100.54957166379813,13.76074144939683],[100.55016675210615,13.76049893741644],[100.54952623058739,13.758997198860733],[100.55017503909049,13.76047341976797],[100.55048165739755,13.760392683671954],[100.550048706319,13.758821660213641],[100.55078977910065,13.760278534513596],[100.551025638131,13.760163902283933],[100.55028456440685,13.758707028796715],[100.5513134048949,13.759986028278478],[100.55160398374568,13.759762692509048],[100.55057514292297,13.758483694282576],[100.55176374028113,13.759622711845225],[100.55211145699545,13.759276016407537],[100.55092286007634,13.758137000485048],[100.55228229194704,13.759075854310444],[100.55103008605435,13.757988654570074],[100.55245528825623,13.758829161483233],[100.55269250418303,13.758528285418263],[100.55144199095278,13.757454483217096],[100.55292129570707,13.75820033596419],[100.55318850612746,13.75718418906277],[100.5534540211088,13.75756247752582],[100.55397313798534,13.757508082118727],[100.55426036868066,13.756115279148185],[100.55451672108417,13.75773808200904],[100.55448696429151,13.7561113189505],[100.5548156265884,13.757706308998628],[100.55509967944182,13.757650382534605],[100.55477101538196,13.756055393054043],[100.55518936029385,13.757630188605244],[100.55554734773136,13.757589867224178],[100.55563414340351,13.755990932781481],[100.55561433487945,13.757617839836028],[100.55588627258243,13.757621003198432],[100.55590607922207,13.7559940963215],[100.55620149987276,13.75759528711094],[100.55734562777353,13.757444776464208],[100.55733486683701,13.755817789428914],[100.5576171073669,13.75742124920198],[100.55823285133208,13.757401867461757],[100.55825601192612,13.75577500459709],[100.55833269725868,13.757400297283342],[100.55890396257479,13.757374542461049],[100.55882727334512,13.755749250367113],[100.55892865057419,13.75737324973121],[100.55934390888552,13.757348480809938],[100.5592425288397,13.755724481916635],[100.55946229549062,13.757337257504895],[100.56001822988763,13.757264873603633],[100.55979845960499,13.755652098899622],[100.56004194259094,13.757261616274683],[100.56060085389184,13.75725449737655],[100.56071723230856,13.75563146055519],[100.56088834989677,13.757249858332166],[100.56143425602117,13.757194706545562],[100.56126313480355,13.755576309535584],[100.56157743514254,13.757174057961333],[100.56259690855606,13.757042526094628],[100.56249820234014,13.755418372188648],[100.56262277127891,13.757040826623443],[100.5639350823031,13.756955840884645],[100.56384704828136,13.75533110184434],[100.56421014540747,13.756918933722508],[100.58103592044851,13.755380794517391],[100.58082830296983,13.753766497593698],[100.58113154724627,13.755369058387704],[100.59608970711358,13.751230857043748],[100.60150105337222,13.74920687198989],[100.5998423944564,13.746385614350288],[100.59513402039198,13.748109525498851],[100.58248191126219,13.751822524338257],[100.57811185417424,13.752460492693373],[100.56474095050416,13.753485676132831],[100.56488182267546,13.75498206373223],[100.56460267078532,13.753514567583615],[100.56420390166126,13.753587047277087],[100.56450818008697,13.755186645886923],[100.56414508497414,13.753598814163194],[100.56321789606102,13.753734376080818],[100.56330592393961,13.755359116074105],[100.56318135251136,13.753736662178504],[100.56182821666064,13.753827390352884],[100.56192691639394,13.755451545291471],[100.56161261733352,13.753853797104771],[100.56030716229901,13.753972354204032],[100.56019078058121,13.755595391254856],[100.5599472995841,13.753985873742874],[100.55766232100022,13.754139749265814],[100.5576391552025,13.755766612700299],[100.55735691776039,13.754163152551154],[100.5569464504954,13.754193188115204],[100.55695720742847,13.755820175666097],[100.55668871072807,13.754214461861167],[100.55599966768926,13.7543245507289],[100.55626815998131,13.755930265755925],[100.55597274223184,13.754329074665181],[100.55560435095852,13.754350596374861],[100.55542002650041,13.755967611782204],[100.5552927082566,13.75434535588333],[100.55486240556854,13.754377623644428],[100.55488519534974,13.754668014636943],[100.55470909187935,13.754872528934595],[100.55481434912653,13.754581014626236],[100.55423061510389,13.754488515643587],[100.55424668601168,13.755367196617284],[100.55383588910681,13.75588659919915],[100.5536986433477,13.754265115797997],[100.55340172582143,13.754289128887404],[100.55353896958574,13.755910612665838],[100.55326279949733,13.754372268027668],[100.55263656276031,13.75435045227092],[100.55256261024701,13.755975870293513],[100.55236972163726,13.754357239640251],[100.55246954313381,13.755981335961549],[100.55117122656921,13.754944369339295],[100.55232441873027,13.756117630452275],[100.55086420213979,13.755336686484496],[100.55040131958137,13.755952282648881],[100.55165062578305,13.757027418869738],[100.55019148897397,13.756380673371748],[100.54992904473244,13.756672695617366],[100.55117954735987,13.757746506733271],[100.54975435588267,13.75690599119363],[100.54930914734753,13.757331369828904],[100.54974208979152,13.758902395580177],[100.54905991123968,13.757418290272412],[100.54795558281766,13.757851492716862],[100.54851164019698,13.759385046346283],[100.54783907294949,13.75789675397161],[100.54752298685347,13.758512036771222],[100.54687542894521,13.758227402775907],[100.54710272088843,13.758955497068516],[100.54704229328708,13.759517892481703],[100.547060781338,13.758822757509419],[100.54583750229911,13.758839295830972],[100.54597256321385,13.759800606009176],[100.54559831355628,13.760054430154689],[100.5460639697579,13.760451195321377],[100.54473590623186,13.75947036463544],[100.54462027480784,13.75993277188219],[100.54388474147771,13.760291197779937],[100.5446273891294,13.761747312756718],[100.5435416617608,13.760514049523037],[100.54257959520042,13.761205300736357],[100.5432288258407,13.762703469478769],[100.5423689921632,13.761310322976392],[100.54304325325846,13.762812899555247],[100.54172274199307,13.761822353848537],[100.54156544470752,13.762022704334427],[100.5421842733958,13.76270163539185],[100.54165460636366,13.762185388638896],[100.54097393687799,13.762438266743564],[100.54156532001974,13.763959149805876],[100.54064577006943,13.762602924930084],[100.5404502438032,13.762729587288925],[100.54136979328166,13.764085812947851],[100.54035289446213,13.76279769877767],[100.54023670737287,13.763415068291096],[100.54010583659043,13.763148104172307],[100.5397530363269,13.763414459058046],[100.53999123800213,13.763696783092833],[100.53957750266407,13.763667031629389],[100.54008962243147,13.763998751049717],[100.54034459639888,13.76478132941547],[100.53979120211416,13.764579028240279],[100.53966311332323,13.763818315644476],[100.53954220590016,13.764266069734457],[100.5392678542111,13.763932446994202],[100.53948651020679,13.764422369046152],[100.5391585159692,13.763991114036749],[100.53876390101172,13.764111747125948],[100.53903729073632,13.764654808159687],[100.53844871355551,13.764309209077975],[100.53795178727073,13.76466756207884],[100.53883227317371,13.76604833999041],[100.53791356944457,13.764691559860315],[100.53766784611533,13.764850525500915],[100.53858654924879,13.76620730661455],[100.53756409491766,13.764923391715417],[100.53701402883539,13.76527104586593],[100.53752555835675,13.766819350173137],[100.5362658119673,13.765755843308991],[100.53673382168104,13.766633317821025],[100.53624608473781,13.766045589600887],[100.53625404189627,13.766379777073025],[100.53580258695571,13.766252506031098],[100.5356998375252,13.766568428169336],[100.5365394449991,13.767711443446304],[100.53535025786023,13.766564203627512],[100.53642924239077,13.767803138400243],[100.53548480778994,13.766742505400494],[100.53518992862375,13.767166644631459],[100.534603213253,13.76722234051192],[100.53551035655178,13.768586540952203],[100.5344627722629,13.767322118227266],[100.53375146221026,13.767885153321581],[100.5347990458442,13.76914957915581],[100.53365809507837,13.767964863314344],[100.53264156750252,13.768780042607442],[100.53357926507184,13.770124365700815],[100.53235199547248,13.76902515494838],[100.53131583890799,13.769816602547994],[100.53202585796336,13.77128820821291],[100.53115584924473,13.76990108282993],[100.53081979648287,13.770102448946844],[100.53168980422296,13.77148957562493],[100.53068554282966,13.770191991932634],[100.53032968413676,13.770455114974869],[100.53133394500647,13.771752700180189],[100.53022225285602,13.770541686519346],[100.52926517537522,13.77127236014563],[100.53004356260834,13.772710559095998],[100.52908228091222,13.771382235279503],[100.52838544055376,13.771864010680726],[100.529346720875,13.773192337374065],[100.52835858594959,13.77188297177663]],[[100.53045636651221,13.771357927726266],[100.5310485392065,13.77200300502654],[100.53079921537864,13.771831341583981],[100.53045636651221,13.771357927726266]],[[100.53580371880157,13.768400166573894],[100.53539509800058,13.76778566898968],[100.53553325614116,13.767856625146113],[100.53580371880157,13.768400166573894]],[[100.53660340989165,13.767189105484066],[100.53663177701739,13.767208591171936],[100.53680299497385,13.76758426962547],[100.53660340989165,13.767189105484066]],[[100.53684191291816,13.767352935597883],[100.53689311179983,13.76738810455811],[100.53692344233005,13.767531823254163],[100.53684191291816,13.767352935597883]],[[100.53685641288126,13.766531000540738],[100.53738559547186,13.766977746709482],[100.53689610427661,13.766719076085415],[100.53685641288126,13.766531000540738]],[[100.53782800237975,13.767734779801417],[100.53720396435999,13.7673061254166],[100.53778842171927,13.76761497860175],[100.53782800237975,13.767734779801417]],[[100.53785970955407,13.766713875330305],[100.53830562070445,13.767463927782611],[100.53803728581356,13.767251357346229],[100.53785970955407,13.766713875330305]],[[100.53929166058451,13.764396412289281],[100.53919114601518,13.76435966730646],[100.53904906954614,13.764077447167288],[100.53929166058451,13.764396412289281]],[[100.539406858104,13.764788155312683],[100.5395789549489,13.764774152964774],[100.53963786242637,13.764851605546214],[100.539406858104,13.764788155312683]],[[100.5388506100587,13.764792350330579],[100.53914760007717,13.76487392560869],[100.53949883263137,13.765571607247105],[100.5388506100587,13.764792350330579]],[[100.53974231372558,13.765454496566706],[100.53952572774423,13.76502427575125],[100.53968127955287,13.765092020473123],[100.53974231372558,13.765454496566706]],[[100.53985921168527,13.76491240356953],[100.53984013412085,13.76486963109289],[100.540253054376,13.765020579794697],[100.53985921168527,13.76491240356953]],[[100.54101957733353,13.7650280760887],[100.5408999613645,13.764617893303601],[100.54134254718112,13.765146140384394],[100.54101957733353,13.7650280760887]],[[100.54078041957214,13.764207963091222],[100.54076972927358,13.764171304055871],[100.54107727884833,13.764400247734612],[100.54078041957214,13.764207963091222]],[[100.54063584686914,13.763712195011642],[100.54048642115855,13.763199782267458],[100.54125453057192,13.764172751502556],[100.54063584686914,13.763712195011642]],[[100.54217073680009,13.763512733355045],[100.54223877309613,13.763588750601622],[100.54224599291136,13.76370626970137],[100.54217073680009,13.763512733355045]],[[100.5422683635874,13.762549982066638],[100.54288595662054,13.763013250820718],[100.54236928665956,13.76284379545779],[100.5422683635874,13.762549982066638]],[[100.54282415024743,13.763193301085916],[100.5434091125663,13.763405677635758],[100.54368743368313,13.763856620643141],[100.54282415024743,13.763193301085916]],[[100.54357279087971,13.76256105330916],[100.54401411125376,13.763383253723491],[100.5439150116919,13.763350752124538],[100.54357279087971,13.76256105330916]],[[100.54411460569605,13.7636165334549],[100.54414460761822,13.763626373122772],[100.54415598749097,13.763647574202706],[100.54411460569605,13.7636165334549]],[[100.54493576138697,13.760410620134975],[100.54473542171448,13.760017813232198],[100.54579441446133,13.760799922910175],[100.54493576138697,13.760410620134975]],[[100.54618279000557,13.758925634779677],[100.54646742188905,13.759357305318082],[100.54643221314676,13.759840813953517],[100.54631108674478,13.759838790170402],[100.54618279000557,13.758925634779677]],[[100.54636281994883,13.760206999757392],[100.54640493570992,13.76021540456162],[100.54639096203601,13.760407299564655],[100.54636281994883,13.760206999757392]],[[100.54698597600418,13.759850065477295],[100.54700350386658,13.759609354064505],[100.54703008656432,13.75963149942535],[100.54698597600418,13.759850065477295]],[[100.54720505251845,13.759283298649372],[100.54736123258785,13.759783592142748],[100.547168545357,13.759623069778588],[100.54720505251845,13.759283298649372]],[[100.54715633869601,13.759736676721714],[100.54729871905919,13.759855289815377],[100.54714387206253,13.759852703163215],[100.54715633869601,13.759736676721714]],[[100.5469555412672,13.760325285064855],[100.54694260515895,13.760445679926237],[100.54695143167211,13.76032446494673],[100.5469555412672,13.760325285064855]],[[100.54619764336427,13.761402612760012],[100.54624149236874,13.761714704211517],[100.54563045022864,13.761145456834106],[100.54619764336427,13.761402612760012]],[[100.54729506096251,13.760064528496514],[100.54744974138409,13.76006711225413],[100.5474591577722,13.760097275707677],[100.54729506096251,13.760064528496514]],[[100.5475973846241,13.759713154032337],[100.54726645593598,13.758653086318969],[100.54755626840387,13.759049354745414],[100.5475973846241,13.759713154032337]],[[100.54778359947748,13.759702133327163],[100.54781069316813,13.759863841426782],[100.54779359830538,13.759863555904905],[100.54778359947748,13.759702133327163]],[[100.54800747246583,13.759666294601681],[100.54815617060561,13.759869611406298],[100.54804121609604,13.759867691551452],[100.54800747246583,13.759666294601681]],[[100.54790058414875,13.75902833462633],[100.54782292886688,13.7585648482645],[100.54824550965877,13.759499956834642],[100.54790058414875,13.75902833462633]],[[100.54722919227648,13.760379895177413],[100.54766128260978,13.760744738529533],[100.54769018005082,13.761211260133434],[100.54722919227648,13.760379895177413]],[[100.54786331779447,13.76017792949313],[100.54780657620258,13.760073072395747],[100.54784585917193,13.76007372849977],[100.54786331779447,13.76017792949313]],[[100.54792026318505,13.76051780459029],[100.54800330318797,13.761013421398271],[100.54784381806331,13.760502549384576],[100.54792026318505,13.76051780459029]],[[100.54810114795502,13.760225390308113],[100.54831113754288,13.760081499099737],[100.54847024355055,13.760299045634152],[100.54810114795502,13.760225390308113]],[[100.55287505000847,13.757222717462462],[100.55284685717405,13.757325948233046],[100.55285240154144,13.75720408300815],[100.55287505000847,13.757222717462462]],[[100.55335037658331,13.756450431210526],[100.55320425327379,13.756588171073107],[100.55321982621348,13.755998749903597],[100.55335037658331,13.756450431210526]],[[100.55490975780093,13.754980991889033],[100.5549897209134,13.755999880073805],[100.55476401720942,13.755150244742307],[100.55490975780093,13.754980991889033]],[[100.55400800937345,13.756028214073845],[100.5538782856721,13.75638748382719],[100.55386220779954,13.756197535859004],[100.55400800937345,13.756028214073845]],[[100.58083051297083,13.753766212246116],[100.58072466866331,13.75296069329473],[100.58072712907445,13.752960312277844],[100.58083051297083,13.753766212246116]],[[100.58072777707335,13.75296021192936],[100.58072828334763,13.75296013352821],[100.58088444753504,13.753758726327062],[100.58072777707335,13.75296021192936]],[[100.58072486106887,13.752942632590484],[100.58072586795764,13.75295048154817],[100.58071751352716,13.752905058529489],[100.58072486106887,13.752942632590484]],[[100.55153219000701,13.756098254106169],[100.55215025059668,13.756428799666676],[100.55154661430085,13.756111724263041],[100.55153219000701,13.756098254106169]],[[100.55226234861202,13.757553853044476],[100.55240742646666,13.757678703000025],[100.55155141938512,13.757247109836298],[100.55226234861202,13.757553853044476]],[[100.55252195568606,13.75683407131059],[100.55251527325467,13.757016302570399],[100.55206066090453,13.756591766079167],[100.55252195568606,13.75683407131059]],[[100.55098280064105,13.756025590682956],[100.55183563266827,13.756822009179206],[100.55079645016852,13.75592770424014],[100.55098280064105,13.756025590682956]],[[100.55288863306762,13.756407714513903],[100.55290759792948,13.755990867534676],[100.55289637582642,13.756415591908224],[100.55288863306762,13.756407714513903]],[[100.55286113010347,13.757012229220788],[100.55286490514091,13.757014212127714],[100.55286082427891,13.75701895124302],[100.55286113010347,13.757012229220788]],[[100.54049538035113,13.765244119723448],[100.54051273361674,13.765297380704324],[100.5402112275482,13.76516607235082],[100.54049538035113,13.765244119723448]],[[100.54015161251839,13.765296855380717],[100.54057224884514,13.7654800457745],[100.5407830688988,13.766127095139112],[100.54015161251839,13.765296855380717]],[[100.54061094778989,13.764698416888725],[100.54046145956394,13.764239602752971],[100.54048080549302,13.764252133746236],[100.54061094778989,13.764698416888725]]],[[[100.50570735966188,13.78415572654984],[100.50447591974347,13.786104788203176],[100.5072886000219,13.78784610458804],[100.50825079721979,13.786361451134479],[100.50858353012929,13.786513919687518],[100.50868912518693,13.785603525419937],[100.5082806297059,13.78491402669483],[100.50930795933957,13.785626038165194],[100.51055035464913,13.785085813446146],[100.51067724975505,13.78451228717206],[100.5109548163011,13.78485505673815],[100.51151299313568,13.784787207757875],[100.51131444834631,13.783171770473242],[100.51244970455578,13.784361788743805],[100.51436834103728,13.78301782529383],[100.51399405375882,13.782409572958219],[100.51421916773081,13.781971351454203],[100.51536655560565,13.783150194394125],[100.51571117642098,13.78282977007973],[100.5145637887283,13.781650928735175],[100.51603748659177,13.78240765056932],[100.51650077395786,13.782172125265422],[100.51645702097088,13.780545639888615],[100.51734096013351,13.78192436128059],[100.51782376962292,13.781628657960507],[100.51693982911395,13.780249938449415],[100.51817966081404,13.781335677481279],[100.51922986203768,13.780892752123165],[100.51899285409102,13.779282281284594],[100.51936013291017,13.780869232614286],[100.5202205026221,13.780679011461674],[100.51985321856667,13.779092061962587],[100.52055553318739,13.780567216090759],[100.52117356414391,13.780286126532735],[100.52047124686482,13.778810974451067],[100.52170269636605,13.779808160265384],[100.5223270650366,13.779644806115598],[100.52251499168047,13.77802816370005],[100.5230323561841,13.77957463300065],[100.52381872881604,13.77932331207114],[100.52330136004863,13.777776844872685],[100.52400172215762,13.779252881180405],[100.52459884178857,13.778982216230686],[100.52389847710403,13.777506181896875],[100.52519154161382,13.77816503533457],[100.52606893391292,13.777604259184109],[100.52520344647077,13.776214416103228],[100.52620840102936,13.777511510379776],[100.52774597453069,13.776480448136555],[100.52690860243847,13.77507425074534],[100.5280236569585,13.77628232923023],[100.52883516801404,13.775593911219183],[100.52682109681318,13.773002827917319],[100.52657011990645,13.773189201102218],[100.52757714943053,13.77448474652532],[100.52646210651773,13.773276664723298],[100.52535939987601,13.77407300211309],[100.52619675905387,13.775479206219488],[100.52519181446227,13.774182110781359],[100.52381463829742,13.77513589606473],[100.52468011339226,13.776525745412057],[100.52371894840594,13.775197325804886],[100.52326920214682,13.77550819742653],[100.52423036624344,13.776836618890258],[100.52319812200683,13.776030144487326],[100.52167014856825,13.776335160104711],[100.521632002557,13.777961777150809],[100.52108090444472,13.776426480731427],[100.52074541855782,13.776541522901551],[100.52129651491073,13.778076820257448],[100.52030474307614,13.776770062605962],[100.51971914321953,13.777194645296966],[100.52071091410039,13.778501405417504],[100.519768939189,13.77733581928259],[100.51791607225118,13.777789869693391],[100.51815307031885,13.779400342674615],[100.5175013888665,13.777903154009879],[100.51679938944703,13.778195054823295],[100.51745106763744,13.779692245691603],[100.51621124840007,13.77860650160599],[100.51562677046547,13.778939363150595],[100.51567051622217,13.780565849502475],[100.51503637542086,13.77906147948655],[100.51459627181858,13.779238703273604],[100.51523041052482,13.780743074644311],[100.51400432927889,13.779642520146167],[100.51358691570714,13.780086750548842],[100.51395956417139,13.780749075082495],[100.51333931113358,13.7804305766143],[100.51307179143225,13.780792501867264],[100.51351036167911,13.781623521333232],[100.5126523930742,13.780229213179775],[100.51125234180448,13.781052187164772],[100.51211030615622,13.782446500657946],[100.5109750617974,13.781256479514841],[100.51017920372449,13.781981745669473],[100.51073000021718,13.782559122671579],[100.51060385804139,13.783139624221034],[100.50982174880541,13.781703323041562],[100.50947416511076,13.781884126958433],[100.5102562730609,13.783320429379366],[100.50922316348392,13.78204460738657],[100.50844725191833,13.782409798107581],[100.50907589797943,13.783916377836903],[100.50832211728395,13.782465677520415],[100.50780039201999,13.782724637332102],[100.50811223222304,13.783324799363658],[100.50768393149153,13.783367267227838],[100.50778543310574,13.783903406000329],[100.50637563019482,13.783465100793235],[100.50719823819401,13.784879630996123],[100.50570735966188,13.78415572654984]],[[100.50704437418703,13.785182336690616],[100.50721437713851,13.78526488167754],[100.50720621030193,13.785282528408182],[100.50704437418703,13.785182336690616]],[[100.50745995510331,13.784734240713963],[100.50737903636788,13.784595096685187],[100.50750390746721,13.784639268898667],[100.50745995510331,13.784734240713963]],[[100.50844791254806,13.783970839317975],[100.50855417066737,13.78417533946358],[100.50838153399431,13.784114271186942],[100.50844791254806,13.783970839317975]],[[100.50798682480419,13.784967161770174],[100.50804840513304,13.785292428002823],[100.50787521188602,13.785208334710306],[100.50798682480419,13.784967161770174]],[[100.50810094524994,13.785836449510477],[100.50798660264759,13.785639833705106],[100.50812709170431,13.785708047382693],[100.50810094524994,13.785836449510477]],[[100.50992169560007,13.783579238915271],[100.51038421392526,13.784150412887628],[100.51030744659745,13.784503689805497],[100.50992169560007,13.783579238915271]],[[100.51095948612071,13.783213444814654],[100.51105143108205,13.783961557733742],[100.51086951599636,13.783627485537497],[100.51095948612071,13.783213444814654]],[[100.51466180871779,13.781109672923131],[100.51468222687079,13.781069925244159],[100.51481299776435,13.781187307052345],[100.51466180871779,13.781109672923131]],[[100.52211979388743,13.776846849441037],[100.5219892570269,13.777969780437143],[100.52202241509148,13.776555765185815],[100.52211979388743,13.776846849441037]],[[100.5236261686372,13.776932279388888],[100.52356847832709,13.776810693978591],[100.52406395057118,13.777104616430178],[100.5236261686372,13.776932279388888]]]]}},{"type":"Feature","properties":{"name":"คลองลาดพร้าว | Bangkok-wide canal impact corridor","area_type":"canal_impact","status":"watch_improving","severity":"watch","buffer_m":220,"area_km2":4.327,"derived":true,"source":"BMA 39-canal master geometry + current situation evidence","evidence":"วิกฤตช่วงบน 29 ก.ย.; 30 ก.ย.ไม่อยู่ใน 3 คลองหลักที่ยังสูง","evidence_date":"2026-09-30","disclaimer":"Derived situational-awareness corridor; not a surveyed inundation boundary."},"geometry":{"type":"MultiPolygon","coordinates":[[[[100.5865557563838,13.805490823525705],[100.5865899030771,13.807138917874545],[100.58862458621984,13.80711918989351],[100.58659220190479,13.807215729480896],[100.58663157304402,13.808007405920383],[100.58866396413242,13.807910865276073],[100.58664101780525,13.808125114097463],[100.58672451517246,13.808878096614274],[100.58874746776596,13.80866384642623],[100.5867430495497,13.809006184228997],[100.58686805451211,13.809705217283181],[100.588872478293,13.8093628778546],[100.58688585836073,13.809793063403724],[100.58686340872454,13.810800874119982],[100.58873842549579,13.811573340444872],[100.5868332734954,13.810874833992791],[100.58670743669296,13.811202612945738],[100.58861259120285,13.811901120110477],[100.58661948156755,13.811500541872968],[100.58655113031135,13.811825328880909],[100.58854424271696,13.812225907378789],[100.5865096342301,13.812255097336191],[100.58651435280369,13.81256929023187],[100.58854896400887,13.812540099942682],[100.58655452600215,13.812934356182451],[100.58857324970339,13.812657426768222],[100.5867396039556,13.813519568805646],[100.58690841356362,13.81463423311277],[100.58894027624137,13.814741920461046],[100.58692523089788,13.815018685601148],[100.58698285803437,13.81541938430216],[100.58899790664915,13.81514261833403],[100.58710142142185,13.815863383092838],[100.58740242874546,13.818156760216445],[100.58932183770187,13.818586401955162],[100.58733058672459,13.818176830651197],[100.58719119840669,13.818823981755406],[100.58918245489642,13.819233553604636],[100.58714993383084,13.819137680695368],[100.58712001860376,13.81974327633093],[100.58915254496792,13.819839148919659],[100.58711929126557,13.819918964317274],[100.5871821474918,13.821998670892382],[100.591250927632,13.821908728133934],[100.59122135779931,13.82063178505611],[100.58918698010145,13.820676763397117],[100.59122023771675,13.820596930230867],[100.5913907806698,13.818755166490416],[100.58943682719024,13.818199950127756],[100.59147122448397,13.818243123085754],[100.59148921749711,13.817433274629131],[100.58945482726674,13.817390101060388],[100.59148114626215,13.817208002873732],[100.59139105307294,13.816250645952158],[100.58936474211997,13.816432742523805],[100.59136163971253,13.816050425767658],[100.59121283165145,13.815308172162132],[100.58921593986904,13.815690487073901],[100.59111241540954,13.814969706811317],[100.59101168947356,13.814136751927384],[100.58897983305641,13.814029081265216],[100.59100561199124,13.813841627706534],[100.59097469375861,13.813522544383728],[100.58894891749992,13.813709997397337],[100.59090387928633,13.813158321622206],[100.59058287389651,13.812464408866324],[100.59079359006391,13.811928190507595],[100.58891856531876,13.811155740941276],[100.59091597570355,13.811535283494713],[100.59099688363926,13.8111286275902],[100.58899947673763,13.810749085323922],[100.5910331839122,13.810683560134283],[100.59100043987812,13.809713088249959],[100.58896674105337,13.80977861226688],[100.59095335514789,13.809348410298844],[100.59065147874414,13.806333232392364],[100.58861680447967,13.806352976421326],[100.59065073351509,13.806295661283924],[100.59068104296219,13.804154671327241],[100.5886494449894,13.804043940307528],[100.58980925164613,13.803582925829904],[100.5902040856361,13.80376020673599],[100.5909308574724,13.802004960015687],[100.5890195952347,13.801322795205532],[100.59092877075099,13.801466821295074],[100.59093066595081,13.800570484583638],[100.58910939214573,13.800336436405217],[100.59114402717476,13.80035482917255],[100.59134679412664,13.796271605883252],[100.58932587865043,13.79604064751385],[100.59136053077933,13.796051877846885],[100.59136859959854,13.794654583957639],[100.58933395959988,13.794643352382785],[100.59136659963556,13.79455450286158],[100.591420704324,13.792569723035147],[100.58939146799048,13.792424708324956],[100.59142485907029,13.79249474511969],[100.59187888511082,13.790412292227813],[100.58995010418471,13.789779249741386],[100.59193203464595,13.790228912756051],[100.59202582926424,13.789834012685121],[100.59004390212836,13.789384350072305],[100.59207746967122,13.789320219842969],[100.59205539921888,13.78865179027071],[100.5900218374186,13.788715919695996],[100.59205247696643,13.788591595944553],[100.59211325879991,13.7868999019358],[100.59331940106453,13.784241022882394],[100.59145943631715,13.783435038297924],[100.59339644840786,13.78404343685972],[100.59391704485556,13.782460087667033],[100.5950208412844,13.78087116062646],[100.59333761867416,13.779754138397198],[100.59519398345951,13.780567945344345],[100.59537546375263,13.780172476132849],[100.59351910177423,13.77935867026011],[100.59555246241982,13.779426263109526],[100.59558915236592,13.778371746917008],[100.59355580090488,13.778304153377674],[100.59559029632551,13.778315219183343],[100.59559829457937,13.776909431497096],[100.59356381134536,13.776898364437406],[100.59556838218417,13.776558457903436],[100.59535866376011,13.775376938764243],[100.5933541023088,13.77571684256115],[100.59531458253967,13.775185327570325],[100.59512246744501,13.772807695636647],[100.59569616966311,13.769252565221146],[100.59636220522589,13.767604754062427],[100.59447791717449,13.766855004846631],[100.59642417663909,13.767434076541452],[100.59663014994966,13.766772664679864],[100.59468389582189,13.76619359404483],[100.59670628731047,13.766409531440392],[100.59677242488884,13.765817708361674],[100.59475003855236,13.765601770953698],[100.59678248931766,13.765689159513522],[100.59681296950224,13.765011805239432],[100.59478052463635,13.76492441629243],[100.59680143019644,13.76469568223859],[100.59669916116916,13.763136002260739],[100.59776148089526,13.7614749916655],[100.59605645657163,13.760390230247786],[100.59787276768364,13.761285933212983],[100.59901923111644,13.759064653178974],[100.59720293471176,13.758168957125015],[100.59901924612957,13.759064624090096],[100.60434424619996,13.753827228805289],[100.60295583833536,13.75237383186531],[100.60441956156684,13.753754812667621],[100.60519470318535,13.752969767717863],[100.60373098134089,13.751588791399982],[100.60551067874927,13.75255203048125],[100.6058225963851,13.752001351573929],[100.60226322191545,13.750074862686507],[100.60034740636769,13.752034048685404],[100.60173579756307,13.753487462339685],[100.60032384346377,13.752055902981994],[100.59640798692296,13.755746242804063],[100.59781994445855,13.75717782437822],[100.5961844000189,13.755995294797566],[100.5960055170183,13.756231691805237],[100.5976410624723,13.75741422247108],[100.59592261410032,13.756349937836053],[100.59568407925165,13.756717940802272],[100.59740252961078,13.757782226896245],[100.59558623344331,13.756886546173499],[100.59343997220954,13.760674253754845],[100.59514498873531,13.761759034352671],[100.59335021046094,13.760822765873494],[100.59296036035565,13.761536787042427],[100.59475514317113,13.762473057888618],[100.59275403752471,13.762114825795848],[100.59259323228527,13.762973045306246],[100.59459434528421,13.76333127791687],[100.59257257929542,13.763552543676695],[100.59264713779125,13.764203463663897],[100.59466890916578,13.763982196703935],[100.59264800559554,13.764210912824275],[100.59268218917366,13.765792589697437],[100.59211041397766,13.767265489696095],[100.59399469997555,13.768015257474612],[100.59208601625173,13.767326969439921],[100.59181034139868,13.768057331882783],[100.59371903072895,13.768745621461301],[100.591710461262,13.768429478675214],[100.59130613697565,13.770883617329156],[100.59331472761316,13.77119976114305],[100.59130337773543,13.770900845990036],[100.59107647090555,13.772359473115802],[100.59308783339546,13.772658388769708],[100.591053354058,13.772660375752494],[100.59105490787663,13.774186208442819],[100.59308940041828,13.77418422001787],[100.59106353289764,13.774367150912411],[100.59114854585508,13.775266617002805],[100.5931744209042,13.775083684589017],[100.59121393472148,13.775615182960411],[100.59150080802294,13.778858212930393],[100.59038631009749,13.78046250494094],[100.59206952641976,13.781579548278993],[100.59013253762396,13.780971136578454],[100.5882773943732,13.785543404819848],[100.59013736843951,13.786349412721783],[100.58812212864954,13.786075737035329],[100.58793794652377,13.78737123594421],[100.58995319755884,13.787644911936317],[100.58792256307052,13.787769217589402],[100.5877202266654,13.790022485875683],[100.58964900562827,13.790655546284272],[100.58765076244413,13.790281112356569],[100.58741337688907,13.791491192079171],[100.58941163043158,13.791865626831763],[100.58737824354245,13.791795572721176],[100.58726354158985,13.793598572206095],[100.5892927888246,13.793743603523865],[100.58726015305535,13.793832435220885],[100.5871140343469,13.797405250218839],[100.5891349616054,13.797636225727599],[100.58710034845804,13.797617813754751],[100.58696592333104,13.800562444994078],[100.58894734407394,13.801014641557662],[100.5871083426598,13.800640614285902],[100.58650620921824,13.802099819066669],[100.58823378929556,13.803059820470768],[100.58635419337787,13.803806929384418],[100.58655594140123,13.805370282745487],[100.5885896803937,13.805433526211184],[100.5865557563838,13.805490823525705]],[[100.5887349549341,13.812985876719033],[100.58971874775698,13.812523309586268],[100.59022852855938,13.812564403490123],[100.5887349549341,13.812985876719033]],[[100.58948814009477,13.80256122609873],[100.58939874620114,13.802596759725516],[100.58866640089454,13.802267930065174],[100.58948814009477,13.80256122609873]],[[100.58823901391357,13.803057743744091],[100.58824759862387,13.802881732610315],[100.58845149550864,13.802973284587914],[100.58823901391357,13.803057743744091]],[[100.58815758561735,13.804622215016698],[100.58733447928772,13.804566620852485],[100.58815810733095,13.80461151837712],[100.58815758561735,13.804622215016698]],[[100.5881632171082,13.804611796912026],[100.58861562921841,13.804636457553228],[100.58816270122153,13.804622374087478],[100.5881632171082,13.804611796912026]]],[[[100.591605666144,13.844379387584581],[100.59293190476035,13.837724647934957],[100.58888118482015,13.837337112804084],[100.58763461248778,13.843506909991513],[100.591605666144,13.844379387584581]]],[[[100.59160032839344,13.844402484883858],[100.58763365235781,13.843511145963353],[100.58763150318362,13.84352037788136],[100.59160032839344,13.844402484883858]]],[[[100.5883852839816,13.859351104349736],[100.58927325076063,13.856800707501163],[100.58934285351403,13.852849484733607],[100.59035997116806,13.84839783731589],[100.58631976996982,13.84791524241777],[100.58529865595531,13.852339204993616],[100.5852185997967,13.856094589313587],[100.58445850497836,13.858303730350078],[100.5883852839816,13.859351104349736]]]]}},{"type":"Feature","properties":{"name":"คลองบางซื่อ | Bangkok-wide canal impact corridor","area_type":"canal_impact","status":"improving_recent","severity":"improving","buffer_m":180,"area_km2":2.504,"derived":true,"source":"BMA 39-canal master geometry + current situation evidence","evidence":"ระดับเริ่มลดลงจากรายงาน 27-29 ก.ย.","evidence_date":"2026-09-30","disclaimer":"Derived situational-awareness corridor; not a surveyed inundation boundary."},"geometry":{"type":"MultiPolygon","coordinates":[[[[100.53762873371518,13.797648303376754],[100.53706865036864,13.796116114565086],[100.53676002171649,13.796223872352309],[100.53788019346898,13.799288249500092],[100.53831702178532,13.799195743690172],[100.53817949962719,13.797574274769046],[100.53839467916956,13.799187656352466],[100.53887782964233,13.799126824841439],[100.53867131533178,13.79751236234575],[100.53890087304349,13.799123849638162],[100.53954215330334,13.799043292789529],[100.53946500774884,13.797418011869624],[100.5396362037324,13.79903641510451],[100.53995852140814,13.799003849141885],[100.53978732327413,13.79738544635729],[100.54016354364511,13.798970384436796],[100.54100696146645,13.798878307186795],[100.54087692524882,13.797256250381752],[100.54103199081938,13.798876204831682],[100.54126652214707,13.798854761779229],[100.54111145500376,13.79723480764246],[100.54132748190699,13.7988480789257],[100.54211465922472,13.798759022861306],[100.5420374982269,13.79713374447661],[100.54223455743889,13.798749332888406],[100.54209160509885,13.797127440898509],[100.54237837008998,13.798730148173561],[100.54285848730865,13.798667068197433],[100.54275303920008,13.797043308872839],[100.54299189324327,13.798644757202057],[100.54324864710401,13.798625324856904],[100.5431342498715,13.797002144562398],[100.54334663854885,13.798615875713805],[100.5438611991967,13.798558924084277],[100.54368509710625,13.796941026779722],[100.5439134882645,13.798552668709988],[100.54510710120353,13.798450771810725],[100.54512254375813,13.796823817059376],[100.54528443416712,13.798443130593958],[100.5460361746304,13.798371344955308],[100.54587427919152,13.796752032445939],[100.54604139145924,13.798370838673197],[100.54692054937362,13.798284150274133],[100.54675343123337,13.79666534526394],[100.54702506472589,13.798270564852377],[100.54861437036023,13.798130138244167],[100.54854087381578,13.79650470230497],[100.54890906893304,13.798091432764181],[100.55072658778917,13.797711952966072],[100.55079490848502,13.79730086956495],[100.55111815324385,13.797729924928024],[100.55132442825759,13.796115442304329],[100.55182981534476,13.79759779004548],[100.55233783327877,13.797547846951446],[100.55221615942078,13.795925178685563],[100.55241882280168,13.797540097337631],[100.5532796529521,13.797489022374865],[100.55343618307829,13.795869211443751],[100.55396331857177,13.797412512613532],[100.55469895095796,13.7971469450418],[100.55465995084596,13.795653253597669],[100.55476472892971,13.797277045794798],[100.5547874133244,13.795645397681632],[100.55508774467374,13.797074084582041],[100.55546678820534,13.797130770571137],[100.55577075777036,13.79702458899669],[100.55569062104851,13.795542079371122],[100.55588968603024,13.797157422918525],[100.55642846163306,13.79709400397651],[100.55622939309266,13.795478661243617],[100.556733108945,13.797029412923992],[100.55777797639014,13.796950817848304],[100.55815181018191,13.79536535440881],[100.5583531216106,13.796980430204846],[100.55863454761538,13.79694692444135],[100.55856331447895,13.796346114280365],[100.55864028072428,13.796946232002984],[100.55894448395182,13.796908966678531],[100.55890152813396,13.795347677279588],[100.5591398967144,13.796957927349725],[100.55904941921472,13.795326766325255],[100.55960824585446,13.796863917816097],[100.55916589544299,13.795295391065103],[100.55988598399591,13.796762326095411],[100.56049511998359,13.796721122883538],[100.56047524300979,13.795094225119252],[100.56073921045619,13.796700655580226],[100.5610986540095,13.79664423992762],[100.56083468425152,13.795037810099672],[100.5611890137672,13.79662754350921],[100.56589951834967,13.796135642465572],[100.56645810894706,13.796429144242449],[100.56724641494664,13.794996107485758],[100.5665717891835,13.796483536223292],[100.56705655787664,13.796693545103583],[100.56773118087426,13.795206115321825],[100.56740501352509,13.796801590703478],[100.5699101585812,13.797350098694498],[100.57029642526855,13.795767493539671],[100.56998332396329,13.797365465358071],[100.57121700684485,13.797596345665427],[100.5715300997055,13.795998373166107],[100.57131209255303,13.797611367695644],[100.5729661644354,13.797837595556354],[100.57321571705717,13.796228975216431],[100.57310933913303,13.797852654393605],[100.57734745130584,13.798383676617409],[100.5887312258167,13.80084617442255],[100.58945296735779,13.797669560920353],[100.57497291347211,13.794749881746684],[100.57469089724724,13.796353369227935],[100.57487578808387,13.794736431513183],[100.57418799274586,13.794661309492266],[100.57400309711326,13.796278247198895],[100.57410946931375,13.794654568171595],[100.57278416409468,13.794519428972222],[100.57253460897402,13.796128049210296],[100.57275260736236,13.794515054452425],[100.56908551990324,13.793812540167165],[100.56869924658474,13.795395144186873],[100.56902540405359,13.793799668056149],[100.56620833149992,13.79284101493665],[100.56107685435664,13.793327238417803],[100.56129017763303,13.794940838646564],[100.56093585126223,13.793351104976148],[100.56001368068304,13.793472480678963],[100.55996245208179,13.795084556831696],[100.5598966539491,13.79345881380629],[100.55956941226155,13.79347146414608],[100.55963520815028,13.795097207497108],[100.55942473616375,13.793803105543631],[100.55918459165012,13.793974530691171],[100.55902726586311,13.793582562284264],[100.55767576544469,13.793650568768044],[100.55750971217297,13.79526947072017],[100.5573845362323,13.793647060500946],[100.55693106136339,13.793680479126191],[100.55705623423799,13.795302889901642],[100.55679882200205,13.793695441013208],[100.55628539817292,13.793773972989365],[100.55654280709724,13.79538142276827],[100.55603909720104,13.793830669991488],[100.55536155892544,13.793854133725867],[100.55525449392069,13.795477783168083],[100.5547382378837,13.793930975349246],[100.55442963708764,13.794029355166353],[100.5544674754596,13.794530151088408],[100.55395814217329,13.794021227902714],[100.55405809112672,13.795645311532358],[100.55359271226646,13.794249400435536],[100.55251511719058,13.794254281272005],[100.55259977403786,13.79587919587386],[100.55239711212319,13.794264277141394],[100.55169871025241,13.794330855345034],[100.5516356947703,13.794764689740973],[100.55133003210183,13.794380617979995],[100.55127613609568,13.795401939480197],[100.55079101860085,13.794395513363835],[100.55070879866335,13.796020548791017],[100.5502006799912,13.79447116562272],[100.54969864248012,13.7945929674447],[100.55001910397992,13.796189560010367],[100.54968411154465,13.794595818975353],[100.54908554044056,13.794715992444813],[100.54942052916184,13.796309734690453],[100.54905233479187,13.79472300484636],[100.54738449748032,13.794926030620674],[100.54745798435529,13.796551467999873],[100.5471863512364,13.794946248776252],[100.54460234610676,13.795192004843479],[100.5445868988073,13.796818960136655],[100.54435850608616,13.79520731892168],[100.54331656106852,13.795343135228556],[100.54349265823939,13.796961033391318],[100.54330655050784,13.79534420588511],[100.54305635175085,13.79537171387037],[100.54324245782183,13.796988541740886],[100.54303007255103,13.795374810064684],[100.5429802612306,13.797012510371541],[100.54283516587402,13.795391675189547],[100.54284679556191,13.797023922348005],[100.54264759377749,13.79541954914392],[100.54240844517717,13.795451518805397],[100.54251960921268,13.79705778785024],[100.5422022585907,13.795457987813375],[100.54242702729486,13.797070117192437],[100.54214026524869,13.795467409588486],[100.54174983347598,13.795518011054385],[100.54182699073387,13.797143289998976],[100.54161096329739,13.795530019134848],[100.53996015257295,13.795694432859182],[100.5400901804588,13.797316491100666],[100.53971163433371,13.795732082393473],[100.53923751369751,13.795799546825066],[100.5393146559259,13.797424828242436],[100.53908509835253,13.79581334124561],[100.5383229118581,13.795915235102576],[100.53852942119649,13.797529698489978],[100.53831424350683,13.795916316753244],[100.53779051425063,13.795973175943436],[100.537928031597,13.797594645663969],[100.53762765641298,13.795994318171664],[100.53732836042379,13.796047975319405],[100.53762873371518,13.797648303376754]],[[100.54019447235166,13.798617473140576],[100.54019546534533,13.798629860053945],[100.5398943177409,13.797361188090955],[100.54019447235166,13.798617473140576]],[[100.55064403081678,13.797300653762392],[100.55063410898556,13.797251223027665],[100.5506479961677,13.797222280498719],[100.55064403081678,13.797300653762392]],[[100.55103670975002,13.797020419629183],[100.55118711619066,13.796098685245855],[100.55106019903877,13.797092043072764],[100.55103670975002,13.797020419629183]],[[100.55140338953514,13.795647940904956],[100.55149669681644,13.795453474766163],[100.55157992141652,13.795989204421367],[100.55140338953514,13.795647940904956]],[[100.55168252928381,13.795066171550426],[100.55174420590349,13.794937627787958],[100.55182037851813,13.795953524533406],[100.55168252928381,13.795066171550426]],[[100.55332896529886,13.795859315035287],[100.55333673955779,13.795578066573905],[100.55335186453226,13.795622348639421],[100.55332896529886,13.795859315035287]],[[100.5556142012134,13.794921950120857],[100.55547483881524,13.795491661413443],[100.55554788882917,13.794383836583906],[100.5556142012134,13.794921950120857]],[[100.55494589145023,13.795576163813537],[100.55475618161705,13.795161382045897],[100.5547438929137,13.794970935956346],[100.55494589145023,13.795576163813537]],[[100.55789265707237,13.795306988811252],[100.55800636160946,13.794198433301853],[100.55805743140556,13.794608163724881],[100.55789265707237,13.795306988811252]],[[100.55882573548958,13.793815694941815],[100.55904952672603,13.794373258447987],[100.55901948836116,13.794461935119402],[100.55887904522858,13.794175825634042],[100.55882573548958,13.793815694941815]],[[100.55858604049182,13.794114117371237],[100.5588461573464,13.79497362684433],[100.55873743555381,13.795294584218599],[100.55858604049182,13.794114117371237]],[[100.55851166501004,13.795961078488638],[100.5584332343295,13.795331849073488],[100.55851331029027,13.795956221490535],[100.55851166501004,13.795961078488638]],[[100.55914826956806,13.794619269736542],[100.55937945805593,13.79519525811747],[100.5591272212144,13.794681406920969],[100.55914826956806,13.794619269736542]],[[100.56003355307739,13.795099379040174],[100.56004602950603,13.796120726063641],[100.55997408077822,13.795371873573664],[100.56003355307739,13.795099379040174]],[[100.56666591492976,13.794691093758512],[100.5658820031148,13.796116135656836],[100.56586155096527,13.79611110951482],[100.56623842689538,13.79538830435724],[100.56666591492976,13.794691093758512]],[[100.55410914247254,13.79647483495735],[100.55412270709422,13.796695241981476],[100.5538000208162,13.795750510443105],[100.55410914247254,13.79647483495735]],[[100.55434923387445,13.79562819703069],[100.554282328838,13.794541074859929],[100.55443123942972,13.794866656131047],[100.55434923387445,13.79562819703069]],[[100.55451064452328,13.795644799009224],[100.55445542023969,13.796576317802518],[100.5544194191593,13.796491961837788],[100.55451064452328,13.795644799009224]],[[100.5530564404961,13.794757418686833],[100.55313731215048,13.794994192072275],[100.55311355481956,13.795853627555204],[100.5530564404961,13.794757418686833]],[[100.55144857872457,13.795143729603588],[100.55144986240563,13.795151992913416],[100.55144667394589,13.795158638141977],[100.55144857872457,13.795143729603588]],[[100.55040611835734,13.796115362238467],[100.55064220808298,13.796835253952311],[100.55057762988432,13.796969842647288],[100.55040611835734,13.796115362238467]],[[100.55086163138998,13.796377948389663],[100.55083951938745,13.796419145430571],[100.5508593183891,13.796027822929782],[100.55086163138998,13.796377948389663]],[[100.55103014443945,13.796026744974082],[100.55102693084713,13.795540331801496],[100.55114967759118,13.7957776215],[100.55103014443945,13.796026744974082]]],[[[100.51657359573716,13.798739871404113],[100.51679055499633,13.801987045741685],[100.51913445171957,13.801837453553457],[100.51902595480576,13.800213869268724],[100.5193703615109,13.801805716123226],[100.52200093236634,13.801603862908616],[100.5220125792379,13.799976861702103],[100.52236735004931,13.801566530899455],[100.5233420017706,13.801358774377476],[100.522987224973,13.799769107211896],[100.5233814101472,13.8013498825927],[100.52428721392037,13.801134143712],[100.52389302331942,13.799553370351669],[100.52435452298883,13.801116646773975],[100.52553144511714,13.800884326372147],[100.52569265517548,13.79926493393855],[100.52648952836601,13.800693478622163],[100.52763794081413,13.800394627748222],[100.52799414629946,13.798805269377269],[100.52781223086582,13.80042256366581],[100.52844042742296,13.800490052596846],[100.52862233847718,13.798872758295131],[100.52890928769797,13.800475444099582],[100.52931732041957,13.800405666198463],[100.5290303686001,13.798802981142229],[100.5294018290287,13.80038899952404],[100.53202029643296,13.799924315555655],[100.53189480420743,13.798301910503563],[100.53223751518144,13.799894097099717],[100.53270128205875,13.799798751205744],[100.53201586015162,13.796614378749043],[100.53083680201159,13.796748395621524],[100.53096228498018,13.798370802257939],[100.53059081893728,13.796784786748626],[100.52856875780243,13.79723016436528],[100.52764428276124,13.797064766271845],[100.52728807621389,13.798654124323823],[100.52720502447161,13.797029112548879],[100.52671074720021,13.79705324051786],[100.52679379556395,13.798678252810632],[100.52599692880288,13.797249708371774],[100.52489579235205,13.797836385505379],[100.52511182796124,13.799209706385506],[100.52465032852675,13.79764643128656],[100.52073434465393,13.798341036301782],[100.52072268776597,13.799968038562692],[100.52055297875967,13.798349472113188],[100.51956901024403,13.798448011597475],[100.51973871267987,13.800066579407067],[100.51939430735767,13.798474732846648],[100.51657359573716,13.798739871404113]]]]}},{"type":"Feature","properties":{"name":"คลองสอง | Bangkok-wide canal impact corridor","area_type":"canal_impact","status":"critical_gate","severity":"critical","buffer_m":300,"area_km2":3.499,"derived":true,"source":"BMA 39-canal master geometry + current situation evidence","evidence":"ปตร.คลองสองสายใต้ +2.00 ม.รทก. 30 ก.ย. 07:00","evidence_date":"2026-09-30","disclaimer":"Derived situational-awareness corridor; not a surveyed inundation boundary."},"geometry":{"type":"Polygon","coordinates":[[[100.73612471144644,13.773863705401155],[100.73614941623505,13.777312254057325],[100.74169702351465,13.777398014716232],[100.7417260989107,13.775599977711984],[100.73895231800172,13.775557110897108],[100.74172617300371,13.775519132558061],[100.74171639213361,13.774836939167031],[100.73894254515577,13.774874916445448],[100.74171443475662,13.774766241017728],[100.74166156616947,13.767402235902539],[100.73888957536585,13.767298273688164],[100.74166283545917,13.767362166409578],[100.74170069521058,13.765791789582423],[100.73892745373426,13.765727895088807],[100.74169932114799,13.765621326854921],[100.74166943989316,13.764105091031924],[100.73889568143976,13.76406990037443],[100.74166966766752,13.764075390738421],[100.74172689715428,13.754380899190979],[100.73895334464059,13.754339406357522],[100.74172613021221,13.754263363957094],[100.74171621544626,13.750097551297516],[100.73894302266315,13.750039582909984],[100.74171630206224,13.74998575179665],[100.74174096991487,13.747923577623373],[100.73896836779348,13.747843866393442],[100.74174216170263,13.747849799245024],[100.74174414241811,13.746962660203996],[100.73897035896455,13.746956726135346],[100.74173569182047,13.7467451664133],[100.74172656364996,13.744996768502089],[100.73895508264494,13.744886723330092],[100.74172848370183,13.744842774100567],[100.74175836407323,13.742858098122367],[100.73898853340597,13.742714173248975],[100.74176153741898,13.742651727141201],[100.74174654653413,13.739095145532199],[100.73897285362999,13.739090233729069],[100.74174617935562,13.73904586064082],[100.74174235761525,13.73781768804777],[100.73896897041534,13.737778141796019],[100.7417426488523,13.737782495475674],[100.74177915931145,13.73607650367592],[100.73900995225837,13.735922903700542],[100.74177479211706,13.73570685253125],[100.74179003113515,13.733309040489056],[100.73901761009976,13.73322902956201],[100.74178864002728,13.733111703606962],[100.74180289552645,13.730435408096],[100.73902969089036,13.730389904369236],[100.74180328313865,13.730386125395235],[100.74182705328877,13.724020638533776],[100.73628079416004,13.723929482700607],[100.73624997949008,13.725720220862563],[100.7390231315862,13.725765812265456],[100.73624958974573,13.725769553547087],[100.7362179445561,13.732586813370927],[100.738991178468,13.732632345697612],[100.73622014885314,13.732749639727011],[100.73620098789492,13.734611788410545],[100.73897342822549,13.734691829173492],[100.73619978235813,13.734687439189893],[100.73619850464513,13.735456286094607],[100.73897215956377,13.735460675020109],[100.73620731609725,13.73567669473533],[100.73620170523697,13.736441692848903],[100.73897092051054,13.736595323846466],[100.73619725223266,13.736590937327316],[100.73618705174798,13.738309469522635],[100.73896044862755,13.738349046376136],[100.73618712667563,13.738393387223613],[100.73619676359121,13.740364896246897],[100.7389704753208,13.740369837508341],[100.7361967631376,13.74036514505695],[100.7361941563367,13.741833075043562],[100.73896788580994,13.741837765476694],[100.73619488671395,13.741900179114577],[100.73616545364709,13.743549168879161],[100.73893529640561,13.743693124506695],[100.7361619044411,13.743737040768298],[100.73613217785991,13.746013673171463],[100.73890367480941,13.746123748663251],[100.7361383426976,13.746335276053811],[100.73615399115852,13.749151721825159],[100.73892661170855,13.74923146300336],[100.73615333664344,13.749285261742992],[100.7361208863002,13.752217049441867],[100.7388941080436,13.752275046631498],[100.7361213409508,13.75235105449994],[100.736136595632,13.757053635841782],[100.73891018362849,13.757095156658794],[100.736136275946,13.757089625454126],[100.73611324030927,13.764687455956743],[100.73888700952376,13.764722677154944],[100.73611514745696,13.764829212622478],[100.73604357418192,13.769078757373412],[100.73881558878549,13.769182749298626],[100.73604177574562,13.769218664087061],[100.73609354368601,13.773039796616303],[100.73886740166616,13.773003875928657],[100.73609529833918,13.773106779483653],[100.73612448231569,13.773857967897001],[100.73889659440924,13.773755062974022],[100.73612471144644,13.773863705401155]]]}},{"type":"Feature","properties":{"name":"คลองประเวศบุรีรมย์ | Bangkok-wide canal impact corridor","area_type":"canal_impact","status":"high_decreasing","severity":"high","buffer_m":300,"area_km2":13.895,"derived":true,"source":"BMA 39-canal master geometry + current situation evidence","evidence":"ระดับยังสูงแต่ลดลง; กทม.รายงาน 30 ก.ย.","evidence_date":"2026-09-30","disclaimer":"Derived situational-awareness corridor; not a surveyed inundation boundary."},"geometry":{"type":"Polygon","coordinates":[[[100.64847191984764,13.71459128481536],[100.6472449626728,13.719880151637284],[100.65286896949928,13.721423984605565],[100.65374185593801,13.718850180547102],[100.65311921376583,13.721492559814177],[100.65514201795325,13.721948123432142],[100.65576463747102,13.719305741580175],[100.65519342280052,13.721959199159798],[100.66143460286737,13.723582739755104],[100.66220789643103,13.72097868235748],[100.66144694341719,13.723586212020004],[100.66264027799245,13.723919055037417],[100.66340121801775,13.721311523138608],[100.66268724065982,13.72393171870101],[100.66446845913713,13.724395606168368],[100.66518241689246,13.721775407635914],[100.66450458148167,13.724404759485903],[100.67164158303613,13.726310075702953],[100.6724319523513,13.723710934758858],[100.67180880311585,13.726353176652147],[100.67252109370422,13.726513728786749],[100.67314423495569,13.723871485990301],[100.67303258094152,13.726580849704803],[100.6742032465315,13.726626954836211],[100.67431488699482,13.723917592135404],[100.67428641648657,13.726629009345428],[100.6805245059416,13.726720925272655],[100.6805848642072,13.724010015583225],[100.68060417245559,13.726721501641933],[100.68239210438249,13.726741123860258],[100.68247684472927,13.72403084036438],[100.68251717632408,13.726742102924215],[100.68464100112298,13.726755226309583],[100.68474852023455,13.724045718089311],[100.68475990484235,13.726757241509667],[100.68598196834449,13.7267523337864],[100.68597056970258,13.724040812037417],[100.6860068699863,13.726752124429744],[100.68714256229141,13.726737588797373],[100.6871062489961,13.724026278071568],[100.68726948007148,13.726733121332103],[100.690900925931,13.726720589453116],[100.69097257716304,13.724009956304355],[100.69106623440005,13.726719947942707],[100.69500551422307,13.726791335242515],[100.69518834385948,13.72408570013687],[100.69518244052468,13.726797226417261],[100.69668762677611,13.72680035278331],[100.69669351279951,13.724088828470524],[100.69679681038144,13.726798477643637],[100.69805310900063,13.726752700322688],[100.69794979713454,13.724043053335512],[100.69812147493214,13.726749382694868],[100.70057439525725,13.726707855308181],[100.70065595272033,13.723997502621067],[100.70061815689222,13.72670877602719],[100.70178516226437,13.726724320891078],[100.70182294463757,13.724013048866835],[100.70186190756796,13.72672430487077],[100.70382948066603,13.726697271425824],[100.70379049519983,13.723986018355005],[100.70385163927142,13.726696880319436],[100.7064006162948,13.726761294066863],[100.70664944992816,13.724060711164295],[100.7066807992822,13.726772055061645],[100.70748854696201,13.7267631270955],[100.70745718834932,13.724051784380597],[100.70763099617535,13.726757971065252],[100.77531069164446,13.726897794199724],[100.7905360285157,13.726627615449246],[100.83015227319414,13.71225289428079],[100.85625161386395,13.70183575743673],[100.85399432122814,13.696882582152705],[100.82814427968583,13.70719783142759],[100.78947615897832,13.721246117840233],[100.70892437404994,13.721275561575153],[100.70895348118705,13.72507202506013],[100.70870851455706,13.72125811557725],[100.7056546960675,13.721250608386727],[100.70540584996827,13.723951191853288],[100.70534469263657,13.721240331694663],[100.69941164685416,13.721249012167538],[100.69933007216095,13.723959366567506],[100.69915838651382,13.721253038837961],[100.69433151642636,13.721312916137384],[100.69414867518562,13.724018552076108],[100.69425246653275,13.721308917011799],[100.6926226435253,13.721249242235926],[100.69251883331998,13.723958878788402],[100.69242516439145,13.721248888923656],[100.68988759357917,13.721270096898806],[100.68981592687342,13.723980731648975],[100.68988027789749,13.721269921470329],[100.68896529419993,13.721249159391634],[100.68890093261079,13.723959970547993],[100.68893552876418,13.721248640160677],[100.68840381054164,13.721242154685054],[100.68836920826062,13.723953485703571],[100.68820597042242,13.72124664382109],[100.68395132615514,13.721301893820918],[100.68384379530494,13.724011403177501],[100.68380345272925,13.721300141960379],[100.68164304609095,13.721293104590062],[100.68155829333512,13.724003389360242],[100.68153897810284,13.721291904039383],[100.67932277675567,13.721270958076172],[100.67926240087391,13.723981869613834],[100.67931198033884,13.721270748808822],[100.67764440058137,13.721241595160512],[100.67759480187976,13.723952717831805],[100.67762752747115,13.72124135031226],[100.67615329396007,13.721224338300454],[100.67612055138204,13.72393570756742],[100.67614900416345,13.72122429202909],[100.67351483534065,13.721172321335587],[100.67079389572598,13.720405998872602],[100.67000351446386,13.723005136031762],[100.67072117954302,13.72038591400562],[100.6680199940461,13.719678502924307],[100.66730229926154,13.722297720413005],[100.66798009932242,13.719668364688244],[100.66108207304082,13.717835602338402],[100.66030877281804,13.720439657083906],[100.66107652267974,13.717834033082456],[100.65845460582884,13.717095612975502],[100.65768682748853,13.71970123198157],[100.65825801098103,13.717047771960305],[100.65343145227838,13.7158928127962],[100.6525585694531,13.718466615493726],[100.65338640398457,13.7158786260136],[100.6517119629086,13.71536667212289],[100.65088411048819,13.717954657961574],[100.65160738237878,13.715336887668235],[100.65047296028601,13.71503729902403],[100.64974967594868,13.71765506737067],[100.65036312811347,13.715010631352643],[100.64847191984764,13.71459128481536]]]}},{"type":"Feature","properties":{"name":"คลองเปรมประชากร | Bangkok-wide canal impact corridor","area_type":"canal_impact","status":"high_decreasing","severity":"high","buffer_m":300,"area_km2":14.42,"derived":true,"source":"BMA 39-canal master geometry + current situation evidence","evidence":"ระดับยังสูงแต่ลดลง; กทม.รายงาน 30 ก.ย.","evidence_date":"2026-09-30","disclaimer":"Derived situational-awareness corridor; not a surveyed inundation boundary."},"geometry":{"type":"Polygon","coordinates":[[[100.50957597638717,13.762317636151083],[100.5164247085967,13.77477368394365],[100.51887281770232,13.773497765501324],[100.5164262161369,13.774776443484],[100.52184126470354,13.78472408010036],[100.52429450224128,13.783457429476696],[100.52184476308103,13.784730531600939],[100.52738233787731,13.79493254114933],[100.52983513363328,13.793664891579887],[100.5273961843583,13.794957808189597],[100.52991892957077,13.799503310828985],[100.53217858964827,13.798305426569886],[100.52993035432063,13.799520460336456],[100.5416826605189,13.821177249935879],[100.54421851010419,13.819877815094491],[100.54180313109387,13.821365177769662],[100.54269500558559,13.822747641157083],[100.5452028005552,13.821877962486068],[100.54259548997564,13.822806170325805],[100.54273672752588,13.823185031921096],[100.54534404143489,13.822256822224874],[100.54294792433784,13.823624548902284],[100.54862817214905,13.834342171949691],[100.55110903337824,13.833127056060132],[100.54867734156599,13.83443363549677],[100.5493905373495,13.835701043583532],[100.5518222367966,13.834394456235685],[100.54941453338056,13.835742808312144],[100.55179164598233,13.839831575787686],[100.5542100743667,13.838501609761],[100.55180206808026,13.83984951114335],[100.55448501947095,13.844745593351908],[100.55697860828296,13.843555408362441],[100.55452551517442,13.84482339865977],[100.55632830009225,13.848153312243898],[100.55878141438473,13.84688530156931],[100.55633038090394,13.848157148196739],[100.55735126258244,13.850035477246141],[100.55980230795159,13.848763619096445],[100.55735389395747,13.850040306917082],[100.56069301650025,13.856298869887109],[100.56319121272216,13.855117714855488],[100.56074783389431,13.85640369056514],[100.60370344868359,13.934850947175775],[100.60372675119721,13.938297297736229],[100.60646394969858,13.938750479567926],[100.60370530667468,13.938445607241357],[100.60333419936472,13.941067424820211],[100.60607888470082,13.94147533839867],[100.6033271809147,13.941115345013745],[100.60152720802857,13.95423932630755],[100.60703093564112,13.954959288129363],[100.6090942677938,13.940145507921766],[100.60634959698679,13.93973762719292],[100.60910825564444,13.940042467482733],[100.60931768303647,13.938532130834988],[100.60658048521137,13.938078981417306],[100.60935601139876,13.938140321927621],[100.60938708337002,13.936798750131631],[100.606611573293,13.936737408240834],[100.60938772990335,13.93671907487027],[100.60937707015219,13.935180409600619],[100.60660093191035,13.935198740868106],[100.60932605802837,13.934681011361109],[100.60907496991499,13.933420197588124],[100.60634985739752,13.933937922800261],[100.60880328223371,13.932668959226435],[100.60658665570041,13.928580320275081],[100.60413325689449,13.929849258570536],[100.60658312475333,13.928573828474825],[100.5899736816538,13.898131174362442],[100.58752400583325,13.899406415941543],[100.58995218397314,13.898092524285872],[100.56541145984752,13.853375383392896],[100.5629132950149,13.854556558101141],[100.56540138084677,13.853355245469968],[100.56480666060052,13.852179323304146],[100.56231858289573,13.853380629000332],[100.56476902755855,13.852107615068068],[100.56331451543792,13.84943464435909],[100.56086408766146,13.850707641874225],[100.56331248519238,13.849430920295713],[100.55834707592669,13.84011466161611],[100.55585353037709,13.841304856267229],[100.55826152298863,13.839956916090408],[100.55547873418593,13.835175440658398],[100.55306034669952,13.83650541518507],[100.55546803252894,13.835157028746547],[100.55099073601428,13.826844964918124],[100.54850993704703,13.82806007329079],[100.550990186191,13.826843893610372],[100.5491435779412,13.823247767585292],[100.54666335319881,13.824463925940512],[100.54905945266701,13.823096164421711],[100.54771883623576,13.820587017865792],[100.54504163849789,13.82130031508773],[100.5473882409276,13.819852969436123],[100.53550535192271,13.798242780228053],[100.53298093996028,13.799368240313518],[100.53546113771858,13.798152507437047],[100.53513011740915,13.797507497061321],[100.53264992402582,13.798723226125704],[100.53507804680144,13.797410934294634],[100.5299791820317,13.788130294431305],[100.5275264417936,13.789397939905855],[100.52997618995325,13.788124779774547],[100.52452516722137,13.778078757248277],[100.52207198420338,13.779345404764802],[100.52451859385158,13.778066669347355],[100.51647938781475,13.763347046650468],[100.5140313628867,13.764622932739114],[100.51646442999126,13.76331999723603],[100.51444209574501,13.759711831156665],[100.50957597638717,13.762317636151083]],[[100.54342013751261,13.82173232262081],[100.54477986533368,13.820895011329968],[100.5434239278681,13.821731312791357],[100.54342013751261,13.82173232262081]]]}},{"type":"Feature","properties":{"name":"คลองแสนแสบ | Bangkok-wide canal impact corridor","area_type":"canal_impact","status":"high_decreasing","severity":"high","buffer_m":300,"area_km2":19.794,"derived":true,"source":"BMA 39-canal master geometry + current situation evidence","evidence":"ระดับยังสูงแต่ลดลง; กทม.รายงาน 30 ก.ย.","evidence_date":"2026-09-30","disclaimer":"Derived situational-awareness corridor; not a surveyed inundation boundary."},"geometry":{"type":"MultiPolygon","coordinates":[[[[100.80980381236803,13.856170898730136],[100.80991791851093,13.85346184423244],[100.80996326911186,13.856172829708365],[100.81220858307867,13.8562231095484],[100.81234753287558,13.853515166465078],[100.81229144232238,13.856225956717],[100.81707802131156,13.8567236103093],[100.8174495620391,13.854036685715503],[100.81719435723377,13.856736532208847],[100.82012276703999,13.857085970041723],[100.82058761425222,13.854412949767461],[100.82022941910857,13.857101599376092],[100.82181218265677,13.857302897001931],[100.82217035929048,13.854614247319924],[100.82185240730136,13.857307721095227],[100.82362600393343,13.857507586091794],[100.82394393514465,13.854814112536626],[100.82363019658987,13.857508055386536],[100.82798612930218,13.858026561753086],[100.82836451227158,13.855340564589408],[100.82802896518152,13.858031990934052],[100.83771609978157,13.859184742676767],[100.83805153343113,13.856493316894644],[100.83778545835682,13.85919213148336],[100.8507559347578,13.860451166912336],[100.85103811326961,13.857753933237866],[100.85099572484363,13.860464904653155],[100.85928441911365,13.860588479828673],[100.85932671094147,13.857877519050739],[100.85981788468158,13.860545984162338],[100.86542548442515,13.859659728679365],[100.86498995164541,13.856982064616465],[100.86556981383677,13.8596334755336],[100.8704687571923,13.85861061720918],[100.86988884497927,13.855959224389842],[100.8706364024052,13.858570245450359],[100.87709491705849,13.856804869725716],[100.87634729829945,13.854193876466164],[100.87710210041779,13.856802895934702],[100.88304479616424,13.855161496655986],[100.88765380474608,13.854486026425647],[100.8872479943186,13.851803941650239],[100.8878431082447,13.854452089168172],[100.91318261199912,13.849476171571549],[100.91212396903668,13.844153351977242],[100.89343950324479,13.847700491524492],[100.89396862282257,13.850361968945137],[100.89337345807064,13.84771384302646],[100.88430998748782,13.84948760818319],[100.88471575725902,13.852169703118495],[100.8842971348771,13.84948949461647],[100.88203719842973,13.849826474475949],[100.88245579651687,13.852506689995524],[100.88170095705432,13.84989769200692],[100.86922448576152,13.853325463980552],[100.85968080043746,13.855061098520231],[100.86011626709535,13.857738780537352],[100.85962510014718,13.855070315133428],[100.85120070161813,13.855044755732235],[100.84465998148224,13.854391412575474],[100.84437772732393,13.857088648272727],[100.84464372604499,13.85438983584196],[100.8272419191847,13.852452701179633],[100.82686352346653,13.855138698222529],[100.82717722453617,13.852444755720775],[100.81982407661575,13.85153598865038],[100.81935922196665,13.854209008439048],[100.81961440245341,13.851509162570775],[100.81533774176893,13.851021916999432],[100.81496617667707,13.853708841403897],[100.8152667453005,13.851013452717256],[100.813629699168,13.850839165992914],[100.81332911136374,13.853534554991569],[100.81338519320234,13.85082376549017],[100.81106831804485,13.850737745523672],[100.81092935085141,13.85344569007457],[100.81088399364319,13.850734705511247],[100.80848882683462,13.850690727475776],[100.80826057707696,13.85610883972072],[100.80980381236803,13.856170898730136]]],[[[100.70488199677595,13.80077131357074],[100.79772383597654,13.85157301980283],[100.80046059045196,13.84685546786637],[100.70746158500401,13.795969938432586],[100.70488199677595,13.80077131357074]]],[[[100.59534588281416,13.742003198737574],[100.59618028770498,13.744240933705141],[100.59881984346238,13.743407142795734],[100.59628311895038,13.74450434850103],[100.5974301131078,13.747754862581571],[100.60008189709686,13.746958891793657],[100.59754826198365,13.748062977396906],[100.59771714636527,13.74843331187994],[100.60025078427505,13.74732922422451],[100.59809781804607,13.749039134651683],[100.59847966085758,13.749498550654998],[100.60063262775338,13.747788636797509],[100.59890723039064,13.749911930321087],[100.60204412188348,13.75290474790187],[100.60396863750215,13.751116481525315],[100.60215773618049,13.75302739240312],[100.60726627153042,13.75776231037522],[100.60921620694161,13.755833583601651],[100.60730923028915,13.75780292363991],[100.61216626917374,13.762357537071118],[100.61416403662349,13.760476133585247],[100.61291018944361,13.762894987348949],[100.61410255631439,13.763485524966699],[100.61535639298543,13.761066666242975],[100.61465956869483,13.76369135728747],[100.61628283956921,13.764103105791069],[100.61697964591005,13.761478412093732],[100.6165674239078,13.764159934694485],[100.62161374307261,13.764901060948926],[100.62202590689733,13.762219536249223],[100.62173930692872,13.764916646415264],[100.63665289804577,13.76653275890631],[100.63707965649814,13.763853435677843],[100.6367662043974,13.766547670990297],[100.63849459132479,13.766739782223498],[100.63880802336789,13.764045546928006],[100.63874099856639,13.766756353189287],[100.64134002003874,13.767065494560818],[100.64175622612443,13.764384591883683],[100.64151650471469,13.767086043012194],[100.64336346612185,13.767270058688881],[100.64369048123886,13.764577372619843],[100.64339789188321,13.767273840197996],[100.64575206079179,13.767517962054713],[100.64604516853792,13.76482155134028],[100.64578115245165,13.767520831906984],[100.64766493787678,13.767828906462718],[100.64952639511908,13.76924507862678],[100.65136144296858,13.767211488045078],[100.64967224023032,13.769362431518655],[100.65247222731524,13.7715452757173],[100.6542372846815,13.769453324663987],[100.65269833575096,13.771709424053569],[100.65401915849435,13.772570179890343],[100.65555809843842,13.770314073182586],[100.6542524431302,13.77270656106622],[100.6558775252029,13.773582127787225],[100.65727253256509,13.771238314407116],[100.6559434741588,13.77361845945024],[100.66339806019762,13.777689381382867],[100.66613550495534,13.772972243779643],[100.66217223366122,13.770774959563902],[100.66080349187344,13.773133512238369],[100.66214324267247,13.770759109691797],[100.66007960266967,13.769646669007605],[100.65873983471043,13.772021062160029],[100.66006885589671,13.769640905927044],[100.65754982089437,13.768258953419762],[100.65603719769008,13.770800407126947],[100.65744331877553,13.768223761795126],[100.65449479516904,13.766146174736337],[100.65272976167553,13.768238125124393],[100.65441892710899,13.766087164528152],[100.65196639415187,13.76411742752154],[100.65013137306426,13.766151019803676],[100.65172855171483,13.763933943897088],[100.65117787314566,13.7635549208282],[100.64958069103795,13.765771993520897],[100.65094379896169,13.763410331221307],[100.65020695480021,13.763003995248612],[100.64884384087382,13.765365654108711],[100.64982485889958,13.762829280374234],[100.6492017980658,13.762599033484872],[100.64822077369823,13.765135405427818],[100.64890550558707,13.76250771899161],[100.64819467408063,13.762330742424382],[100.64750993430151,13.7649584277523],[100.64777393090094,13.76225914733947],[100.64593850442478,13.762083621066774],[100.64564539517431,13.76478003198243],[100.6459379586956,13.762083564441035],[100.64309616723729,13.761777780934567],[100.64276914536586,13.764470467125125],[100.64300885309258,13.761769016133366],[100.64001221185949,13.761383258002791],[100.63959598686448,13.76406415998239],[100.6396630046395,13.761353354105907],[100.63640883487797,13.761007081643907],[100.63598207003425,13.763686404577834],[100.63639233703496,13.761004620595196],[100.63526572777543,13.760839945126985],[100.6348554477806,13.763521728664102],[100.6351418957451,13.760824619793336],[100.61753567476977,13.758818012195425],[100.61543630256934,13.757858701463253],[100.61343856629858,13.759740112095402],[100.61534550004438,13.757770728799837],[100.60933048529066,13.75213163754881],[100.60738057811167,13.75406036232129],[100.60926570287519,13.752071048425655],[100.60458590688931,13.747646976500079],[100.60257534943871,13.74951522377699],[100.60450491053685,13.747567071310996],[100.60322170962509,13.74635259725809],[100.60129214556619,13.748300739933816],[100.6030175093737,13.746177433080518],[100.60194988022054,13.743667848649654],[100.5992981406197,13.744463835010615],[100.60183484713532,13.7433665998546],[100.60097829120572,13.741118026540033],[100.59833877044564,13.741951837080478],[100.60089063796704,13.740888785755056],[100.60044962749616,13.739877130994014],[100.59534588281416,13.742003198737574]]],[[[100.53579165862229,13.752237296718338],[100.54103827679164,13.752076321103862],[100.54539397178651,13.751261339276398],[100.54992107787221,13.751119065137578],[100.55005695557382,13.74569726700711],[100.54672512686098,13.745670668961377],[100.54046264827407,13.74666239838941],[100.53655991489197,13.746892418952292],[100.53670052876596,13.748272443733413],[100.53579165862229,13.752237296718338]]]]}},{"type":"Feature","properties":{"name":"คลองจั่น | Local canal impact/watch corridor","area_type":"canal_impact","status":"tributary_impact","severity":"high","buffer_m":250,"area_km2":1.93,"derived":true,"source":"OSM exact-name geometry + current situation evidence","evidence":"พื้นที่คลองจั่นยังมีน้ำท่วมขัง/เร่งสูบระบาย","evidence_date":"2026-09-30","disclaimer":"Derived situational-awareness corridor; not a surveyed inundation boundary."},"geometry":{"type":"MultiPolygon","coordinates":[[[[100.62815818902209,13.762971537799057],[100.62590624853443,13.77521640104947],[100.63045495696133,13.776027577040617],[100.63128060448855,13.77252343953134],[100.63116467702358,13.772066884575295],[100.63277341113508,13.763242640274761],[100.62815818902209,13.762971537799057]]],[[[100.61831665484492,13.81595121371835],[100.61941565743832,13.818995557013771],[100.62184077973698,13.81924926487385],[100.62265591576137,13.820465908141296],[100.62468781918443,13.819647698192787],[100.62545099359258,13.819727751056591],[100.62574788803737,13.815229476752139],[100.62302491559068,13.81485512850049],[100.62333598937775,13.812406865516492],[100.6210532,13.812047200000002],[100.62335851891146,13.812222231523787],[100.62298312379265,13.8098705472361],[100.6247943322302,13.807327598019077],[100.62590725950362,13.800588848260844],[100.62135234570832,13.799808929773087],[100.62017101200583,13.80602501256167],[100.61887093602088,13.807575645177767],[100.61837332613966,13.809390267120706],[100.61875416898951,13.811785980879339],[100.61831665484492,13.81595121371835]],[[100.62421225113118,13.816955681600716],[100.62426320810111,13.816971091905708],[100.6243709,13.817331200000002],[100.62421225113118,13.816955681600716]]]]}},{"type":"Feature","properties":{"name":"คลองจิก | Local canal impact/watch corridor","area_type":"canal_impact","status":"tributary_watch","severity":"watch","buffer_m":200,"area_km2":1.148,"derived":true,"source":"OSM exact-name geometry + current situation evidence","evidence":"คลองสาขาในโซนบางกะปิ/รามคำแหง","evidence_date":"2026-09-30","disclaimer":"Derived situational-awareness corridor; not a surveyed inundation boundary."},"geometry":{"type":"Polygon","coordinates":[[[100.6346845627632,13.761339849625575],[100.63546030898306,13.755330440892848],[100.63499063825367,13.75318742661122],[100.6367813213474,13.751661465486727],[100.64003883403579,13.750703108133523],[100.64187999816049,13.74932009303155],[100.64392453572317,13.748314119106684],[100.64595287818359,13.748297526016747],[100.64905329398118,13.746013435688683],[100.64707031955813,13.742961558699866],[100.64474210424632,13.744669901102775],[100.64279467400335,13.744826678425817],[100.63969661613655,13.746350300422376],[100.63834297848396,13.747487887455339],[100.63528115217105,13.748318498714637],[100.635783,13.750058400000002],[100.63443235370806,13.748823587737846],[100.63289992399521,13.750204025997997],[100.63035302244182,13.751834064342745],[100.63130721820843,13.753639981179544],[100.63171188811687,13.755486544984288],[100.63101083894671,13.760919536303128],[100.6346845627632,13.761339849625575]]]}},{"type":"Feature","properties":{"name":"คลองพระยาสุเรนทร์ | Local canal impact/watch corridor","area_type":"canal_impact","status":"watch","severity":"watch","buffer_m":250,"area_km2":5.202,"derived":true,"source":"OSM exact-name geometry + current situation evidence","evidence":"แนวเฝ้าระวังสายไหม/คลองสามวา","evidence_date":"2026-09-30","disclaimer":"Derived situational-awareness corridor; not a surveyed inundation boundary."},"geometry":{"type":"Polygon","coordinates":[[[100.67160846661619,13.85280127279999],[100.6685058398858,13.852421668013669],[100.66824965978813,13.854088100838402],[100.66940041269366,13.855444296923476],[100.67274205126904,13.857176440074864],[100.67491595241086,13.859283441512138],[100.67662712837944,13.860127115118077],[100.67875773040254,13.860588542890387],[100.6811116460346,13.863343807352441],[100.68199974098216,13.86740027242213],[100.68323530075223,13.869553718135542],[100.68234172225816,13.872100649147715],[100.6821033163123,13.87473663446539],[100.68265949401717,13.876098142658389],[100.68716088990254,13.880857742588647],[100.68700388298603,13.881354010394212],[100.6874305150159,13.884020815640495],[100.68833938752763,13.886428105528092],[100.68902486442006,13.887262668817224],[100.68909021392828,13.89066055437941],[100.68999168034752,13.897331216930693],[100.68831166968705,13.899479565503707],[100.68798842127282,13.900990000670282],[100.68731192586937,13.902366456281353],[100.68564123865269,13.904838394935796],[100.68470024528445,13.907440740239435],[100.68467920545929,13.908254722169112],[100.68258269676153,13.90920357390185],[100.68131552799227,13.910352160389774],[100.68134079951157,13.913956449525479],[100.68279895344251,13.915980599517857],[100.68395583274732,13.916448802476605],[100.68493495404357,13.917570544114128],[100.68518926577326,13.917396424661545],[100.68494615949345,13.917586021423526],[100.68487235308892,13.921286408091724],[100.68625753294855,13.924605223569754],[100.68653406846602,13.926025774421905],[100.68707181990705,13.926704331738158],[100.68745914238262,13.931053286310421],[100.69208585484998,13.93103769172447],[100.69150990026857,13.925000092171793],[100.69086404962434,13.924034058937679],[100.69082645036447,13.923138756595442],[100.68993900825468,13.921855189340727],[100.68943804152454,13.920466693941762],[100.6898540464163,13.916966836482123],[100.68866422370263,13.914894143914658],[100.68677,13.916191100000002],[100.68865086544395,13.914875724703874],[100.68630863627874,13.912531913397801],[100.68875820291817,13.910862334127417],[100.68937168967896,13.909548843367842],[100.68930656043341,13.908270637059584],[100.68984257728299,13.906788184896465],[100.69122969382806,13.904836525504278],[100.6926113061558,13.901472220995696],[100.69449894222005,13.898634732088228],[100.69462057199289,13.897079997453044],[100.69367460526598,13.888459776904584],[100.69404477929045,13.888247684119378],[100.69451021451947,13.88628981962958],[100.69365660803724,13.884872014404184],[100.69218429739928,13.883779804461975],[100.69171508721422,13.881862122748526],[100.69224885693228,13.880070786198932],[100.69202188558796,13.878417318418366],[100.68967370856195,13.87705041855481],[100.68727421731363,13.874040313650395],[100.68673247329185,13.87371528344487],[100.68796233774903,13.87004692890923],[100.68788869399454,13.868187281078175],[100.686313841755,13.865739510236741],[100.68564512223291,13.8623006084192],[100.68392019716765,13.859273785990007],[100.68288621194945,13.858472517363412],[100.68226015101229,13.85755550672266],[100.6802343,13.858645399999997],[100.68092045886469,13.856487543592664],[100.6781936592722,13.855837483644121],[100.67698433625804,13.854860309467657],[100.6753144,13.8564235],[100.67696714522822,13.854842963591384],[100.67655449631539,13.854431023709578],[100.67538412847759,13.853430154913553],[100.67197240759002,13.851661694101951],[100.67143050592888,13.85265974742853],[100.67160846661619,13.85280127279999]],[[100.6868292,13.916273600000002],[100.68547187041496,13.917219619836455],[100.685449141064,13.917218495496238],[100.6868292,13.916273600000002]]]}}]}