{"type":"FeatureCollection","name":"Bangkok Low-Lying Elevation Context","features":[{"type":"Feature","properties":{"band":"below_0","label":"< 0 m","cell_count":91,"median_sample_m":-2.0,"source":"AWS Open Data Terrain Tiles / Mapzen DEM; clipped to Bangkok administrative boundary from OpenStreetMap","confidence":"context_only","disclaimer":"Context-only DEM layer, not survey-grade. Do not interpret sub-meter differences as surveyed ground levels."},"geometry":{"type":"MultiPolygon","coordinates":[[[[100.4540891,13.2191019],[100.4088727203142,13.489101899999994],[100.42787720000005,13.489101899999994],[100.42787720000005,13.499101899999994],[100.45403365715235,13.499101899999994],[100.4540891,13.2191019]]],[[[100.78787720000024,13.879101899999986],[100.78787720000024,13.889101899999986],[100.79787720000024,13.889101899999986],[100.79787720000024,13.879101899999986],[100.78787720000024,13.879101899999986]]]]}},{"type":"Feature","properties":{"band":"0_1","label":"0–1 m","cell_count":5,"median_sample_m":0.0,"source":"AWS Open Data Terrain Tiles / Mapzen DEM; clipped to Bangkok administrative boundary from OpenStreetMap","confidence":"context_only","disclaimer":"Context-only DEM layer, not survey-grade. Do not interpret sub-meter differences as surveyed ground levels."},"geometry":{"type":"MultiPolygon","coordinates":[[[[100.45230686885148,13.509101899999994],[100.45403365715235,13.499101899999994],[100.44787720000006,13.499101899999994],[100.44787720000006,13.509101899999994],[100.45230686885148,13.509101899999994]]],[[[100.44787720000006,13.519101899999994],[100.43787720000006,13.519101899999994],[100.43787720000006,13.529101899999993],[100.44787720000006,13.529101899999993],[100.44787720000006,13.519101899999994]]],[[[100.42787720000005,13.569101899999993],[100.41787720000005,13.569101899999993],[100.41787720000005,13.579101899999992],[100.42787720000005,13.579101899999992],[100.42787720000005,13.569101899999993]]],[[[100.5393284110203,13.66910189999999],[100.5391522,13.6690876],[100.53885469259278,13.66910189999999],[100.5393284110203,13.66910189999999]]],[[[100.7178772000002,13.759101899999989],[100.7178772000002,13.769101899999988],[100.72787720000021,13.769101899999988],[100.72787720000021,13.759101899999989],[100.7178772000002,13.759101899999989]]]]}},{"type":"Feature","properties":{"band":"1_2","label":"1–2 m","cell_count":31,"median_sample_m":1.0,"source":"AWS Open Data Terrain Tiles / Mapzen DEM; clipped to Bangkok administrative boundary from OpenStreetMap","confidence":"context_only","disclaimer":"Context-only DEM layer, not survey-grade. Do not interpret sub-meter differences as surveyed ground levels."},"geometry":{"type":"MultiPolygon","coordinates":[[[[100.42787720000005,13.509101899999994],[100.42787720000005,13.539101899999993],[100.43787720000006,13.539101899999993],[100.43787720000006,13.499101899999994],[100.40787720000004,13.499101899999994],[100.40787720000004,13.519958932722213],[100.4089531,13.5205802],[100.408996,13.5230191],[100.4110064,13.5230437],[100.4110037,13.5294683],[100.4124829,13.5294731],[100.4125406,13.5358116],[100.4139773,13.5358044],[100.4151496546933,13.539101899999993],[100.41787720000005,13.539101899999993],[100.41787720000005,13.509101899999994],[100.42787720000005,13.509101899999994]]],[[[100.41787720000005,13.539101899999993],[100.4200788,13.5451931],[100.4195006,13.5468532],[100.41787720000005,13.548761079314602],[100.41787720000005,13.559101899999993],[100.43787720000006,13.559101899999993],[100.43787720000006,13.549101899999993],[100.42787720000005,13.549101899999993],[100.42787720000005,13.539101899999993],[100.41787720000005,13.539101899999993]]],[[[100.39787720000004,13.569101899999993],[100.40787720000004,13.569101899999993],[100.40787720000004,13.579101899999992],[100.41787720000005,13.579101899999992],[100.41787720000005,13.559101899999993],[100.39787720000004,13.559101899999993],[100.39787720000004,13.569101899999993]]],[[[100.3905332,13.5693254],[100.3894497,13.5698284],[100.3888544,13.5729643],[100.38787720000003,13.57264797131463],[100.38787720000003,13.589101899999992],[100.39787720000004,13.589101899999992],[100.39787720000004,13.569101899999993],[100.3905332,13.5693254]]],[[[100.44863538392242,13.529101899999993],[100.44787720000006,13.529101899999993],[100.44787720000006,13.533411999032111],[100.44863538392242,13.529101899999993]]],[[[100.44558379767278,13.569101899999993],[100.44479541864709,13.559101899999993],[100.43787720000006,13.559101899999993],[100.43787720000006,13.569101899999993],[100.44558379767278,13.569101899999993]]],[[[100.44766927171052,13.589101899999992],[100.4465737,13.5870449],[100.4462693,13.5850593],[100.4467572,13.5828585],[100.44638402358497,13.579101899999992],[100.43787720000006,13.579101899999992],[100.43787720000006,13.589101899999992],[100.44766927171052,13.589101899999992]]],[[[100.78787720000024,13.72910189999999],[100.76787720000023,13.72910189999999],[100.76787720000023,13.739101899999989],[100.75787720000022,13.739101899999989],[100.75787720000022,13.749101899999989],[100.77787720000023,13.749101899999989],[100.77787720000023,13.739101899999989],[100.78787720000024,13.739101899999989],[100.78787720000024,13.72910189999999]]],[[[100.7178772000002,13.749101899999989],[100.7178772000002,13.739101899999989],[100.7078772000002,13.739101899999989],[100.7078772000002,13.749101899999989],[100.7178772000002,13.749101899999989]]],[[[100.85787720000027,13.749101899999989],[100.85787720000027,13.739101899999989],[100.84787720000027,13.739101899999989],[100.84787720000027,13.749101899999989],[100.85787720000027,13.749101899999989]]],[[[100.87787720000028,13.749101899999989],[100.87787720000028,13.739101899999989],[100.86787720000028,13.739101899999989],[100.86787720000028,13.749101899999989],[100.87787720000028,13.749101899999989]]],[[[100.66787720000018,13.759101899999989],[100.66787720000018,13.749101899999989],[100.65787720000017,13.749101899999989],[100.65787720000017,13.759101899999989],[100.66787720000018,13.759101899999989]]],[[[100.7078772000002,13.759101899999989],[100.7078772000002,13.749101899999989],[100.69787720000019,13.749101899999989],[100.69787720000019,13.759101899999989],[100.7078772000002,13.759101899999989]]],[[[100.82787720000026,13.799101899999988],[100.82787720000026,13.789101899999988],[100.81787720000025,13.789101899999988],[100.81787720000025,13.799101899999988],[100.82787720000026,13.799101899999988]]],[[[100.79787720000024,13.879101899999986],[100.79787720000024,13.869101899999986],[100.78787720000024,13.869101899999986],[100.78787720000024,13.879101899999986],[100.79787720000024,13.879101899999986]]]]}},{"type":"Feature","properties":{"band":"2_3","label":"2–3 m","cell_count":91,"median_sample_m":2.0,"source":"AWS Open Data Terrain Tiles / Mapzen DEM; clipped to Bangkok administrative boundary from OpenStreetMap","confidence":"context_only","disclaimer":"Context-only DEM layer, not survey-grade. Do not interpret sub-meter differences as surveyed ground levels."},"geometry":{"type":"MultiPolygon","coordinates":[[[[100.41787720000005,13.539101899999993],[100.42787720000005,13.539101899999993],[100.42787720000005,13.509101899999994],[100.41787720000005,13.509101899999994],[100.41787720000005,13.539101899999993]]],[[[100.44863538392242,13.529101899999993],[100.45230686885148,13.509101899999994],[100.43787720000006,13.509101899999994],[100.43787720000006,13.519101899999994],[100.44787720000006,13.519101899999994],[100.44787720000006,13.529101899999993],[100.44863538392242,13.529101899999993]]],[[[100.43787720000006,13.529101899999993],[100.43787720000006,13.539101899999993],[100.44690001144657,13.539101899999993],[100.44787720000006,13.533411999032111],[100.44787720000006,13.529101899999993],[100.43787720000006,13.529101899999993]]],[[[100.42787720000005,13.539101899999993],[100.42787720000005,13.549101899999993],[100.43787720000006,13.549101899999993],[100.43787720000006,13.539101899999993],[100.42787720000005,13.539101899999993]]],[[[100.4445067,13.5532903],[100.44519069827821,13.549101899999993],[100.43787720000006,13.549101899999993],[100.43787720000006,13.559101899999993],[100.44479541864709,13.559101899999993],[100.4445067,13.5532903]]],[[[100.40787720000004,13.554714453939383],[100.4044757,13.555087],[100.4034481,13.5535564],[100.4025032,13.5531029],[100.39787720000004,13.552989653694578],[100.39787720000004,13.559101899999993],[100.40787720000004,13.559101899999993],[100.40787720000004,13.554714453939383]]],[[[100.39317257329364,13.559101899999993],[100.3925723,13.5609464],[100.3930879,13.5614774],[100.3922242,13.5630911],[100.3913498,13.5632371],[100.3908187,13.5654691],[100.3906417,13.5676123],[100.3915482,13.5687491],[100.3905974858871,13.569101899999993],[100.39787720000004,13.569101899999993],[100.39787720000004,13.559101899999993],[100.39317257329364,13.559101899999993]]],[[[100.41787720000005,13.589101899999992],[100.41787720000005,13.599101899999992],[100.42787720000005,13.599101899999992],[100.42787720000005,13.579101899999992],[100.40787720000004,13.579101899999992],[100.40787720000004,13.569101899999993],[100.39787720000004,13.569101899999993],[100.39787720000004,13.589101899999992],[100.41787720000005,13.589101899999992]]],[[[100.37854279124379,13.599101899999992],[100.37787720000003,13.603907690764325],[100.37807012723816,13.609101899999992],[100.38787720000003,13.609101899999992],[100.38787720000003,13.599101899999992],[100.37854279124379,13.599101899999992]]],[[[100.45787720000007,13.604446520883412],[100.4556555,13.6052741],[100.454658,13.6050568],[100.4537407,13.6059901],[100.4537998,13.6044718],[100.452438,13.6017867],[100.45213696264074,13.599101899999992],[100.43787720000006,13.599101899999992],[100.43787720000006,13.609101899999992],[100.45787720000007,13.609101899999992],[100.45787720000007,13.604446520883412]]],[[[100.4854408,13.6063131],[100.4852266,13.6032334],[100.482105,13.6029679],[100.4821613,13.6021571],[100.4815954,13.6021285],[100.4818261,13.6012082],[100.47787720000008,13.600944479302708],[100.47787720000008,13.609101899999992],[100.48787720000009,13.609101899999992],[100.48787720000009,13.606662530933775],[100.4854408,13.6063131]]],[[[100.49787720000009,13.609101899999992],[100.49787720000009,13.619101899999992],[100.5078772000001,13.619101899999992],[100.5078772000001,13.609101899999992],[100.50184324953624,13.609101899999992],[100.5015349,13.609527],[100.49787720000009,13.609101899999992]]],[[[100.44787720000006,13.619101899999992],[100.44787720000006,13.629101899999991],[100.45787720000007,13.629101899999991],[100.45787720000007,13.619101899999992],[100.44787720000006,13.619101899999992]]],[[[100.47787720000008,13.619101899999992],[100.46787720000007,13.619101899999992],[100.46787720000007,13.629101899999991],[100.47787720000008,13.629101899999991],[100.47787720000008,13.619101899999992]]],[[[100.5202697,13.6091419],[100.5210167,13.6051441],[100.5178772000001,13.60421787404271],[100.5178772000001,13.611916732547758],[100.5182534,13.6114939],[100.517887,13.6110049],[100.5202697,13.6091419]]],[[[100.69787720000019,13.65625632204846],[100.68787720000019,13.658329723999556],[100.68787720000019,13.65910189999999],[100.69787720000019,13.65910189999999],[100.69787720000019,13.65625632204846]]],[[[100.65787720000017,13.68910189999999],[100.65787720000017,13.69910189999999],[100.66787720000018,13.69910189999999],[100.66787720000018,13.68910189999999],[100.65787720000017,13.68910189999999]]],[[[100.69787720000019,13.68910189999999],[100.68787720000019,13.68910189999999],[100.68787720000019,13.69910189999999],[100.69787720000019,13.69910189999999],[100.69787720000019,13.68910189999999]]],[[[100.62787720000016,13.71910189999999],[100.62787720000016,13.72910189999999],[100.63787720000016,13.72910189999999],[100.63787720000016,13.71910189999999],[100.62787720000016,13.71910189999999]]],[[[100.67787720000018,13.749101899999989],[100.68787720000019,13.749101899999989],[100.68787720000019,13.72910189999999],[100.65787720000017,13.72910189999999],[100.65787720000017,13.739101899999989],[100.67787720000018,13.739101899999989],[100.67787720000018,13.749101899999989]]],[[[100.74787720000022,13.749101899999989],[100.73787720000021,13.749101899999989],[100.73787720000021,13.759101899999989],[100.74787720000022,13.759101899999989],[100.74787720000022,13.749101899999989]]],[[[100.76787720000023,13.749101899999989],[100.76787720000023,13.759101899999989],[100.78787720000024,13.759101899999989],[100.78787720000024,13.749101899999989],[100.76787720000023,13.749101899999989]]],[[[100.58787720000014,13.759101899999989],[100.58787720000014,13.769101899999988],[100.59787720000014,13.769101899999988],[100.59787720000014,13.759101899999989],[100.58787720000014,13.759101899999989]]],[[[100.68787720000019,13.759101899999989],[100.67787720000018,13.759101899999989],[100.67787720000018,13.769101899999988],[100.68787720000019,13.769101899999988],[100.68787720000019,13.759101899999989]]],[[[100.7078772000002,13.769101899999988],[100.7078772000002,13.779101899999988],[100.7178772000002,13.779101899999988],[100.7178772000002,13.769101899999988],[100.7078772000002,13.769101899999988]]],[[[100.72787720000021,13.779101899999988],[100.72787720000021,13.789101899999988],[100.73787720000021,13.789101899999988],[100.73787720000021,13.779101899999988],[100.72787720000021,13.779101899999988]]],[[[100.75787720000022,13.789101899999988],[100.77787720000023,13.789101899999988],[100.77787720000023,13.779101899999988],[100.75787720000022,13.779101899999988],[100.75787720000022,13.789101899999988]]],[[[100.65787720000017,13.789101899999988],[100.65787720000017,13.799101899999988],[100.66787720000018,13.799101899999988],[100.66787720000018,13.789101899999988],[100.65787720000017,13.789101899999988]]],[[[100.75787720000022,13.799101899999988],[100.74787720000022,13.799101899999988],[100.74787720000022,13.809101899999987],[100.75787720000022,13.809101899999987],[100.75787720000022,13.799101899999988]]],[[[100.75787720000022,13.819101899999987],[100.75787720000022,13.829101899999987],[100.76787720000023,13.829101899999987],[100.76787720000023,13.819101899999987],[100.75787720000022,13.819101899999987]]],[[[100.60787720000015,13.829101899999987],[100.60787720000015,13.839101899999987],[100.61787720000015,13.839101899999987],[100.61787720000015,13.829101899999987],[100.60787720000015,13.829101899999987]]],[[[100.7178772000002,13.879101899999986],[100.7078772000002,13.879101899999986],[100.7078772000002,13.889101899999986],[100.7178772000002,13.889101899999986],[100.7178772000002,13.879101899999986]]],[[[100.859334,13.6894423],[100.8352329226805,13.69910189999999],[100.85576607646158,13.69910189999999],[100.860782,13.6969942],[100.859334,13.6894423]]],[[[100.80787720000025,13.71910189999999],[100.80787720000025,13.72910189999999],[100.82787720000026,13.72910189999999],[100.82787720000026,13.71910189999999],[100.84787720000027,13.71910189999999],[100.84787720000027,13.72910189999999],[100.86787720000028,13.72910189999999],[100.86787720000028,13.720143177383948],[100.86722732891121,13.71910189999999],[100.85787720000027,13.71910189999999],[100.85787720000027,13.70910189999999],[100.81787720000025,13.70910189999999],[100.81787720000025,13.71910189999999],[100.80787720000025,13.71910189999999]]],[[[100.80787720000025,13.709410328401276],[100.79787720000024,13.713249314762908],[100.79787720000024,13.71910189999999],[100.80787720000025,13.71910189999999],[100.80787720000025,13.709410328401276]]],[[[100.83787720000026,13.72910189999999],[100.83787720000026,13.739101899999989],[100.84787720000027,13.739101899999989],[100.84787720000027,13.72910189999999],[100.83787720000026,13.72910189999999]]],[[[100.80787720000025,13.739101899999989],[100.79787720000024,13.739101899999989],[100.79787720000024,13.749101899999989],[100.80787720000025,13.749101899999989],[100.80787720000025,13.739101899999989]]],[[[100.81787720000025,13.759101899999989],[100.82787720000026,13.759101899999989],[100.82787720000026,13.749101899999989],[100.80787720000025,13.749101899999989],[100.80787720000025,13.769101899999988],[100.81787720000025,13.769101899999988],[100.81787720000025,13.759101899999989]]],[[[100.83787720000026,13.769101899999988],[100.84787720000027,13.769101899999988],[100.84787720000027,13.779101899999988],[100.85787720000027,13.779101899999988],[100.85787720000027,13.759101899999989],[100.83787720000026,13.759101899999989],[100.83787720000026,13.769101899999988]]],[[[100.81787720000025,13.789101899999988],[100.81787720000025,13.779101899999988],[100.80787720000025,13.779101899999988],[100.80787720000025,13.769101899999988],[100.79787720000024,13.769101899999988],[100.79787720000024,13.789101899999988],[100.81787720000025,13.789101899999988]]],[[[100.84787720000027,13.789101899999988],[100.83787720000026,13.789101899999988],[100.83787720000026,13.799101899999988],[100.84787720000027,13.799101899999988],[100.84787720000027,13.789101899999988]]],[[[100.80787720000025,13.799101899999988],[100.80787720000025,13.809101899999987],[100.81787720000025,13.809101899999987],[100.81787720000025,13.799101899999988],[100.80787720000025,13.799101899999988]]],[[[100.82787720000026,13.839101899999987],[100.82787720000026,13.849101899999987],[100.83787720000026,13.849101899999987],[100.83787720000026,13.839101899999987],[100.82787720000026,13.839101899999987]]],[[[100.84787720000027,13.869101899999986],[100.83787720000026,13.869101899999986],[100.83787720000026,13.879101899999986],[100.84787720000027,13.879101899999986],[100.84787720000027,13.869101899999986]]],[[[100.87348640310124,13.72910189999999],[100.86787720000028,13.72910189999999],[100.86787720000028,13.739101899999989],[100.87787720000028,13.739101899999989],[100.87787720000028,13.736114544207023],[100.87348640310124,13.72910189999999]]],[[[100.85787720000027,13.759101899999989],[100.88787720000029,13.759101899999989],[100.88787720000029,13.751947531053116],[100.87975578682139,13.739101899999989],[100.87787720000028,13.739101899999989],[100.87787720000028,13.749101899999989],[100.86787720000028,13.749101899999989],[100.86787720000028,13.739101899999989],[100.85787720000027,13.739101899999989],[100.85787720000027,13.759101899999989]]],[[[100.89219486578642,13.759101899999989],[100.88787720000029,13.759101899999989],[100.88787720000029,13.769101899999988],[100.89782630151082,13.769101899999988],[100.89219486578642,13.759101899999989]]],[[[100.87787720000028,13.769101899999988],[100.86787720000028,13.769101899999988],[100.86787720000028,13.779101899999988],[100.87787720000028,13.779101899999988],[100.87787720000028,13.769101899999988]]],[[[100.8978772000003,13.799101899999988],[100.8978772000003,13.809101899999987],[100.9078772000003,13.809101899999987],[100.9078772000003,13.799101899999988],[100.8978772000003,13.799101899999988]]],[[[100.9178772000003,13.809101899999987],[100.9178772000003,13.819101899999987],[100.92787720000031,13.819101899999987],[100.92787720000031,13.809101899999987],[100.9178772000003,13.809101899999987]]],[[[100.86787720000028,13.839101899999987],[100.86787720000028,13.819101899999987],[100.85787720000027,13.819101899999987],[100.85787720000027,13.839101899999987],[100.86787720000028,13.839101899999987]]],[[[100.90543382217614,13.849101899999987],[100.905233,13.8482488],[100.9078772000003,13.847725464849113],[100.9078772000003,13.819101899999987],[100.8978772000003,13.819101899999987],[100.8978772000003,13.849101899999987],[100.90543382217614,13.849101899999987]]],[[[100.88787720000029,13.869101899999986],[100.88787720000029,13.879101899999986],[100.8978772000003,13.879101899999986],[100.8978772000003,13.869101899999986],[100.88787720000029,13.869101899999986]]]]}},{"type":"Feature","properties":{"band":"3_plus","label":"> 3 m","cell_count":1318,"median_sample_m":5.0,"source":"AWS Open Data Terrain Tiles / Mapzen DEM; clipped to Bangkok administrative boundary from OpenStreetMap","confidence":"context_only","disclaimer":"Context-only DEM layer, not survey-grade. Do not interpret sub-meter differences as surveyed ground levels."},"geometry":{"type":"MultiPolygon","coordinates":[[[[100.3850493,13.5789957],[100.3855669,13.5801585],[100.3850493,13.5809015],[100.3857252,13.5815742],[100.3852182,13.5838504],[100.3860041,13.5850157],[100.3851485,13.5855293],[100.3857198,13.5859021],[100.384883,13.5861446],[100.3853443,13.586533],[100.3847462,13.5871066],[100.3850707,13.5875603],[100.384197,13.5877099],[100.3843056,13.589572],[100.3836178,13.5895344],[100.3788961,13.5934346],[100.3785093,13.5942861],[100.3791375,13.5960083],[100.3784992,13.5988501],[100.38787720000003,13.599101899999992],[100.38787720000003,13.609101899999992],[100.37807012723816,13.609101899999992],[100.3785068,13.6133405],[100.377676,13.6168711],[100.3772793,13.6167181],[100.3766392,13.6182958],[100.3770054,13.6201892],[100.3777746,13.6209036],[100.3772022,13.6209029],[100.377107,13.6215079],[100.374129,13.6206335],[100.3719665,13.6207948],[100.3712582,13.6244139],[100.3716109,13.6249202],[100.3694401,13.6275815],[100.368698,13.6301318],[100.3670467,13.6303791],[100.3664282,13.6320356],[100.3668473,13.6322097],[100.3659983,13.6336334],[100.3651712,13.6329358],[100.3604078,13.6333591],[100.3596097,13.6328715],[100.3590282,13.637452],[100.3554444,13.6365426],[100.3544174,13.6399596],[100.3515751,13.6395881],[100.3514885,13.6401439],[100.3503362,13.6401798],[100.3502464,13.6409675],[100.3484133,13.6409576],[100.3486598,13.6437201],[100.346066,13.643627],[100.3449524,13.6481324],[100.3449579,13.6488413],[100.3462911,13.6491067],[100.3468372,13.6553335],[100.3451137,13.6547132],[100.3394108,13.6549549],[100.3397886,13.657835],[100.3408418,13.6588916],[100.3412801,13.6608554],[100.3401248,13.6664844],[100.3388615,13.6694607],[100.33759,13.6773767],[100.3360435,13.6769534],[100.3335559,13.6814723],[100.3344447,13.6815276],[100.3344458,13.6822864],[100.3324053,13.688421],[100.3312612,13.697297],[100.3320764,13.6974392],[100.3324933,13.7048081],[100.3318416,13.7047525],[100.3334837,13.7082587],[100.3323161,13.7124642],[100.3341247,13.713056],[100.335112,13.7111866],[100.3364558,13.7108113],[100.3387886,13.7127688],[100.3375607,13.7147789],[100.3360935,13.7154194],[100.3367908,13.7165651],[100.3346518,13.7184379],[100.332914,13.7211185],[100.3359837,13.7222266],[100.3357613,13.7229721],[100.3363848,13.7229385],[100.3365,13.726595],[100.334957,13.7304253],[100.3356242,13.7307635],[100.3349737,13.7320788],[100.3375551,13.7327312],[100.3374773,13.736086],[100.3357223,13.7415622],[100.3361187,13.7416863],[100.3352665,13.7455293],[100.3359937,13.7457848],[100.335423,13.7533856],[100.3345209,13.7533399],[100.3341668,13.7552238],[100.3328049,13.7554403],[100.333022,13.7602341],[100.3318696,13.7606379],[100.3311127,13.7621739],[100.3301068,13.7623738],[100.3307661,13.7757118],[100.3326232,13.7800538],[100.3323861,13.781219],[100.3332555,13.7813188],[100.3335918,13.7839149],[100.3311388,13.7930153],[100.3308149,13.7973172],[100.3278772,13.8041844],[100.4152199,13.8011558],[100.458854,13.7982595],[100.4640039,13.797215],[100.4699096,13.7946891],[100.4664722,13.789068],[100.4751875,13.7912581],[100.5011544,13.8008026],[100.5150455,13.8132151],[100.5119915,13.8148659],[100.5072248,13.8162227],[100.5063515,13.8192714],[100.5076916,13.8227974],[100.5101692,13.8242016],[100.5092671,13.8248961],[100.5093908,13.8255606],[100.5106802,13.8251665],[100.5110407,13.8261606],[100.5117935,13.8260394],[100.5131346,13.8246989],[100.5132492,13.8261269],[100.515349,13.8269678],[100.5160767,13.8286276],[100.5362243,13.846156],[100.5437118,13.8497263],[100.567605,13.9513734],[100.574005,13.9546099],[100.5899958,13.9509244],[100.6057013,13.9440959],[100.6044037,13.9534211],[100.6074576,13.9537291],[100.6073299,13.9550185],[100.6128168,13.9551693],[100.6245989,13.9487696],[100.6250812,13.947359],[100.6248299,13.9379817],[100.6397807,13.9373707],[100.6396316,13.9323762],[100.6413121,13.9313114],[100.6643911,13.9303606],[100.6897725,13.9310455],[100.6893584,13.9259664],[100.6871442,13.9208368],[100.6875195,13.9173209],[100.6868292,13.9162736],[100.7526675,13.9184792],[100.7925452,13.9315608],[100.8395146,13.9365499],[100.8950191,13.9442683],[100.9141408,13.9462063],[100.9091899,13.9074381],[100.9065237,13.8809376],[100.9062984,13.8603719],[100.905594,13.8591946],[100.9058833,13.8551795],[100.9067993,13.8549035],[100.90543382217614,13.849101899999987],[100.8978772000003,13.849101899999987],[100.8978772000003,13.819101899999987],[100.9078772000003,13.819101899999987],[100.9078772000003,13.838033027361686],[100.9386039,13.8143019],[100.9283095,13.8011879],[100.9099158,13.7905482],[100.89782630151082,13.769101899999988],[100.88787720000029,13.769101899999988],[100.88787720000029,13.759101899999989],[100.85787720000027,13.759101899999989],[100.85787720000027,13.749101899999989],[100.84787720000027,13.749101899999989],[100.84787720000027,13.739101899999989],[100.83787720000026,13.739101899999989],[100.83787720000026,13.72910189999999],[100.84787720000027,13.72910189999999],[100.84787720000027,13.71910189999999],[100.82787720000026,13.71910189999999],[100.82787720000026,13.72910189999999],[100.80787720000025,13.72910189999999],[100.80787720000025,13.71910189999999],[100.79787720000024,13.71910189999999],[100.79787720000024,13.713249314762908],[100.7883713,13.7166451],[100.7817942,13.716691],[100.7793445,13.7161399],[100.7723965,13.7164389],[100.7709426,13.7156881],[100.7666556,13.7154346],[100.7644992,13.7166493],[100.7612356,13.7163153],[100.7534124,13.7167674],[100.7520286,13.7161063],[100.7502828,13.7166687],[100.7307354,13.7168447],[100.7303846,13.7184898],[100.7164352,13.7184283],[100.7163618,13.7165284],[100.7100381,13.71644],[100.712403,13.7012578],[100.7110868,13.7011816],[100.709955,13.6951264],[100.7098435,13.6909282],[100.7073492,13.6848736],[100.7064487,13.6785618],[100.7055204,13.6787511],[100.7047092,13.6747849],[100.7052326,13.6743204],[100.6997246,13.6636643],[100.6982986,13.6561557],[100.69787720000019,13.65625632204846],[100.69787720000019,13.65910189999999],[100.68787720000019,13.65910189999999],[100.68787720000019,13.658329723999556],[100.6783581,13.6613993],[100.6757263,13.6633682],[100.6664669,13.6671248],[100.6669111,13.6681972],[100.6622326,13.6713718],[100.6609507,13.6716405],[100.6598887,13.6701727],[100.655385,13.6723394],[100.6538871,13.6693455],[100.6506984,13.6592443],[100.6501664,13.6591442],[100.650325,13.6520539],[100.6492236,13.6527756],[100.6443265,13.6539702],[100.6427179,13.6538765],[100.6426342,13.6534317],[100.6405549,13.6538842],[100.639641,13.6532331],[100.6388937,13.6510717],[100.6376216,13.6517933],[100.6350566,13.6475079],[100.6300568,13.6490679],[100.6306361,13.6507127],[100.6298215,13.6512364],[100.6186358,13.6551878],[100.6192624,13.656695],[100.6181566,13.6571465],[100.6177351,13.6572987],[100.6160883,13.6535135],[100.6139843,13.6543924],[100.6137938,13.6539103],[100.6082669,13.6560037],[100.6084412,13.6565246],[100.6072272,13.6569087],[100.6078115,13.6585247],[100.6053798,13.6592452],[100.6048397,13.6580612],[100.6018837,13.6585277],[100.6012883,13.6580339],[100.60051,13.6584558],[100.6008317,13.6608037],[100.5994711,13.660878],[100.5995293,13.6604286],[100.5987406,13.6601786],[100.5964163,13.6605385],[100.5953727,13.6611431],[100.5955014,13.661692],[100.592169,13.6626943],[100.592077,13.663662],[100.581578,13.6677513],[100.5793424,13.6691978],[100.5858219,13.6773542],[100.588784,13.6830743],[100.5892432,13.686874],[100.5878575,13.6914392],[100.5860945,13.6942199],[100.5801808,13.6991088],[100.5740089,13.7018935],[100.5623509,13.7060344],[100.5564531,13.7061357],[100.5534604,13.7046185],[100.5516593,13.7015581],[100.5513561,13.6988305],[100.5525737,13.6883752],[100.552336,13.6840699],[100.5506403,13.6771639],[100.5466857,13.6716664],[100.5424839,13.6696287],[100.5379164,13.669147],[100.5351556,13.6697079],[100.5310736,13.6716106],[100.5228322,13.6781679],[100.5203733,13.6756166],[100.5218355,13.6749055],[100.5219926,13.6735156],[100.5215087,13.6719583],[100.5204134,13.6709706],[100.5210885,13.669125],[100.520331,13.6688573],[100.5203053,13.6682772],[100.5175952,13.6672985],[100.5171188,13.6566392],[100.5174854,13.6556522],[100.5182815,13.655381],[100.5156519,13.6509834],[100.5172623,13.6493234],[100.5165065,13.6492243],[100.5166669,13.6478808],[100.5160628,13.6476365],[100.5168882,13.6464805],[100.5166953,13.6457543],[100.5153403,13.6449703],[100.5155097,13.6436861],[100.5161412,13.6437299],[100.515842,13.6421132],[100.5170103,13.6418774],[100.5160371,13.638497],[100.5169464,13.6377394],[100.5168364,13.6363988],[100.518043,13.6349196],[100.5164886,13.6318198],[100.5148943,13.6299806],[100.5149393,13.629096],[100.5142207,13.6286216],[100.516441,13.6187221],[100.5160596,13.6177894],[100.5168695,13.6140862],[100.5163755,13.6127399],[100.5178772000001,13.611916732547758],[100.5178772000001,13.60421787404271],[100.5136374,13.6024501],[100.5114855,13.5968504],[100.5088895,13.5973663],[100.5099061,13.6002853],[100.5088735,13.6005747],[100.5091765,13.6013281],[100.5075672,13.6022327],[100.5082485,13.6032755],[100.5039167,13.6073163],[100.5034058,13.606967],[100.50184324953624,13.609101899999992],[100.5078772000001,13.609101899999992],[100.5078772000001,13.619101899999992],[100.49787720000009,13.619101899999992],[100.49787720000009,13.609101899999992],[100.50073870417997,13.609101899999992],[100.4992497,13.6083069],[100.498842,13.6089222],[100.495457,13.6057443],[100.4913372,13.6053298],[100.490959,13.6063204],[100.4882526,13.6057756],[100.48787720000009,13.609101899999992],[100.47787720000008,13.609101899999992],[100.47787720000008,13.600944479302708],[100.4773772,13.6009381],[100.4777421,13.6019927],[100.4769265,13.6029681],[100.4752143,13.6018808],[100.4730266,13.5988658],[100.4735909,13.5938618],[100.4697165,13.5926804],[100.4687619,13.5947542],[100.4668629,13.5969337],[100.4670518,13.5988525],[100.4657324,13.6016889],[100.4657917,13.6040012],[100.4652254,13.603881],[100.4639644,13.6058258],[100.4631143,13.6061465],[100.4614624,13.6050292],[100.4602342,13.605372],[100.45787720000007,13.604446520883412],[100.45787720000007,13.609101899999992],[100.43787720000006,13.609101899999992],[100.43787720000006,13.599101899999992],[100.45213696264074,13.599101899999992],[100.4521448,13.5983195],[100.4509169,13.596588],[100.4508419,13.5946469],[100.4492122,13.5920786],[100.4493028,13.5908931],[100.44766927171052,13.589101899999992],[100.43787720000006,13.589101899999992],[100.43787720000006,13.579101899999992],[100.44638402358497,13.579101899999992],[100.44558379767278,13.569101899999993],[100.43787720000006,13.569101899999993],[100.43787720000006,13.559101899999993],[100.41787720000005,13.559101899999993],[100.41787720000005,13.569101899999993],[100.42787720000005,13.569101899999993],[100.42787720000005,13.599101899999992],[100.41787720000005,13.599101899999992],[100.41787720000005,13.589101899999992],[100.38787720000003,13.589101899999992],[100.38787720000003,13.574284545977857],[100.3869751,13.5741748],[100.386672,13.5746494],[100.3870636,13.5754263],[100.386177,13.5761717],[100.3868936,13.5767258],[100.3865973,13.5777968],[100.3850493,13.5789957]],[[100.85787720000027,13.759101899999989],[100.85787720000027,13.779101899999988],[100.84787720000027,13.779101899999988],[100.84787720000027,13.769101899999988],[100.83787720000026,13.769101899999988],[100.83787720000026,13.759101899999989],[100.85787720000027,13.759101899999989]],[[100.60787720000015,13.839101899999987],[100.60787720000015,13.829101899999987],[100.61787720000015,13.829101899999987],[100.61787720000015,13.839101899999987],[100.60787720000015,13.839101899999987]],[[100.47787720000008,13.619101899999992],[100.47787720000008,13.629101899999991],[100.46787720000007,13.629101899999991],[100.46787720000007,13.619101899999992],[100.47787720000008,13.619101899999992]],[[100.44787720000006,13.629101899999991],[100.44787720000006,13.619101899999992],[100.45787720000007,13.619101899999992],[100.45787720000007,13.629101899999991],[100.44787720000006,13.629101899999991]],[[100.59787720000014,13.769101899999988],[100.58787720000014,13.769101899999988],[100.58787720000014,13.759101899999989],[100.59787720000014,13.759101899999989],[100.59787720000014,13.769101899999988]],[[100.75787720000022,13.799101899999988],[100.75787720000022,13.809101899999987],[100.74787720000022,13.809101899999987],[100.74787720000022,13.799101899999988],[100.75787720000022,13.799101899999988]],[[100.73787720000021,13.749101899999989],[100.74787720000022,13.749101899999989],[100.74787720000022,13.759101899999989],[100.73787720000021,13.759101899999989],[100.73787720000021,13.749101899999989]],[[100.7078772000002,13.759101899999989],[100.69787720000019,13.759101899999989],[100.69787720000019,13.749101899999989],[100.7078772000002,13.749101899999989],[100.7078772000002,13.759101899999989]],[[100.7078772000002,13.739101899999989],[100.7178772000002,13.739101899999989],[100.7178772000002,13.749101899999989],[100.7078772000002,13.749101899999989],[100.7078772000002,13.739101899999989]],[[100.69787720000019,13.68910189999999],[100.69787720000019,13.69910189999999],[100.68787720000019,13.69910189999999],[100.68787720000019,13.68910189999999],[100.69787720000019,13.68910189999999]],[[100.66787720000018,13.799101899999988],[100.65787720000017,13.799101899999988],[100.65787720000017,13.789101899999988],[100.66787720000018,13.789101899999988],[100.66787720000018,13.799101899999988]],[[100.67787720000018,13.739101899999989],[100.65787720000017,13.739101899999989],[100.65787720000017,13.72910189999999],[100.68787720000019,13.72910189999999],[100.68787720000019,13.749101899999989],[100.67787720000018,13.749101899999989],[100.67787720000018,13.739101899999989]],[[100.65787720000017,13.759101899999989],[100.65787720000017,13.749101899999989],[100.66787720000018,13.749101899999989],[100.66787720000018,13.759101899999989],[100.65787720000017,13.759101899999989]],[[100.65787720000017,13.69910189999999],[100.65787720000017,13.68910189999999],[100.66787720000018,13.68910189999999],[100.66787720000018,13.69910189999999],[100.65787720000017,13.69910189999999]],[[100.62787720000016,13.72910189999999],[100.62787720000016,13.71910189999999],[100.63787720000016,13.71910189999999],[100.63787720000016,13.72910189999999],[100.62787720000016,13.72910189999999]],[[100.68787720000019,13.769101899999988],[100.67787720000018,13.769101899999988],[100.67787720000018,13.759101899999989],[100.68787720000019,13.759101899999989],[100.68787720000019,13.769101899999988]],[[100.73787720000021,13.779101899999988],[100.73787720000021,13.789101899999988],[100.72787720000021,13.789101899999988],[100.72787720000021,13.779101899999988],[100.73787720000021,13.779101899999988]],[[100.7178772000002,13.769101899999988],[100.7178772000002,13.759101899999989],[100.72787720000021,13.759101899999989],[100.72787720000021,13.769101899999988],[100.7178772000002,13.769101899999988]],[[100.7178772000002,13.779101899999988],[100.7078772000002,13.779101899999988],[100.7078772000002,13.769101899999988],[100.7178772000002,13.769101899999988],[100.7178772000002,13.779101899999988]],[[100.7178772000002,13.889101899999986],[100.7078772000002,13.889101899999986],[100.7078772000002,13.879101899999986],[100.7178772000002,13.879101899999986],[100.7178772000002,13.889101899999986]],[[100.76787720000023,13.829101899999987],[100.75787720000022,13.829101899999987],[100.75787720000022,13.819101899999987],[100.76787720000023,13.819101899999987],[100.76787720000023,13.829101899999987]],[[100.86787720000028,13.819101899999987],[100.86787720000028,13.839101899999987],[100.85787720000027,13.839101899999987],[100.85787720000027,13.819101899999987],[100.86787720000028,13.819101899999987]],[[100.79787720000024,13.869101899999986],[100.79787720000024,13.889101899999986],[100.78787720000024,13.889101899999986],[100.78787720000024,13.869101899999986],[100.79787720000024,13.869101899999986]],[[100.80787720000025,13.809101899999987],[100.80787720000025,13.799101899999988],[100.81787720000025,13.799101899999988],[100.81787720000025,13.809101899999987],[100.80787720000025,13.809101899999987]],[[100.81787720000025,13.789101899999988],[100.82787720000026,13.789101899999988],[100.82787720000026,13.799101899999988],[100.81787720000025,13.799101899999988],[100.81787720000025,13.789101899999988]],[[100.81787720000025,13.789101899999988],[100.79787720000024,13.789101899999988],[100.79787720000024,13.769101899999988],[100.80787720000025,13.769101899999988],[100.80787720000025,13.779101899999988],[100.81787720000025,13.779101899999988],[100.81787720000025,13.789101899999988]],[[100.80787720000025,13.769101899999988],[100.80787720000025,13.749101899999989],[100.82787720000026,13.749101899999989],[100.82787720000026,13.759101899999989],[100.81787720000025,13.759101899999989],[100.81787720000025,13.769101899999988],[100.80787720000025,13.769101899999988]],[[100.79787720000024,13.749101899999989],[100.79787720000024,13.739101899999989],[100.80787720000025,13.739101899999989],[100.80787720000025,13.749101899999989],[100.79787720000024,13.749101899999989]],[[100.77787720000023,13.789101899999988],[100.75787720000022,13.789101899999988],[100.75787720000022,13.779101899999988],[100.77787720000023,13.779101899999988],[100.77787720000023,13.789101899999988]],[[100.77787720000023,13.739101899999989],[100.77787720000023,13.749101899999989],[100.78787720000024,13.749101899999989],[100.78787720000024,13.759101899999989],[100.76787720000023,13.759101899999989],[100.76787720000023,13.749101899999989],[100.75787720000022,13.749101899999989],[100.75787720000022,13.739101899999989],[100.76787720000023,13.739101899999989],[100.76787720000023,13.72910189999999],[100.78787720000024,13.72910189999999],[100.78787720000024,13.739101899999989],[100.77787720000023,13.739101899999989]],[[100.84787720000027,13.799101899999988],[100.83787720000026,13.799101899999988],[100.83787720000026,13.789101899999988],[100.84787720000027,13.789101899999988],[100.84787720000027,13.799101899999988]],[[100.82787720000026,13.849101899999987],[100.82787720000026,13.839101899999987],[100.83787720000026,13.839101899999987],[100.83787720000026,13.849101899999987],[100.82787720000026,13.849101899999987]],[[100.83787720000026,13.869101899999986],[100.84787720000027,13.869101899999986],[100.84787720000027,13.879101899999986],[100.83787720000026,13.879101899999986],[100.83787720000026,13.869101899999986]],[[100.8978772000003,13.799101899999988],[100.9078772000003,13.799101899999988],[100.9078772000003,13.809101899999987],[100.8978772000003,13.809101899999987],[100.8978772000003,13.799101899999988]],[[100.87787720000028,13.779101899999988],[100.86787720000028,13.779101899999988],[100.86787720000028,13.769101899999988],[100.87787720000028,13.769101899999988],[100.87787720000028,13.779101899999988]],[[100.8978772000003,13.869101899999986],[100.8978772000003,13.879101899999986],[100.88787720000029,13.879101899999986],[100.88787720000029,13.869101899999986],[100.8978772000003,13.869101899999986]],[[100.9178772000003,13.819101899999987],[100.9178772000003,13.809101899999987],[100.92787720000031,13.809101899999987],[100.92787720000031,13.819101899999987],[100.9178772000003,13.819101899999987]]],[[[100.37787720000003,13.603907690764325],[100.3771483,13.6065037],[100.37787720000003,13.606732826784944],[100.37787720000003,13.603907690764325]]],[[[100.4088727203142,13.489101899999994],[100.4048324,13.5081416],[100.4066168,13.5085719],[100.4066161,13.5183703],[100.4067714,13.5193204],[100.40787720000004,13.519958932722213],[100.40787720000004,13.499101899999994],[100.42787720000005,13.499101899999994],[100.42787720000005,13.489101899999994],[100.4088727203142,13.489101899999994]]],[[[100.4151496546933,13.539101899999993],[100.4160766,13.5396678],[100.41787720000005,13.540186383018892],[100.41787720000005,13.539101899999993],[100.4151496546933,13.539101899999993]]],[[[100.41787720000005,13.548761079314602],[100.414618,13.5515802],[100.4152008,13.5571375],[100.4124423,13.5571617],[100.4118942,13.555475],[100.408323,13.5545654],[100.40787720000004,13.554714453939383],[100.40787720000004,13.559101899999993],[100.41787720000005,13.559101899999993],[100.41787720000005,13.548761079314602]]],[[[100.3959871,13.553448],[100.3946241,13.5549143],[100.3941661,13.558235],[100.39317257329364,13.559101899999993],[100.39787720000004,13.559101899999993],[100.39787720000004,13.552989653694578],[100.3959871,13.553448]]],[[[100.3875008,13.5735204],[100.38787720000003,13.574040658870986],[100.38787720000003,13.57264797131463],[100.3875008,13.5735204]]],[[[100.43787720000006,13.499101899999994],[100.43787720000006,13.509101899999994],[100.44787720000006,13.509101899999994],[100.44787720000006,13.499101899999994],[100.43787720000006,13.499101899999994]]],[[[100.44519069827821,13.549101899999993],[100.44690001144657,13.539101899999993],[100.43787720000006,13.539101899999993],[100.43787720000006,13.549101899999993],[100.44519069827821,13.549101899999993]]],[[[100.86722732891121,13.71910189999999],[100.855154,13.6993591],[100.85576607646158,13.69910189999999],[100.8352329226805,13.69910189999999],[100.8287787,13.7019174],[100.80787720000025,13.709410328401276],[100.80787720000025,13.71910189999999],[100.81787720000025,13.71910189999999],[100.81787720000025,13.70910189999999],[100.85787720000027,13.70910189999999],[100.85787720000027,13.71910189999999],[100.86722732891121,13.71910189999999]]],[[[100.84787720000027,13.72910189999999],[100.84787720000027,13.739101899999989],[100.86787720000028,13.739101899999989],[100.86787720000028,13.72910189999999],[100.84787720000027,13.72910189999999]]],[[[100.86787720000028,13.720143177383948],[100.86787720000028,13.72910189999999],[100.87348640310124,13.72910189999999],[100.86787720000028,13.720143177383948]]],[[[100.87975578682139,13.739101899999989],[100.8789181,13.7377769],[100.87787720000028,13.736114544207023],[100.87787720000028,13.739101899999989],[100.87975578682139,13.739101899999989]]],[[[100.88787720000029,13.759101899999989],[100.89219486578642,13.759101899999989],[100.88787720000029,13.751947531053116],[100.88787720000029,13.759101899999989]]],[[[100.9089303,13.8410179],[100.9078772000003,13.838407861258458],[100.9078772000003,13.847725464849113],[100.9126747,13.846822],[100.9089303,13.8410179]]]]}}]}