{"type":"FeatureCollection","name":"Derived Flood Impact Areas","features":[{"type":"Feature","properties":{"name":"Derived Flood Impact Area 01","class":"estimated_caution","severity":"estimated","area_km2":67.03,"source":"Practika KML affected-road evidence","derived":true,"method":"road evidence buffer + morphological closing","evidence":"yellow-road evidence","disclaimer":"Estimated impact area; not a surveyed water boundary."},"geometry":{"type":"Polygon","coordinates":[[[100.53724475888576,13.856937909718663],[100.53832112855865,13.859514893714085],[100.5404701778855,13.86080201429023],[100.54757681435657,13.86017056106452],[100.57271437944873,13.84630072832805],[100.57396068641232,13.846208849487208],[100.58871417987368,13.87068086907026],[100.59268678666369,13.873903143357019],[100.59418099116016,13.87811175134235],[100.59736446137738,13.879413350949081],[100.59969580967893,13.878723790838762],[100.60345271174961,13.875459853629332],[100.60668320194102,13.874650745842182],[100.60905646819161,13.87244969153905],[100.64007296079315,13.855688162358899],[100.64219408927391,13.853385751675173],[100.64233613744389,13.850215816191069],[100.64010422350893,13.847783290393727],[100.63678808854738,13.84759780506999],[100.59963638544399,13.867552833343446],[100.5976326542364,13.867811877927549],[100.58238781911963,13.84252631240828],[100.58247943260324,13.839662855904576],[100.58332876170883,13.838692675537475],[100.59111289577682,13.836338070320535],[100.6042866049677,13.836034724909823],[100.60942603466157,13.834692623337554],[100.61137022749568,13.83316888404642],[100.6126242035469,13.830864103893154],[100.61224709001584,13.823300518576344],[100.60919988422647,13.821122863982774],[100.60404029166855,13.820980114143719],[100.60134949649311,13.822892973942135],[100.59997852719627,13.827202596713644],[100.59017961595245,13.82781236421877],[100.5802172614844,13.830415914425771],[100.57446608255374,13.828949801575359],[100.56899016541831,13.81999301473619],[100.56688096187207,13.818779963463072],[100.56361060760887,13.818315986751958],[100.56374638477067,13.81594746730261],[100.59584338860398,13.798635779319468],[100.59830282840637,13.795871010889112],[100.60185868538147,13.795142802431725],[100.60697762193367,13.791459638150334],[100.61006034406347,13.790693826830756],[100.63039629661415,13.779322700142384],[100.6361705471571,13.775876230013871],[100.63803988395634,13.773019657835146],[100.63919663550992,13.77276369498819],[100.64082436558888,13.773725199682717],[100.63983443006029,13.778566417656904],[100.64021276422949,13.780976172493771],[100.64756136286549,13.792516232320885],[100.64322617130689,13.80300018874375],[100.64436119960651,13.809086103176076],[100.63726361352585,13.823524203292969],[100.6338031872222,13.82887487767923],[100.63326592095876,13.833727144074974],[100.63065640852881,13.838313967128038],[100.63061940990559,13.841205316987946],[100.6319188512441,13.843065025567066],[100.63392838850295,13.84400316241606],[100.63635029074698,13.843781220236576],[100.63813153535139,13.84250585104963],[100.64166884199952,13.836626739221591],[100.64219617906149,13.831887828179513],[100.64894882631903,13.820844266649308],[100.65031827200698,13.821541315442571],[100.65676888954148,13.836033885586753],[100.65946047142697,13.83752167272028],[100.66265341959985,13.836887190911664],[100.66435825911928,13.834797235128244],[100.66442384130112,13.832012175659386],[100.65244563789747,13.804275488768328],[100.6571206992502,13.791697042014105],[100.65634390890537,13.789266632790842],[100.64917809456588,13.778393060798987],[100.65146218668222,13.773355410585424],[100.65229415935457,13.766595922007586],[100.65007366864516,13.762000856630358],[100.65047615924831,13.754721853405645],[100.6528095880009,13.752957035736458],[100.67087172752419,13.749379459284889],[100.67645265157094,13.746711182561896],[100.69594997010083,13.742610505238027],[100.69779757893079,13.74105708690566],[100.69897133081703,13.738432900743536],[100.7029756886887,13.735896138514695],[100.70362392347677,13.733355481258242],[100.70265787619523,13.730834397012854],[100.70054441028707,13.729436146585408],[100.6980036554274,13.729428407110001],[100.69353123172624,13.731279927002566],[100.6897431230483,13.735342792348286],[100.67384074443031,13.738484903753509],[100.66861941674412,13.741085351784829],[100.66503057031736,13.74195536850218],[100.64842917074499,13.744897675420884],[100.64695676102464,13.743209155819876],[100.64663608737722,13.738883257741351],[100.65203876756074,13.735546154789528],[100.65326614350587,13.731826645924357],[100.6509515757418,13.72873087340153],[100.64686449369184,13.728535938645095],[100.64607586065719,13.727888757566618],[100.64628228262478,13.723957875429198],[100.64529654421163,13.720911872777663],[100.64685709662274,13.718297513519115],[100.64799869163629,13.711911770913373],[100.64502981208696,13.707999897447683],[100.64151102337485,13.708944544629649],[100.63960752025804,13.711149232933717],[100.63837707313185,13.716354265467325],[100.63929089503073,13.720259292447453],[100.6374731443313,13.723559660006073],[100.63654476830263,13.73557283231175],[100.6394333136814,13.744888872325221],[100.6414358487747,13.754947213552374],[100.64070276230301,13.759382690163038],[100.63951822474992,13.759519064946124],[100.63632894052498,13.757397177541053],[100.6199486847467,13.755337094290672],[100.60636170656231,13.742046226652517],[100.60523580275914,13.739285526919947],[100.60335929666626,13.737479582118114],[100.60140030513982,13.736737646002773],[100.59908485018732,13.737106988666758],[100.5973525055689,13.73851702721459],[100.5965682128054,13.740607728909367],[100.59825030144655,13.746119050810844],[100.61416086993134,13.7621348413639],[100.61823562033955,13.763979300559471],[100.6353894519882,13.765921443829649],[100.63615176548525,13.766742701601325],[100.6358806481464,13.768081660395886],[100.63115479751812,13.768932304586611],[100.60563250213497,13.783156922529164],[100.60341800382965,13.785286370318135],[100.59752150362253,13.787730336574553],[100.5951413733483,13.790344461152674],[100.59156047758277,13.791041608624239],[100.5663589541226,13.805177173691527],[100.56490315173372,13.804151553501322],[100.56496089142635,13.79765830541353],[100.56626060806683,13.79072543431113],[100.56458688555232,13.784370598780466],[100.56189249605242,13.781199820589919],[100.55617334467553,13.769858872897293],[100.55311067395652,13.767802341818198],[100.54944366363512,13.768607277240704],[100.54790520723634,13.770926147139148],[100.54810490399012,13.773640928064474],[100.55364562409713,13.783665385647867],[100.55556084469448,13.785683017288715],[100.55704378161012,13.790826746579887],[100.55734483659036,13.796698045482678],[100.5559345287321,13.804900670959757],[100.5534135579024,13.80896363675975],[100.55485868382523,13.816784288857576],[100.55426959018,13.821197531379001],[100.55682654874059,13.824098842459698],[100.56158131661408,13.824534493278982],[100.56902295899468,13.837779491172801],[100.562786277062,13.841473635373777],[100.56169901828302,13.840688279907727],[100.56090345983759,13.835846921928434],[100.55813068056793,13.833965380752712],[100.55003161752705,13.835496906463995],[100.53888374049617,13.836285360196861],[100.5373605823693,13.837903787777254],[100.5368707993095,13.840172979865939],[100.537648908952,13.84233463217331],[100.5394109568059,13.843765898219381],[100.54660764096778,13.844549874114717],[100.55536448967004,13.843500351730313],[100.55641704791559,13.844670715073619],[100.55583409682575,13.845648342547376],[100.54502530107767,13.851644589776729],[100.53910133194957,13.853072167031318],[100.53752502946386,13.854981222897605],[100.53724475888576,13.856937909718663]]]}},{"type":"Feature","properties":{"name":"Derived Flood Impact Area 02","class":"estimated_caution","severity":"estimated","area_km2":4.796,"source":"Practika KML affected-road evidence","derived":true,"method":"road evidence buffer + morphological closing","evidence":"yellow-road evidence","disclaimer":"Estimated impact area; not a surveyed water boundary."},"geometry":{"type":"Polygon","coordinates":[[[100.59729104152379,13.890389450743335],[100.5967312692365,13.892448953516057],[100.59763465300763,13.894387562734865],[100.60063225361986,13.896485577020258],[100.60337669360842,13.896544255100885],[100.60766418935414,13.893170877240022],[100.6198857498366,13.888311171198648],[100.63159398161763,13.88196272624374],[100.64332285048049,13.878586149099096],[100.65290461399725,13.878797080488257],[100.65451977036474,13.877278427025859],[100.65478080611148,13.87489667258683],[100.65377615496014,13.87323347950753],[100.65214886404422,13.872449515164929],[100.64461341548474,13.87187057290399],[100.63989623063557,13.872630208223985],[100.62735821810071,13.876624488284296],[100.61635268996523,13.882778734909222],[100.6041351837352,13.887212484905891],[100.60175068521835,13.888921608654668],[100.5987506436795,13.889198018355273],[100.59729104152379,13.890389450743335]]]}},{"type":"Feature","properties":{"name":"Derived Flood Impact Area 03","class":"estimated_caution","severity":"estimated","area_km2":3.673,"source":"Practika KML affected-road evidence","derived":true,"method":"road evidence buffer + morphological closing","evidence":"yellow-road evidence","disclaimer":"Estimated impact area; not a surveyed water boundary."},"geometry":{"type":"Polygon","coordinates":[[[100.54159681713047,13.746613210526789],[100.51993054793218,13.754504995835383],[100.51914124445783,13.756798376542958],[100.52024213801597,13.758965600428425],[100.52258836268855,13.759737117807115],[100.54293792364788,13.752826927973855],[100.54659456451803,13.752380663342434],[100.55469320062932,13.753123762125703],[100.55695429438757,13.75277193410186],[100.55972787654328,13.751011479194009],[100.56313151213185,13.752033260878635],[100.56893319787577,13.751390296300908],[100.5707556111072,13.750222498127824],[100.57139180264055,13.747990642175319],[100.57044981969645,13.74606987097476],[100.5683621037835,13.745160892756244],[100.56244557922436,13.745832242761725],[100.55919454472952,13.747728504478573],[100.55593180214453,13.746694239366171],[100.55194097691036,13.747106558990932],[100.54499393984801,13.7463129454872],[100.54159681713047,13.746613210526789]]]}},{"type":"Feature","properties":{"name":"Derived Flood Impact Area 04","class":"estimated_caution","severity":"estimated","area_km2":3.223,"source":"Practika KML affected-road evidence","derived":true,"method":"road evidence buffer + morphological closing","evidence":"yellow-road evidence","disclaimer":"Estimated impact area; not a surveyed water boundary."},"geometry":{"type":"Polygon","coordinates":[[[100.75083187970266,13.719621827077898],[100.72838794288649,13.719482413094298],[100.72677224791747,13.72156574703831],[100.72711445083445,13.723961959728397],[100.72951253678853,13.725498150770491],[100.75141672744014,13.726318164375368],[100.7563306898046,13.724818015335286],[100.76810303278101,13.72483231169071],[100.76978095371497,13.72379472445439],[100.77052089363733,13.722014091375126],[100.76979222844959,13.719642327070602],[100.76760339763987,13.718513475678227],[100.75573556237882,13.718368964270217],[100.75083187970266,13.719621827077898]]]}},{"type":"Feature","properties":{"name":"Derived Flood Impact Area 05","class":"estimated_caution","severity":"estimated","area_km2":2.709,"source":"Practika KML affected-road evidence","derived":true,"method":"road evidence buffer + morphological closing","evidence":"yellow-road evidence","disclaimer":"Estimated impact area; not a surveyed water boundary."},"geometry":{"type":"Polygon","coordinates":[[[100.75893155889587,13.757942096189428],[100.76587954237203,13.757035288346389],[100.7687819887836,13.755230830947994],[100.77228234838991,13.756199042379542],[100.77913776879298,13.754818642984699],[100.78160728599191,13.755117397522298],[100.79316156887917,13.75375668575433],[100.79517783886935,13.752353538308638],[100.79558853667407,13.749967715155144],[100.79424812532197,13.748057238895834],[100.79210918339669,13.74753022484972],[100.78083047252326,13.748839251131352],[100.77847876402288,13.749714978078195],[100.77153216841585,13.749940223406567],[100.76814443245794,13.751910010071327],[100.76464618793362,13.750952899004737],[100.75851094566829,13.75164452471325],[100.75622785043795,13.753032538405593],[100.75575212743679,13.755406841539722],[100.75713328817764,13.75741454101502],[100.75893155889587,13.757942096189428]]]}},{"type":"Feature","properties":{"name":"Derived Flood Impact Area 06","class":"estimated_caution","severity":"estimated","area_km2":2.187,"source":"Practika KML affected-road evidence","derived":true,"method":"road evidence buffer + morphological closing","evidence":"yellow-road evidence","disclaimer":"Estimated impact area; not a surveyed water boundary."},"geometry":{"type":"Polygon","coordinates":[[[100.64075302902911,13.664548487002689],[100.64350254414231,13.687011298194367],[100.64505882853388,13.68889243564262],[100.6477724147173,13.689168865391833],[100.64952595067919,13.687905048099823],[100.65006643360418,13.685867770474673],[100.64881150814058,13.671166576431322],[100.64717680096172,13.663285789582861],[100.64567400205812,13.66149470241625],[100.64307432332602,13.661241574317303],[100.64114219703345,13.662753011611933],[100.64075302902911,13.664548487002689]]]}},{"type":"Feature","properties":{"name":"Derived Flood Impact Area 07","class":"estimated_caution","severity":"estimated","area_km2":1.671,"source":"Practika KML affected-road evidence","derived":true,"method":"road evidence buffer + morphological closing","evidence":"yellow-road evidence","disclaimer":"Estimated impact area; not a surveyed water boundary."},"geometry":{"type":"Polygon","coordinates":[[[100.59543419233245,13.91451551057131],[100.60507474065962,13.932585821973179],[100.60729341962276,13.933661949481893],[100.60964131240848,13.932890514488413],[100.61070585819122,13.931031533399326],[100.61036362017595,13.92900702691451],[100.6014400858115,13.913136032022392],[100.59890922101604,13.911605995111442],[100.59655484328502,13.912357733860695],[100.59543419233245,13.91451551057131]]]}},{"type":"Feature","properties":{"name":"Derived Flood Impact Area 08","class":"estimated_caution","severity":"estimated","area_km2":1.611,"source":"Practika KML affected-road evidence","derived":true,"method":"road evidence buffer + morphological closing","evidence":"yellow-road evidence","disclaimer":"Estimated impact area; not a surveyed water boundary."},"geometry":{"type":"Polygon","coordinates":[[[100.58203315468438,13.891289960200151],[100.59046087802852,13.906620126568814],[100.59261854426249,13.907808352420977],[100.59500435250456,13.90715815231346],[100.59611645459414,13.905549492964806],[100.59602491035093,13.903526093018375],[100.5877295757873,13.888280877056669],[100.58584502547181,13.887209650949426],[100.58362655939128,13.887545003612185],[100.5821471344338,13.889109687879019],[100.58203315468438,13.891289960200151]]]}},{"type":"Feature","properties":{"name":"Derived Flood Impact Area 09","class":"estimated_caution","severity":"estimated","area_km2":1.137,"source":"Practika KML affected-road evidence","derived":true,"method":"road evidence buffer + morphological closing","evidence":"yellow-road evidence","disclaimer":"Estimated impact area; not a surveyed water boundary."},"geometry":{"type":"Polygon","coordinates":[[[100.72116604127314,13.809846440529434],[100.71760622087689,13.813891340613226],[100.71783528096185,13.816685280167004],[100.72249152158037,13.820818487946553],[100.7240381548776,13.821218015499984],[100.72574436026814,13.820760558213795],[100.72704503599596,13.81929359587833],[100.72713917741852,13.815909983534981],[100.7288296052158,13.813261971695606],[100.72853206410065,13.810860072871202],[100.72658376756213,13.8093672701301],[100.72297725078528,13.809268269509284],[100.72116604127314,13.809846440529434]]]}},{"type":"Feature","properties":{"name":"Derived Flood Impact Area 10","class":"estimated_caution","severity":"estimated","area_km2":0.699,"source":"Practika KML affected-road evidence","derived":true,"method":"road evidence buffer + morphological closing","evidence":"yellow-road evidence","disclaimer":"Estimated impact area; not a surveyed water boundary."},"geometry":{"type":"Polygon","coordinates":[[[100.787646854765,13.720175089977309],[100.78762838281158,13.723252535706793],[100.78887152539868,13.724482206539934],[100.79038640181828,13.72489020280748],[100.79665803614445,13.722893686530886],[100.79826318898773,13.720246362083222],[100.7973775145497,13.717987248882386],[100.79511731450111,13.717002066110116],[100.78918988195865,13.718823865428025],[100.787646854765,13.720175089977309]]]}},{"type":"Feature","properties":{"name":"Derived Flood Impact Area 11","class":"estimated_caution","severity":"estimated","area_km2":0.58,"source":"Practika KML affected-road evidence","derived":true,"method":"road evidence buffer + morphological closing","evidence":"yellow-road evidence","disclaimer":"Estimated impact area; not a surveyed water boundary."},"geometry":{"type":"Polygon","coordinates":[[[100.67565869978021,13.722374201043483],[100.67727306899424,13.71973202233735],[100.67591745513322,13.717062501436455],[100.6705801753007,13.715966274817639],[100.66802267173853,13.717399953183818],[100.66756954068845,13.719778576650368],[100.66896953687213,13.72177376370233],[100.67383056956324,13.722791550901402],[100.67565869978021,13.722374201043483]]]}},{"type":"Feature","properties":{"name":"Derived Flood Impact Area 12","class":"estimated_caution","severity":"estimated","area_km2":0.543,"source":"Practika KML affected-road evidence","derived":true,"method":"road evidence buffer + morphological closing","evidence":"yellow-road evidence","disclaimer":"Estimated impact area; not a surveyed water boundary."},"geometry":{"type":"Polygon","coordinates":[[[100.63995618948373,13.887595981525813],[100.63826812209794,13.892050963493462],[100.63880035789464,13.893811105760332],[100.64024390437561,13.894985735878283],[100.64211219225248,13.895178922214592],[100.64434669912784,13.893584446493911],[100.64563505457477,13.888970041357009],[100.64425363366927,13.886961863691349],[100.64182331109807,13.886496126232116],[100.63995618948373,13.887595981525813]]]}},{"type":"Feature","properties":{"name":"Derived Flood Impact Area 13","class":"estimated_caution","severity":"estimated","area_km2":0.376,"source":"Practika KML affected-road evidence","derived":true,"method":"road evidence buffer + morphological closing","evidence":"yellow-road evidence","disclaimer":"Estimated impact area; not a surveyed water boundary."},"geometry":{"type":"Polygon","coordinates":[[[100.64518140026138,13.706288014811662],[100.64798453091049,13.70517058886246],[100.64919516948642,13.703305578521425],[100.64882822495198,13.700797023310587],[100.64682391107206,13.699377903810966],[100.64438032011194,13.69976011299526],[100.64290784612692,13.701800379201554],[100.64312198419574,13.704037025726794],[100.64518140026138,13.706288014811662]]]}},{"type":"Feature","properties":{"name":"Derived Flood Impact Area 14","class":"field_report_pending","severity":"pending","area_km2":1.038,"source":"Practika KML affected-road evidence","derived":true,"method":"road evidence buffer + morphological closing","evidence":"field-report pending evidence","disclaimer":"Estimated impact area; not a surveyed water boundary."},"geometry":{"type":"Polygon","coordinates":[[[100.67740783674779,13.918658342218523],[100.68334461748613,13.92049143349343],[100.6863576313063,13.918677869137873],[100.6873970058534,13.914862153031887],[100.68672757541579,13.912881006702944],[100.6855009131078,13.911589884303092],[100.68341617130801,13.910773804850953],[100.67995384260675,13.910691524371195],[100.67822319906485,13.911189507366107],[100.67661105058316,13.912559548048355],[100.67578547315149,13.914601028590708],[100.67608383226973,13.916884821071259],[100.67740783674779,13.918658342218523]]]}},{"type":"Feature","properties":{"name":"Derived Flood Impact Area 15","class":"field_report_pending","severity":"pending","area_km2":0.996,"source":"Practika KML affected-road evidence","derived":true,"method":"road evidence buffer + morphological closing","evidence":"field-report pending evidence","disclaimer":"Estimated impact area; not a surveyed water boundary."},"geometry":{"type":"Polygon","coordinates":[[[100.70820964179899,13.931715093337944],[100.70885035513692,13.933782312143732],[100.71043045492692,13.93534306000237],[100.71271550506843,13.93604182764571],[100.71494129445266,13.935739226851059],[100.7166843910788,13.934531674225012],[100.71762294983046,13.932900785192796],[100.71748063794843,13.927816811634228],[100.71449072133349,13.925126078437506],[100.71095488983116,13.92527592766083],[100.70869134340279,13.927515944583645],[100.70820964179899,13.931715093337944]]]}}]}