{"type":"FeatureCollection","name":"Khlong Hok Wa Sai Lang Overflow Area","features":[{"type":"Feature","properties":{"name":"คลองหกวาสายล่าง | Confirmed Overflow / High Water Area","status":"confirmed_overflow","area_type":"canal_overflow_proxy","buffer_m":300,"area_km2":31.438,"source":"DDPM Cell Broadcast + BMA Flood Control Center; geometry proxy from affected district north boundaries","evidence_date":"2026-09-29/30","affected_districts":"สายไหม, คลองสามวา, หนองจอก","confidence":"high for event; medium for corridor geometry","disclaimer":"Confirmed overflow/high-water event. Corridor geometry is an administrative-boundary proxy until exact canal polyline is ingested."},"geometry":{"type":"Polygon","coordinates":[[[100.6087442,13.8956461],[100.60634471352107,13.897009278132117],[100.62401885685617,13.926876500103772],[100.6187985201509,13.955639853823241],[100.6253996011268,13.951706114172385],[100.62697109674701,13.950290261050244],[100.6278727774969,13.94766895388834],[100.62755831751996,13.940584210843307],[100.64266298575488,13.939966736688097],[100.6424228053012,13.933969919649376],[100.66444600132421,13.933072149905321],[100.69255853724286,13.933859798086786],[100.69212312177906,13.925622787414328],[100.6912833384347,13.92299210553467],[100.68994229227808,13.920567921085187],[100.69003626248458,13.919081012543577],[100.75208795151366,13.921151585500036],[100.79197969621549,13.93421529823456],[100.7925452,13.931560800000002],[100.79239955189679,13.93426842113124],[100.83916724958483,13.93924001766822],[100.89466409909151,13.946958081296275],[100.9173276836081,13.949254855694711],[100.91087256207244,13.896445560530413],[100.90534862745949,13.89697680900171],[100.91095399993844,13.943157691074259],[100.89537409675843,13.941578518670195],[100.83986194633086,13.933859782266573],[100.79532737085029,13.929042265092258],[100.79533463139667,13.926121902145518],[100.7925588,13.9261153],[100.79533447684906,13.926085956781376],[100.79506249639674,13.900810403393134],[100.7922871,13.900837799999998],[100.79506233954739,13.900798038186236],[100.79501039847466,13.897339543739495],[100.79346668916969,13.897361662124066],[100.7928573,13.896975299999996],[100.79563277608445,13.896984317489922],[100.79563905405038,13.895137320077353],[100.7921066213943,13.895125834378124],[100.79193491633289,13.894566512724893],[100.79147822059156,13.894700310700584],[100.79160835175828,13.895124210137862],[100.79008814217441,13.89511924832626],[100.79008420862901,13.896268386244646],[100.78973371181533,13.896204617775764],[100.79008386408744,13.896369049331678],[100.79008182014034,13.896966250909346],[100.79136451565192,13.896970436896957],[100.7922352,13.8973793],[100.78945999659034,13.897419024805348],[100.7896268663061,13.912014282402879],[100.7924024,13.9119869],[100.7896268867007,13.912016189625296],[100.78977867076762,13.927819151573194],[100.75324703878114,13.915806814132647],[100.68842325454811,13.91360792781291],[100.6879368436908,13.91309536310583],[100.68712592614462,13.913569625992336],[100.68772770178191,13.912896971672147],[100.68727810351494,13.912513174874645],[100.68711211021733,13.912698719317884],[100.6858942,13.910319999999999],[100.68764404301555,13.912424884234028],[100.68870234447141,13.911585376405766],[100.6869525,13.909480499999997],[100.68947783172351,13.910606086839744],[100.68963902836003,13.910260985536905],[100.6871137,13.909135400000002],[100.68988487998783,13.908979308136859],[100.69031606515678,13.907079792327787],[100.6916437518328,13.905158906446179],[100.6893433,13.903641599999998],[100.69184555085194,13.904815209418281],[100.69277693289753,13.9029202018192],[100.6902747,13.901746599999997],[100.69299171192736,13.902301209759031],[100.6938088066687,13.900872962057427],[100.6916501,13.8991685],[100.69396592029885,13.90066325971097],[100.69416801816627,13.900364458018057],[100.6918522,13.898869699999999],[100.6941687759689,13.900363337001584],[100.69433187424355,13.900121935635378],[100.6920153,13.8986283],[100.69450827184917,13.899820489864524],[100.69484256560222,13.899153387129351],[100.6923496,13.897961200000001],[100.6950922109601,13.898378295000926],[100.69514350712251,13.898056394856345],[100.6924009,13.897639299999998],[100.6951760784168,13.897589878314715],[100.69516847358338,13.897182478952747],[100.6923933,13.897231899999996],[100.69514859386526,13.896904248145725],[100.69502708282594,13.895929150788142],[100.68951650576369,13.896584418973887],[100.68960065378923,13.897279832048083],[100.68838021749073,13.898807005854671],[100.6905389,13.9005115],[100.68782191205979,13.899956859803384],[100.68692908723152,13.902288894167327],[100.68551656145782,13.904332455480464],[100.68781700000001,13.905849799999997],[100.68519974919224,13.904946672226627],[100.6844690274362,13.906967366781334],[100.6870863,13.9078705],[100.68558324682408,13.907833395643761],[100.6852026879645,13.90737560709804],[100.68259257062115,13.90888691582709],[100.6838071,13.9113251],[100.68186151388736,13.909386439082459],[100.6837041,13.911414399999998],[100.68093849945485,13.91118196198144],[100.68091279594196,13.91147376208447],[100.6836784,13.9117062],[100.68093663331294,13.912129657267055],[100.68100543662922,13.913260423809598],[100.6837782,13.913388099999997],[100.68131863385389,13.913397833868865],[100.68206955811945,13.914425908941512],[100.68142089745123,13.914819892514934],[100.68159849612358,13.915098894397547],[100.68226529877201,13.914693891400525],[100.68248115906077,13.914989418037154],[100.68191090624894,13.915500760643651],[100.68216680638115,13.91577306279432],[100.68270261553477,13.915292605129803],[100.68461040327092,13.917904434695616],[100.68441799413237,13.921376411304436],[100.68610425977327,13.926221707267828],[100.6866150529575,13.92686624938262],[100.68675276833018,13.928222687685127],[100.66433620366121,13.92764904936238],[100.64091453486212,13.928620395666606],[100.63874751943705,13.929434723589774],[100.63731630913126,13.930762857529057],[100.63690316654092,13.93171569708501],[100.6368984781167,13.934774621557878],[100.62810577286217,13.9351339564797],[100.6295503171608,13.927391249878529],[100.62914056003538,13.924727627165735],[100.61114365661808,13.894282901170127],[100.60886187018428,13.895579249134999],[100.60655999310794,13.893968419290484],[100.6087442,13.8956461]],[[100.68612138035891,13.908480732203714],[100.68605603247173,13.908402123599986],[100.6870719,13.9084272],[100.68612138035891,13.908480732203714]],[[100.6849074,13.910802099999998],[100.68521828653715,13.911409307872153],[100.6852082310416,13.911406007011713],[100.6849074,13.910802099999998]],[[100.68438249033913,13.912480181151937],[100.68444021236691,13.912596055815365],[100.6838178,13.912567399999999],[100.68438249033913,13.912480181151937]],[[100.68578201874024,13.912557853171295],[100.68578780739213,13.912554337102616],[100.68578351374596,13.912560854291211],[100.68578201874024,13.912557853171295]],[[100.68657491776449,13.913019157772947],[100.68701994690939,13.912801737710073],[100.6865606396889,13.913315140849253],[100.68657491776449,13.913019157772947]],[[100.68614832863733,13.91349721099509],[100.68635340366313,13.9135467836087],[100.68612021278868,13.913539887147762],[100.68614832863733,13.91349721099509]],[[100.79279595372827,13.89737126943266],[100.7927322,13.897163599999999],[100.79305391819129,13.89736757468526],[100.79279595372827,13.89737126943266]],[[100.7921759363286,13.89697308142799],[100.7922755,13.897297399999996],[100.7915807241216,13.896971141813808],[100.7921759363286,13.89697308142799]],[[100.686978,13.916277999999998],[100.68694513931484,13.917339956530569],[100.68694508697553,13.917340052229449],[100.686978,13.916277999999998]]]}}]}