{"type":"FeatureCollection","name":"L2 HYPERLOCAL / SOI","features":[{"type":"Feature","properties":{"name":"สุขาภิบาล 5 ซอย 88 | FLOODED-PENDING","description":"FIELD FLOOD CONFIRMED | PASSABILITY PENDING | กรุงเทพมหานคร | สายไหม | ผู้ใช้ยืนยันว่ามีน้ำท่วม แต่ยังไม่ระบุ passability | OSM_WAY=628508576","styleUrl":"#line-888888-8000","layer":"L2 HYPERLOCAL / SOI","risk_status":"unclassified"},"geometry":{"type":"LineString","coordinates":[[100.68037,13.91519],[100.681025,13.915203],[100.682026,13.91523],[100.68279,13.915249],[100.68261,13.916032]]}},{"type":"Feature","properties":{"name":"ซอยข้างวัดแจ้งลำหิน A | FLOODED-PENDING","description":"FIELD FLOOD CONFIRMED | PASSABILITY PENDING | ปทุมธานี | ลำลูกกา | พื้นที่ข้างวัดแจ้งลำหิน ผู้ใช้ยืนยันว่ามีน้ำท่วม แต่ยังไม่ระบุ passability | OSM_WAY=626546034","styleUrl":"#line-888888-8000","layer":"L2 HYPERLOCAL / SOI","risk_status":"unclassified"},"geometry":{"type":"LineString","coordinates":[[100.712908,13.92937],[100.712872,13.930196],[100.712861,13.930717],[100.71285,13.930929],[100.712837,13.931248],[100.71283,13.931393],[100.712828,13.931447],[100.71283,13.931482]]}},{"type":"Feature","properties":{"name":"ซอยข้างวัดแจ้งลำหิน B | FLOODED-PENDING","description":"FIELD FLOOD CONFIRMED | PASSABILITY PENDING | ปทุมธานี | ลำลูกกา | พื้นที่ข้างวัดแจ้งลำหิน ผู้ใช้ยืนยันว่ามีน้ำท่วม แต่ยังไม่ระบุ passability | OSM_WAY=475083368","styleUrl":"#line-888888-8000","layer":"L2 HYPERLOCAL / SOI","risk_status":"unclassified"},"geometry":{"type":"LineString","coordinates":[[100.713229,13.929593],[100.71321,13.929654],[100.713198,13.930216],[100.713187,13.930437],[100.713192,13.931069],[100.713212,13.931459],[100.713214,13.931496],[100.71321,13.931551]]}}]}