{"type":"FeatureCollection","name":"L3 SENSORS QC CLEAN","features":[{"type":"Feature","properties":{"name":"ถ.รามอินทรา ช่วง ซ.รามอินทรา 5 [20 cm]","description":"SOURCE=BMA_DDS | SENSOR=FL.BKA.03 | DISTRICT=บางเขน | WATER_CM=20 | DEVICE_STATUS=flooding | QC=PASS | QC_REASON=OSM 202772897; ซอยรามอินทรา 5; line_distance=3.3m","styleUrl":"#icon-1899-0288D1","layer":"L3 SENSORS QC CLEAN","risk_status":"unclassified"},"geometry":{"type":"Point","coordinates":[100.6042,13.87025]}},{"type":"Feature","properties":{"name":"ถ.พหลโยธิน ช่วงหน้ากรมทหาราบที่ 11 ประตู2 [15 cm]","description":"SOURCE=BMA_DDS | SENSOR=FL.BKA.05 | DISTRICT=บางเขน | WATER_CM=15 | DEVICE_STATUS=flooding | QC=PASS | QC_REASON=OSM 155900640; ถนนพหลโยธิน; line_distance=2.3m","styleUrl":"#icon-1899-0288D1","layer":"L3 SENSORS QC CLEAN","risk_status":"unclassified"},"geometry":{"type":"Point","coordinates":[100.58902,13.86235]}},{"type":"Feature","properties":{"name":"ถ.เทพรักษ์ ช่วงบิ๊กซีสะพานใหม่ [20 cm]","description":"SOURCE=BMA_DDS | SENSOR=FL.BKA.06 | DISTRICT=บางเขน | WATER_CM=20 | DEVICE_STATUS=flooding | QC=PASS | QC_REASON=OSM 964068194; ถนนเทพรักษ์; line_distance=4.5m","styleUrl":"#icon-1899-0288D1","layer":"L3 SENSORS QC CLEAN","risk_status":"unclassified"},"geometry":{"type":"Point","coordinates":[100.6065,13.89022]}},{"type":"Feature","properties":{"name":"ถ.วัชรพล ช่วง ซ.วัชรพล 8 [10 cm]","description":"SOURCE=BMA_DDS | SENSOR=FL.BKA.07 | DISTRICT=บางเขน | WATER_CM=10 | DEVICE_STATUS=flooding | QC=PASS | QC_REASON=OSM 531940924; ถนนวัชรพล; line_distance=13.4m","styleUrl":"#icon-1899-0288D1","layer":"L3 SENSORS QC CLEAN","risk_status":"unclassified"},"geometry":{"type":"Point","coordinates":[100.64183,13.89161]}},{"type":"Feature","properties":{"name":"ถ.นวมินทร์ ช่วงซอย 46 (สันติอโศก) [19.2 cm]","description":"SOURCE=BMA_DDS | SENSOR=FL.BKM.01 | DISTRICT=บึงกุ่ม | WATER_CM=19.2 | DEVICE_STATUS=flooding | QC=PASS | QC_REASON=OSM 156707754; ถนนนวมินทร์; line_distance=6.4m","styleUrl":"#icon-1899-0288D1","layer":"L3 SENSORS QC CLEAN","risk_status":"unclassified"},"geometry":{"type":"Point","coordinates":[100.65096,13.79619]}},{"type":"Feature","properties":{"name":"ถ.นวมินทร์ ช่วง ซ.นวมินทร์ 38 [20 cm]","description":"SOURCE=BMA_DDS | SENSOR=FL.BKM.06 | DISTRICT=บึงกุ่ม | WATER_CM=20 | DEVICE_STATUS=flooding | QC=PASS | QC_REASON=OSM 156707754; ถนนนวมินทร์; line_distance=5.1m","styleUrl":"#icon-1899-0288D1","layer":"L3 SENSORS QC CLEAN","risk_status":"unclassified"},"geometry":{"type":"Point","coordinates":[100.65196,13.79397]}},{"type":"Feature","properties":{"name":"ถ.รามคำแหง ช่วงตรงข้าม ซ.รามคำแหง 53 [10 cm]","description":"SOURCE=BMA_DDS | SENSOR=FL.BKP.04 | DISTRICT=บางกะปิ | WATER_CM=10 | DEVICE_STATUS=flooding | QC=PASS | QC_REASON=OSM 692176409; ถนนรามคำแหง; line_distance=3.1m","styleUrl":"#icon-1899-0288D1","layer":"L3 SENSORS QC CLEAN","risk_status":"unclassified"},"geometry":{"type":"Point","coordinates":[100.62051,13.75977]}},{"type":"Feature","properties":{"name":"QC HOLD - ถ.หัวหมาก ช่วง ซ.รามคำแหง 24 [15 cm]","description":"SOURCE=BMA_DDS | SENSOR=FL.BKP.10 | DISTRICT=บางกะปิ | WATER_CM=15 | DEVICE_STATUS=flooding | QC=REJECT | QC_REASON=no validated road-name match","styleUrl":"#icon-1899-0288D1","layer":"L3 SENSORS QC CLEAN","risk_status":"unclassified"},"geometry":{"type":"Point","coordinates":[100.61525,13.75382]}},{"type":"Feature","properties":{"name":"ถ.วิภาวดีขาออก ช่วงแยก ถ.กำแพงเพชร 6 [5 cm]","description":"SOURCE=BMA_DDS | SENSOR=FL.DMG.01 | DISTRICT=ดอนเมือง | WATER_CM=5 | DEVICE_STATUS=minor_flood | QC=PASS | QC_REASON=OSM 1227308974; ถนนวิภาวดีรังสิต; line_distance=3.5m","styleUrl":"#icon-1899-0288D1","layer":"L3 SENSORS QC CLEAN","risk_status":"unclassified"},"geometry":{"type":"Point","coordinates":[100.60867,13.93333]}},{"type":"Feature","properties":{"name":"ถ.ลาดกระบัง ช่วง ซ.ลาดกระบัง 30/1 [10 cm]","description":"SOURCE=BMA_DDS | SENSOR=FL.LKB.01 | DISTRICT=ลาดกระบัง | WATER_CM=10 | DEVICE_STATUS=flooding | QC=PASS | QC_REASON=OSM 963618658; ถนนลาดกระบัง; line_distance=7.7m","styleUrl":"#icon-1899-0288D1","layer":"L3 SENSORS QC CLEAN","risk_status":"unclassified"},"geometry":{"type":"Point","coordinates":[100.73718,13.7223]}},{"type":"Feature","properties":{"name":"ถ.หลวงแพ่ง ช่วงโลตัสลาดกระบัง [20 cm]","description":"SOURCE=BMA_DDS | SENSOR=FL.LKB.03 | DISTRICT=ลาดกระบัง | WATER_CM=20 | DEVICE_STATUS=flooding | QC=PASS | QC_REASON=OSM 993553881; ถนนหลวงแพ่ง; line_distance=0.3m","styleUrl":"#icon-1899-0288D1","layer":"L3 SENSORS QC CLEAN","risk_status":"unclassified"},"geometry":{"type":"Point","coordinates":[100.79265,13.721]}},{"type":"Feature","properties":{"name":"ถ.เจ้าคุณทหาร ช่วง ถ.ไอ.ซี.ดี 1 [10 cm]","description":"SOURCE=BMA_DDS | SENSOR=FL.LKB.05 | DISTRICT=ลาดกระบัง | WATER_CM=10 | DEVICE_STATUS=flooding | QC=PASS | QC_REASON=OSM 488262156; ถนนเจ้าคุณทหาร; line_distance=7.9m","styleUrl":"#icon-1899-0288D1","layer":"L3 SENSORS QC CLEAN","risk_status":"unclassified"},"geometry":{"type":"Point","coordinates":[100.76167,13.75453]}},{"type":"Feature","properties":{"name":"ถ.เจ้าคุณทหาร หน้าสถานี LPG PT สาขาลาดกระบัง4 [10 cm]","description":"SOURCE=BMA_DDS | SENSOR=FL.LKB.08 | DISTRICT=ลาดกระบัง | WATER_CM=10 | DEVICE_STATUS=flooding | QC=PASS | QC_REASON=OSM 773034889; ถนนเจ้าคุณทหาร; line_distance=6.0m","styleUrl":"#icon-1899-0288D1","layer":"L3 SENSORS QC CLEAN","risk_status":"unclassified"},"geometry":{"type":"Point","coordinates":[100.78994,13.75091]}},{"type":"Feature","properties":{"name":"ถ.เจ้าคุณทหาร บริเวณร้านปฤษฏ์ชัย ค้าไม้ [20 cm]","description":"SOURCE=BMA_DDS | SENSOR=FL.LKB.09 | DISTRICT=ลาดกระบัง | WATER_CM=20 | DEVICE_STATUS=flooding | QC=PASS | QC_REASON=OSM 934125808; ถนนเจ้าคุณทหาร; line_distance=3.5m","styleUrl":"#icon-1899-0288D1","layer":"L3 SENSORS QC CLEAN","risk_status":"unclassified"},"geometry":{"type":"Point","coordinates":[100.77224,13.753]}},{"type":"Feature","properties":{"name":"ถ.เจ้าคุณทหาร ปั้มน้ำมัน PT สาขาเจ้าคุณทหาร2 [20 cm]","description":"SOURCE=BMA_DDS | SENSOR=FL.LKB.10 | DISTRICT=ลาดกระบัง | WATER_CM=20 | DEVICE_STATUS=flooding | QC=PASS | QC_REASON=OSM 773034889; ถนนเจ้าคุณทหาร; line_distance=2.6m","styleUrl":"#icon-1899-0288D1","layer":"L3 SENSORS QC CLEAN","risk_status":"unclassified"},"geometry":{"type":"Point","coordinates":[100.78194,13.75187]}},{"type":"Feature","properties":{"name":"ถ.สุวินทวงศ์ ช่วง ถ.หทัยราษฎร์ [20 cm]","description":"SOURCE=BMA_DDS | SENSOR=FL.MBR.02 | DISTRICT=มีนบุรี | WATER_CM=20 | DEVICE_STATUS=flooding | QC=PASS | QC_REASON=OSM 95546296; ถนนสุวินทวงศ์; line_distance=9.5m","styleUrl":"#icon-1899-0288D1","layer":"L3 SENSORS QC CLEAN","risk_status":"unclassified"},"geometry":{"type":"Point","coordinates":[100.72226,13.81645]}},{"type":"Feature","properties":{"name":"ถ.สีหบุรานุกิจ ช่วง ซ.สีหบุรานุกิจ 14 [20 cm]","description":"SOURCE=BMA_DDS | SENSOR=FL.MBR.03 | DISTRICT=มีนบุรี | WATER_CM=20 | DEVICE_STATUS=flooding | QC=PASS | QC_REASON=OSM 698625808; ถนนสีหบุรานุกิจ; line_distance=5.6m","styleUrl":"#icon-1899-0288D1","layer":"L3 SENSORS QC CLEAN","risk_status":"unclassified"},"geometry":{"type":"Point","coordinates":[100.72428,13.81237]}},{"type":"Feature","properties":{"name":"ถ.อ่อนนุช ช่วง ซ.อ่อนนุช 59 [20 cm]","description":"SOURCE=BMA_DDS | SENSOR=FL.PWT.04 | DISTRICT=ประเวศ | WATER_CM=20 | DEVICE_STATUS=flooding | QC=PASS | QC_REASON=OSM 438261669; ถนนอ่อนนุช; line_distance=1.2m","styleUrl":"#icon-1899-0288D1","layer":"L3 SENSORS QC CLEAN","risk_status":"unclassified"},"geometry":{"type":"Point","coordinates":[100.67343,13.71956]}},{"type":"Feature","properties":{"name":"ถ.พัฒนาการ แยกศรีนครินทร์ [7.4 cm]","description":"SOURCE=BMA_DDS | SENSOR=FL.SLG.01 | DISTRICT=สวนหลวง | WATER_CM=7.4 | DEVICE_STATUS=minor_flood | QC=PASS | QC_REASON=OSM 1131611371; ถนนพัฒนาการ; line_distance=0.6m","styleUrl":"#icon-1899-0288D1","layer":"L3 SENSORS QC CLEAN","risk_status":"unclassified"},"geometry":{"type":"Point","coordinates":[100.63801,13.73602]}},{"type":"Feature","properties":{"name":"ถ.ศรีนครินทร์ ช่วง ถ.กำแพงเพชร 7 [20 cm]","description":"SOURCE=BMA_DDS | SENSOR=FL.SLG.05 | DISTRICT=สวนหลวง | WATER_CM=20 | DEVICE_STATUS=flooding | QC=PASS | QC_REASON=OSM 1024938025; ถนนศรีนครินทร์; line_distance=6.7m","styleUrl":"#icon-1899-0288D1","layer":"L3 SENSORS QC CLEAN","risk_status":"unclassified"},"geometry":{"type":"Point","coordinates":[100.64229,13.74002]}},{"type":"Feature","properties":{"name":"ถ.พัฒนาการ ช่วง ซ.พัฒนาการ 53 [15 cm]","description":"SOURCE=BMA_DDS | SENSOR=FL.SLG.06 | DISTRICT=สวนหลวง | WATER_CM=15 | DEVICE_STATUS=flooding | QC=PASS | QC_REASON=OSM 364700043; ถนนพัฒนาการ; line_distance=5.8m","styleUrl":"#icon-1899-0288D1","layer":"L3 SENSORS QC CLEAN","risk_status":"unclassified"},"geometry":{"type":"Point","coordinates":[100.6488,13.73266]}},{"type":"Feature","properties":{"name":"ถ.สุขาภิบาล ๕ ช่วงหน้าตลาดสดออเงิน [5 cm]","description":"SOURCE=BMA_DDS | SENSOR=FL.SMI.02 | DISTRICT=สายไหม | WATER_CM=5 | DEVICE_STATUS=minor_flood | QC=PASS | QC_REASON=OSM 1349910290; ถนนสุขาภิบาล 5; line_distance=13.9m","styleUrl":"#icon-1899-0288D1","layer":"L3 SENSORS QC CLEAN","risk_status":"unclassified"},"geometry":{"type":"Point","coordinates":[100.66061,13.89625]}},{"type":"Feature","properties":{"name":"ถ.ลาดพร้าว ช่วง ซ.ลาดพร้าว 110 [5 cm]","description":"SOURCE=BMA_DDS | SENSOR=FL.WTL.08 | DISTRICT=วังทองหลาง | WATER_CM=5 | DEVICE_STATUS=minor_flood | QC=PASS | QC_REASON=OSM 864967865; ถนนลาดพร้าว; line_distance=5.9m","styleUrl":"#icon-1899-0288D1","layer":"L3 SENSORS QC CLEAN","risk_status":"unclassified"},"geometry":{"type":"Point","coordinates":[100.61733,13.78151]}},{"type":"Feature","properties":{"name":"ถ.ลาดพร้าว ช่วง ซ.ลาดพร้าว 89 [10 cm]","description":"SOURCE=BMA_DDS | SENSOR=FL.WTL.09 | DISTRICT=วังทองหลาง | WATER_CM=10 | DEVICE_STATUS=flooding | QC=PASS | QC_REASON=OSM 157690719; ถนนลาดพร้าว; line_distance=3.1m","styleUrl":"#icon-1899-0288D1","layer":"L3 SENSORS QC CLEAN","risk_status":"unclassified"},"geometry":{"type":"Point","coordinates":[100.61928,13.78065]}}]}