{"type":"FeatureCollection","name":"Live BMA road flood points","features":[{"type":"Feature","properties":{"name":"ถ.หลวงแพ่ง ช่วงมอเตอร์เวย์","road":"ถนนหลวงแพ่ง","district":"ลาดกระบัง","depth_cm":20,"peak_cm":20,"status":"critical","observed_at":"2026-10-01T13:30:00.000Z","source":"DDS BMA flood/currentevent","closure_confirmed":false,"note":"น้ำท่วมถนนปัจจุบัน; ไม่เท่ากับประกาศปิดถนน"},"geometry":{"type":"Point","coordinates":[100.81626,13.71243]}},{"type":"Feature","properties":{"name":"ถ.หลวงแพ่ง ช่วงโลตัสลาดกระบัง","road":"ถนนหลวงแพ่ง","district":"ลาดกระบัง","depth_cm":15,"peak_cm":15,"status":"critical","observed_at":"2026-10-01T13:30:00.000Z","source":"DDS BMA flood/currentevent","closure_confirmed":false,"note":"น้ำท่วมถนนปัจจุบัน; ไม่เท่ากับประกาศปิดถนน"},"geometry":{"type":"Point","coordinates":[100.79264,13.72099]}},{"type":"Feature","properties":{"name":"ถ.ศรีนครินทร์ ช่วง ถ.กำแพงเพชร 7","road":"ถนนศรีนครินทร์","district":"สวนหลวง","depth_cm":15,"peak_cm":15,"status":"critical","observed_at":"2026-10-01T13:30:00.000Z","source":"DDS BMA flood/currentevent","closure_confirmed":false,"note":"น้ำท่วมถนนปัจจุบัน; ไม่เท่ากับประกาศปิดถนน"},"geometry":{"type":"Point","coordinates":[100.64228,13.74001]}},{"type":"Feature","properties":{"name":"ถ.เทพรักษ์ ช่วงบิ๊กซีสะพานใหม่","road":"ถนนเทพรักษ์","district":"บางเขน","depth_cm":10,"peak_cm":10,"status":"critical","observed_at":"2026-10-01T13:25:00.000Z","source":"DDS BMA flood/currentevent","closure_confirmed":false,"note":"น้ำท่วมถนนปัจจุบัน; ไม่เท่ากับประกาศปิดถนน"},"geometry":{"type":"Point","coordinates":[100.60649,13.89022]}},{"type":"Feature","properties":{"name":"ถ.เจ้าคุณทหาร ช่วง ถ.ไอ.ซี.ดี 1","road":"ถนนเจ้าคุณทหาร","district":"ลาดกระบัง","depth_cm":10,"peak_cm":15,"status":"critical","observed_at":"2026-10-01T13:30:00.000Z","source":"DDS BMA flood/currentevent","closure_confirmed":false,"note":"น้ำท่วมถนนปัจจุบัน; ไม่เท่ากับประกาศปิดถนน"},"geometry":{"type":"Point","coordinates":[100.76167,13.75452]}},{"type":"Feature","properties":{"name":"ถ.เจ้าคุณทหาร บริเวณร้านปฤษฏ์ชัย ค้าไม้","road":"ถนนเจ้าคุณทหาร","district":"ลาดกระบัง","depth_cm":10,"peak_cm":20,"status":"critical","observed_at":"2026-10-01T13:30:00.000Z","source":"DDS BMA flood/currentevent","closure_confirmed":false,"note":"น้ำท่วมถนนปัจจุบัน; ไม่เท่ากับประกาศปิดถนน"},"geometry":{"type":"Point","coordinates":[100.77223,13.753]}},{"type":"Feature","properties":{"name":"ถ.เจ้าคุณทหาร ปั้มน้ำมัน PT สาขาเจ้าคุณทหาร2","road":"ถนนเจ้าคุณทหาร","district":"ลาดกระบัง","depth_cm":10,"peak_cm":10,"status":"critical","observed_at":"2026-10-01T13:30:00.000Z","source":"DDS BMA flood/currentevent","closure_confirmed":false,"note":"น้ำท่วมถนนปัจจุบัน; ไม่เท่ากับประกาศปิดถนน"},"geometry":{"type":"Point","coordinates":[100.78193,13.75186]}},{"type":"Feature","properties":{"name":"ถ.สุวินทวงศ์ ช่วง ถ.หทัยราษฎร์","road":"ถนนสุวินทวงศ์","district":"มีนบุรี","depth_cm":10,"peak_cm":10,"status":"critical","observed_at":"2026-10-01T13:30:00.000Z","source":"DDS BMA flood/currentevent","closure_confirmed":false,"note":"น้ำท่วมถนนปัจจุบัน; ไม่เท่ากับประกาศปิดถนน"},"geometry":{"type":"Point","coordinates":[100.72225,13.81645]}},{"type":"Feature","properties":{"name":"ถ.สีหบุรานุกิจ ช่วง ซ.สีหบุรานุกิจ 14","road":"ถนนสีหบุรานุกิจ","district":"มีนบุรี","depth_cm":10,"peak_cm":15,"status":"critical","observed_at":"2026-10-01T13:30:00.000Z","source":"DDS BMA flood/currentevent","closure_confirmed":false,"note":"น้ำท่วมถนนปัจจุบัน; ไม่เท่ากับประกาศปิดถนน"},"geometry":{"type":"Point","coordinates":[100.72428,13.81236]}},{"type":"Feature","properties":{"name":"ถ.อ่อนนุช ช่วง ซ.อ่อนนุช 59","road":"ถนนอ่อนนุช","district":"ประเวศ","depth_cm":10,"peak_cm":10,"status":"critical","observed_at":"2026-10-01T13:30:00.000Z","source":"DDS BMA flood/currentevent","closure_confirmed":false,"note":"น้ำท่วมถนนปัจจุบัน; ไม่เท่ากับประกาศปิดถนน"},"geometry":{"type":"Point","coordinates":[100.67343,13.71955]}},{"type":"Feature","properties":{"name":"ถ.พัฒนาการ แยกศรีนครินทร์","road":"ถนนพัฒนาการ","district":"สวนหลวง","depth_cm":9.6,"peak_cm":11.5,"status":"warning","observed_at":"2026-10-01T13:30:00.000Z","source":"DDS BMA flood/currentevent","closure_confirmed":false,"note":"น้ำท่วมถนนปัจจุบัน; ไม่เท่ากับประกาศปิดถนน"},"geometry":{"type":"Point","coordinates":[100.638,13.73602]}},{"type":"Feature","properties":{"name":"ถ.ลาดกระบัง ช่วง ซ.ลาดกระบัง 30/1","road":"ถนนลาดกระบัง","district":"ลาดกระบัง","depth_cm":5,"peak_cm":20,"status":"warning","observed_at":"2026-10-01T13:30:00.000Z","source":"DDS BMA flood/currentevent","closure_confirmed":false,"note":"น้ำท่วมถนนปัจจุบัน; ไม่เท่ากับประกาศปิดถนน"},"geometry":{"type":"Point","coordinates":[100.73717,13.72229]}},{"type":"Feature","properties":{"name":"ถ.เจ้าคุณทหาร หน้าสถานี LPG PT สาขาลาดกระบัง4","road":"ถนนเจ้าคุณทหาร","district":"ลาดกระบัง","depth_cm":5,"peak_cm":10,"status":"warning","observed_at":"2026-10-01T13:30:00.000Z","source":"DDS BMA flood/currentevent","closure_confirmed":false,"note":"น้ำท่วมถนนปัจจุบัน; ไม่เท่ากับประกาศปิดถนน"},"geometry":{"type":"Point","coordinates":[100.78993,13.7509]}},{"type":"Feature","properties":{"name":"ถ.ลาดพร้าว ช่วง ซ.ลาดพร้าว 110","road":"ถนนลาดพร้าว","district":"วังทองหลาง","depth_cm":5,"peak_cm":10,"status":"warning","observed_at":"2026-10-01T13:30:00.000Z","source":"DDS BMA flood/currentevent","closure_confirmed":false,"note":"น้ำท่วมถนนปัจจุบัน; ไม่เท่ากับประกาศปิดถนน"},"geometry":{"type":"Point","coordinates":[100.61732,13.78151]}}]}