{"type":"FeatureCollection","name":"Hydrology readings","features":[{"type":"Feature","properties":{"name":"ประตูระบายน้ำคลองสองใต้","water_level_m":2.0,"previous_water_level_m":2.01,"water_level_delta_m":-0.01,"water_level_trend":"down","discharge_cms":null,"discharge_delta_cms":null,"discharge_trend":"unknown","observed_at":"2026-09-30 07:00","freshness":"current","source":"BMA floodgate inventory + DDS situation report 2026-09-30","trend":"down"},"geometry":{"type":"Point","coordinates":[100.63961480669876,13.931821833263475]}},{"type":"Feature","properties":{"name":"ประตูระบายน้ำแสนแสบ (มีนบุรี)","water_level_m":1.23,"previous_water_level_m":1.25,"water_level_delta_m":-0.02,"water_level_trend":"down","discharge_cms":null,"discharge_delta_cms":null,"discharge_trend":"unknown","observed_at":"2026-09-30 07:00","freshness":"current","source":"BMA floodgate inventory + DDS situation report 2026-09-30","trend":"down"},"geometry":{"type":"Point","coordinates":[100.74739799940085,13.82101674502504]}},{"type":"Feature","properties":{"name":"ประตูระบายน้ำลาดกระบัง","water_level_m":0.93,"previous_water_level_m":0.93,"water_level_delta_m":0.0,"water_level_trend":"steady","discharge_cms":null,"discharge_delta_cms":null,"discharge_trend":"unknown","observed_at":"2026-09-30 07:00","freshness":"current","source":"BMA floodgate inventory + DDS situation report 2026-09-30","trend":"steady"},"geometry":{"type":"Point","coordinates":[100.749900735862,13.724153326898072]}},{"type":"Feature","properties":{"name":"คลองทวีวัฒนา","water_level_m":null,"water_level_delta_m":null,"water_level_trend":"unknown","discharge_cms":4.73,"discharge_delta_cms":null,"discharge_trend":"unknown","observed_at":"2026-09-27","freshness":"last_verified_stale","source":"DDS flow report 2026-09-27; not current","trend":"unknown"},"geometry":{"type":"Point","coordinates":[100.352,13.755]}},{"type":"Feature","properties":{"name":"คลองเปรมประชากร","water_level_m":null,"water_level_delta_m":null,"water_level_trend":"unknown","discharge_cms":0.0,"discharge_delta_cms":null,"discharge_trend":"unknown","observed_at":"2026-09-27","freshness":"last_verified_stale","source":"DDS flow report 2026-09-27; not current","trend":"unknown"},"geometry":{"type":"Point","coordinates":[100.56,13.82]}},{"type":"Feature","properties":{"name":"คลองแสนแสบ ตอนบางกะปิ","water_level_m":null,"water_level_delta_m":null,"water_level_trend":"unknown","discharge_cms":0.0,"discharge_delta_cms":null,"discharge_trend":"unknown","observed_at":"2026-09-27","freshness":"last_verified_stale","source":"DDS flow report 2026-09-27; not current","trend":"unknown"},"geometry":{"type":"Point","coordinates":[100.64,13.76]}},{"type":"Feature","properties":{"name":"คลองแสนแสบ ตอนมีนบุรี","water_level_m":null,"water_level_delta_m":null,"water_level_trend":"unknown","discharge_cms":0.0,"discharge_delta_cms":null,"discharge_trend":"unknown","observed_at":"2026-09-27","freshness":"last_verified_stale","source":"DDS flow report 2026-09-27; not current","trend":"unknown"},"geometry":{"type":"Point","coordinates":[100.73,13.81]}}]}