{"type":"FeatureCollection","totalFeatures":77,"features":[{"type":"Feature","id":"Floodgate.1","geometry":{"type":"Point","coordinates":[100.5320942962508,13.797723456506723]},"geometry_name":"the_geom","properties":{"id_flood":"054","name":"ประตูระบายน้ำกรมสรรพาวุธ","dcode":"1002","location":"ถ.เตชะวิช ติดคลองเปรมประชากรหน้ากรมสรรพาวุธ","type_gate":"01","num_gate":1,"size":"กว้าง4.1 ม.*สูง4.0ม.","observed_at":null,"water_level_m":null,"previous_water_level_m":null,"water_level_delta_m":null,"water_level_trend":"unknown","critical_level_m":null,"status":"inventory","discharge_cms":null,"discharge_note":"ไม่มีค่า discharge สดสาธารณะที่ยืนยันได้","source":"BMA floodgate inventory"}},{"type":"Feature","id":"Floodgate.2","geometry":{"type":"Point","coordinates":[100.5333679052038,13.80009686412583]},"geometry_name":"the_geom","properties":{"id_flood":"055","name":"ประตูระบายน้ำตลาดบางซื่อ","dcode":"1029","location":"ถ. เตชะวนิช ติดคลองเปรมประชากรหน้าตลาดบางซื่อ","type_gate":"01","num_gate":1,"size":"กว้าง4.1ม.*สูง4.0ม.","observed_at":null,"water_level_m":null,"previous_water_level_m":null,"water_level_delta_m":null,"water_level_trend":"unknown","critical_level_m":null,"status":"inventory","discharge_cms":null,"discharge_note":"ไม่มีค่า discharge สดสาธารณะที่ยืนยันได้","source":"BMA floodgate inventory"}},{"type":"Feature","id":"Floodgate.3","geometry":{"type":"Point","coordinates":[100.58758551622991,13.899384050332419]},"geometry_name":"the_geom","properties":{"id_flood":"077","name":"ประตูระบายน้ำคลองตาอูฐ ตอนคลองเปรมประชากร","dcode":"1036","location":"คลองเปรมประชากร","type_gate":"05","num_gate":1,"size":"กว้าง6.3ม.*สูง4.0ม.","observed_at":null,"water_level_m":null,"previous_water_level_m":null,"water_level_delta_m":null,"water_level_trend":"unknown","critical_level_m":null,"status":"inventory","discharge_cms":null,"discharge_note":"ไม่มีค่า discharge สดสาธารณะที่ยืนยันได้","source":"BMA floodgate inventory"}},{"type":"Feature","id":"Floodgate.4","geometry":{"type":"Point","coordinates":[100.56407589339167,13.794761690947588]},"geometry_name":"the_geom","properties":{"id_flood":"062","name":"ประตูระบายน้ำอินทาระ35","dcode":"1026","location":"ถ.สุทธิสาร อินทามระ 35 ติดคลองบางซื่อ","type_gate":"-","num_gate":1,"size":"กว้าง6.0*สูง1.5ม.","observed_at":null,"water_level_m":null,"previous_water_level_m":null,"water_level_delta_m":null,"water_level_trend":"unknown","critical_level_m":null,"status":"inventory","discharge_cms":null,"discharge_note":"ไม่มีค่า discharge สดสาธารณะที่ยืนยันได้","source":"BMA floodgate inventory"}},{"type":"Feature","id":"Floodgate.5","geometry":{"type":"Point","coordinates":[100.51816112822942,13.812097831138974]},"geometry_name":"the_geom","properties":{"id_flood":"063","name":"ประตูระบายน้ำท่าซุง","dcode":"1029","location":"ใกล้สะพานพระราม6 ติดแม่น้ำเจ้าพระยา","type_gate":"05","num_gate":1,"size":"กว้าง6.0*สูง5.5ม.","observed_at":null,"water_level_m":null,"previous_water_level_m":null,"water_level_delta_m":null,"water_level_trend":"unknown","critical_level_m":null,"status":"inventory","discharge_cms":null,"discharge_note":"ไม่มีค่า discharge สดสาธารณะที่ยืนยันได้","source":"BMA floodgate inventory"}},{"type":"Feature","id":"Floodgate.6","geometry":{"type":"Point","coordinates":[100.51669448631617,13.686786067161687]},"geometry_name":"the_geom","properties":{"id_flood":"012","name":"ประตูระบายน้ำคลองลำกระโดง9 (คลองตาเหล็ก)","dcode":"1031","location":"ถนนพระราม3","type_gate":"02","num_gate":1,"size":"กว้าง4.0ม.*สูง4.0ม.","observed_at":null,"water_level_m":null,"previous_water_level_m":null,"water_level_delta_m":null,"water_level_trend":"unknown","critical_level_m":null,"status":"inventory","discharge_cms":null,"discharge_note":"ไม่มีค่า discharge สดสาธารณะที่ยืนยันได้","source":"BMA floodgate inventory"}},{"type":"Feature","id":"Floodgate.7","geometry":{"type":"Point","coordinates":[100.51198969673457,13.688984647925675]},"geometry_name":"the_geom","properties":{"id_flood":"005","name":"ประตูระบายน้ำคลองบางโคล่ใหญ่","dcode":"1031","location":"ถนนพระราม3","type_gate":"02","num_gate":1,"size":"กว้าง4.0ม*สูง4.0ม.","observed_at":null,"water_level_m":null,"previous_water_level_m":null,"water_level_delta_m":null,"water_level_trend":"unknown","critical_level_m":null,"status":"inventory","discharge_cms":null,"discharge_note":"ไม่มีค่า discharge สดสาธารณะที่ยืนยันได้","source":"BMA floodgate inventory"}},{"type":"Feature","id":"Floodgate.8","geometry":{"type":"Point","coordinates":[100.51433748048119,13.68840289308573]},"geometry_name":"the_geom","properties":{"id_flood":"013","name":"ประตูระบายน้ำคลองบางโคล่","dcode":"1031","location":"ถนนพระราม3","type_gate":"02","num_gate":1,"size":"กว้าง4.0ม.*สูง4.0ม.","observed_at":null,"water_level_m":null,"previous_water_level_m":null,"water_level_delta_m":null,"water_level_trend":"unknown","critical_level_m":null,"status":"inventory","discharge_cms":null,"discharge_note":"ไม่มีค่า discharge สดสาธารณะที่ยืนยันได้","source":"BMA floodgate inventory"}},{"type":"Feature","id":"Floodgate.9","geometry":{"type":"Point","coordinates":[100.50530336159139,13.689671500849377]},"geometry_name":"the_geom","properties":{"id_flood":"014","name":"ประตูระบายน้ำคลองบางโคล่น้อย","dcode":"1031","location":"ถนนพระราม3","type_gate":"02","num_gate":1,"size":"กว้าง4.0ม.*สูง4.0ม.","observed_at":null,"water_level_m":null,"previous_water_level_m":null,"water_level_delta_m":null,"water_level_trend":"unknown","critical_level_m":null,"status":"inventory","discharge_cms":null,"discharge_note":"ไม่มีค่า discharge สดสาธารณะที่ยืนยันได้","source":"BMA floodgate inventory"}},{"type":"Feature","id":"Floodgate.10","geometry":{"type":"Point","coordinates":[100.50206838113841,13.691457717752485]},"geometry_name":"the_geom","properties":{"id_flood":"002","name":"ประตูระบายน้ำคลองวัดจันทร์นอก","dcode":"1031","location":"ถนนพระราม3","type_gate":"02","num_gate":1,"size":"กว้าง4.0ม.*สูง4.0ม.","observed_at":null,"water_level_m":null,"previous_water_level_m":null,"water_level_delta_m":null,"water_level_trend":"unknown","critical_level_m":null,"status":"inventory","discharge_cms":null,"discharge_note":"ไม่มีค่า discharge สดสาธารณะที่ยืนยันได้","source":"BMA floodgate inventory"}},{"type":"Feature","id":"Floodgate.11","geometry":{"type":"Point","coordinates":[100.4987102695002,13.69386174219762]},"geometry_name":"the_geom","properties":{"id_flood":"015","name":"ประตูระบายน้ำคลองบางคอแหลม","dcode":"1031","location":"ถนนพระราม3","type_gate":"02","num_gate":1,"size":"กว้าง4.0ม.*สูง4.0ม.","observed_at":null,"water_level_m":null,"previous_water_level_m":null,"water_level_delta_m":null,"water_level_trend":"unknown","critical_level_m":null,"status":"inventory","discharge_cms":null,"discharge_note":"ไม่มีค่า discharge สดสาธารณะที่ยืนยันได้","source":"BMA floodgate inventory"}},{"type":"Feature","id":"Floodgate.12","geometry":{"type":"Point","coordinates":[100.49819777003479,13.694765065766951]},"geometry_name":"the_geom","properties":{"id_flood":"016","name":"ประตูระบายน้ำคลองถนนตก","dcode":"1031","location":"ถนนพระราม3","type_gate":"02","num_gate":1,"size":"กว้าง4.0ม.*สูง4.0ม.","observed_at":null,"water_level_m":null,"previous_water_level_m":null,"water_level_delta_m":null,"water_level_trend":"unknown","critical_level_m":null,"status":"inventory","discharge_cms":null,"discharge_note":"ไม่มีค่า discharge สดสาธารณะที่ยืนยันได้","source":"BMA floodgate inventory"}},{"type":"Feature","id":"Floodgate.13","geometry":{"type":"Point","coordinates":[100.4926402281164,13.69275736835398]},"geometry_name":"the_geom","properties":{"id_flood":"051","name":"ประตูระบายน้ำคลองบ้านใหม่","dcode":"1031","location":"ถนนเจริญกรุง","type_gate":"02","num_gate":1,"size":"กว้าง4.0ม.*สูง5.0ม.","observed_at":null,"water_level_m":null,"previous_water_level_m":null,"water_level_delta_m":null,"water_level_trend":"unknown","critical_level_m":null,"status":"inventory","discharge_cms":null,"discharge_note":"ไม่มีค่า discharge สดสาธารณะที่ยืนยันได้","source":"BMA floodgate inventory"}},{"type":"Feature","id":"Floodgate.14","geometry":{"type":"Point","coordinates":[100.55130830957829,13.748366880215297]},"geometry_name":"the_geom","properties":{"id_flood":"061","name":"ประตูระบายน้ำแสนแสบเก่า","dcode":"1007","location":"ริมคลองแสนแสบ ถ.เพชรบุรี","type_gate":"03","num_gate":2,"size":"กว้าง5.0ม.*สูง6.0ม.","observed_at":null,"water_level_m":null,"previous_water_level_m":null,"water_level_delta_m":null,"water_level_trend":"unknown","critical_level_m":null,"status":"inventory","discharge_cms":null,"discharge_note":"ไม่มีค่า discharge สดสาธารณะที่ยืนยันได้","source":"BMA floodgate inventory"}},{"type":"Feature","id":"Floodgate.15","geometry":{"type":"Point","coordinates":[100.5893277393539,13.794332165618943]},"geometry_name":"the_geom","properties":{"id_flood":"053","name":"ประตูระบายน้ำลาดพร้าว56","dcode":"1017","location":"ซ. ลาดพร้าว 56","type_gate":"03","num_gate":1,"size":"กว้าง4.0ม.*สูง6.30ม.","observed_at":null,"water_level_m":null,"previous_water_level_m":null,"water_level_delta_m":null,"water_level_trend":"unknown","critical_level_m":null,"status":"inventory","discharge_cms":null,"discharge_note":"ไม่มีค่า discharge สดสาธารณะที่ยืนยันได้","source":"BMA floodgate inventory"}},{"type":"Feature","id":"Floodgate.16","geometry":{"type":"Point","coordinates":[100.64810545718893,13.78475533632688]},"geometry_name":"the_geom","properties":{"id_flood":"008","name":"ประตูระบายน้ำบึงลำพังพวย (ตอนนวมินทร์)","dcode":"1027","location":"เขตบึงกุ่ม กรุงเทพมหานคร","type_gate":"04","num_gate":2,"size":"กว้าง4.0ม.*สูง3.1ม.","observed_at":null,"water_level_m":null,"previous_water_level_m":null,"water_level_delta_m":null,"water_level_trend":"unknown","critical_level_m":null,"status":"inventory","discharge_cms":null,"discharge_note":"ไม่มีค่า discharge สดสาธารณะที่ยืนยันได้","source":"BMA floodgate inventory"}},{"type":"Feature","id":"Floodgate.17","geometry":{"type":"Point","coordinates":[100.61068356106576,13.74291171342859]},"geometry_name":"the_geom","properties":{"id_flood":"003","name":"ประตูระบายน้ำคลองสะแก","dcode":"1034","location":"ข้าง รพ.แพทย์ปัญญา","type_gate":"03","num_gate":1,"size":"กว้าง6.0ม.*สูง3.5ม.","observed_at":null,"water_level_m":null,"previous_water_level_m":null,"water_level_delta_m":null,"water_level_trend":"unknown","critical_level_m":null,"status":"inventory","discharge_cms":null,"discharge_note":"ไม่มีค่า discharge สดสาธารณะที่ยืนยันได้","source":"BMA floodgate inventory"}},{"type":"Feature","id":"Floodgate.18","geometry":{"type":"Point","coordinates":[100.57020655272537,13.751250929648538]},"geometry_name":"the_geom","properties":{"id_flood":"064","name":"ประตุระบายน้ำคลองบางกะปิ","dcode":"1017","location":"ใกล้วัดอุทัยธาราม ถ.เพชรบุรี","type_gate":"03","num_gate":1,"size":"กว้าง6.0ม.*สูง3.5ม.","observed_at":null,"water_level_m":null,"previous_water_level_m":null,"water_level_delta_m":null,"water_level_trend":"unknown","critical_level_m":null,"status":"inventory","discharge_cms":null,"discharge_note":"ไม่มีค่า discharge สดสาธารณะที่ยืนยันได้","source":"BMA floodgate inventory"}},{"type":"Feature","id":"Floodgate.19","geometry":{"type":"Point","coordinates":[100.63461534360943,13.749759945210089]},"geometry_name":"the_geom","properties":{"id_flood":"001","name":"ประตูระบายน้ำคลงอกะจะ(ตอนถนนศรีนครินทร์)","dcode":"1034","location":"ติดสะพานคลองกะจะ ถ.ศรีนครินทร์","type_gate":"03","num_gate":1,"size":"กว้าง4.0ม.*สูง3.5ม.","observed_at":null,"water_level_m":null,"previous_water_level_m":null,"water_level_delta_m":null,"water_level_trend":"unknown","critical_level_m":null,"status":"inventory","discharge_cms":null,"discharge_note":"ไม่มีค่า discharge สดสาธารณะที่ยืนยันได้","source":"BMA floodgate inventory"}},{"type":"Feature","id":"Floodgate.20","geometry":{"type":"Point","coordinates":[100.59899325024305,13.756598284443275]},"geometry_name":"the_geom","properties":{"id_flood":"057","name":"ประตูระบายน้ำแยกคลองพลับพลาตอนคลองลาดพร้าว","dcode":"1045","location":"ซอยรามคำแหง 21 ใกล้สถานีตำรวจนครบาลวังทองหลาง","type_gate":"03","num_gate":1,"size":"กว้าง4.26ม.*สูง3.3ม.","observed_at":null,"water_level_m":null,"previous_water_level_m":null,"water_level_delta_m":null,"water_level_trend":"unknown","critical_level_m":null,"status":"inventory","discharge_cms":null,"discharge_note":"ไม่มีค่า discharge สดสาธารณะที่ยืนยันได้","source":"BMA floodgate inventory"}},{"type":"Feature","id":"Floodgate.21","geometry":{"type":"Point","coordinates":[100.68779029936753,13.723909252299967]},"geometry_name":"the_geom","properties":{"id_flood":"069","name":"ประตูระบายน้ำประเวศ (กระทุ่มเสือปลา)","dcode":"1032","location":"ข้างวัดกระทุ่มเสือปลา ถ.อ่อนนุช","type_gate":"03","num_gate":2,"size":"กว้าง6.0ม.*สูง6.0ม.","observed_at":null,"water_level_m":null,"previous_water_level_m":null,"water_level_delta_m":null,"water_level_trend":"unknown","critical_level_m":null,"status":"inventory","discharge_cms":null,"discharge_note":"ไม่มีค่า discharge สดสาธารณะที่ยืนยันได้","source":"BMA floodgate inventory"}},{"type":"Feature","id":"Floodgate.22","geometry":{"type":"Point","coordinates":[100.70521818549129,13.797938189729994]},"geometry_name":"the_geom","properties":{"id_flood":"070","name":"ประตูระบายน้ำบางชัน(ตอนคลองแสนแสบ)","dcode":"1043","location":"ถ.เสรีไทย","type_gate":"03","num_gate":1,"size":"กว้าง6.0ม.*สูง6.0ม.","observed_at":null,"water_level_m":null,"previous_water_level_m":null,"water_level_delta_m":null,"water_level_trend":"unknown","critical_level_m":null,"status":"inventory","discharge_cms":null,"discharge_note":"ไม่มีค่า discharge สดสาธารณะที่ยืนยันได้","source":"BMA floodgate inventory"}},{"type":"Feature","id":"Floodgate.23","geometry":{"type":"Point","coordinates":[100.66084901104703,13.839675848344138]},"geometry_name":"the_geom","properties":{"id_flood":"071","name":"ประตูระบายน้ำพระยาสุเรนทร์(ใต้)","dcode":"1043","location":"ซ.คู้บอน ถ.รามอินทรา","type_gate":"03","num_gate":1,"size":"กว้าง6.0ม.*สูง6.0ม.","observed_at":null,"water_level_m":null,"previous_water_level_m":null,"water_level_delta_m":null,"water_level_trend":"unknown","critical_level_m":null,"status":"inventory","discharge_cms":null,"discharge_note":"ไม่มีค่า discharge สดสาธารณะที่ยืนยันได้","source":"BMA floodgate inventory"}},{"type":"Feature","id":"Floodgate.24","geometry":{"type":"Point","coordinates":[100.66225175701427,13.92154417785929]},"geometry_name":"the_geom","properties":{"id_flood":"017","name":"ประตูระบายน้ำคลองหม้อแตก","dcode":"1042","location":"คลองหม้อแตกตัด ถ.สายไหม","type_gate":"05","num_gate":1,"size":"กว้าง4.0ม.*สูง4.0ม.","observed_at":null,"water_level_m":null,"previous_water_level_m":null,"water_level_delta_m":null,"water_level_trend":"unknown","critical_level_m":null,"status":"inventory","discharge_cms":null,"discharge_note":"ไม่มีค่า discharge สดสาธารณะที่ยืนยันได้","source":"BMA floodgate inventory"}},{"type":"Feature","id":"Floodgate.25","geometry":{"type":"Point","coordinates":[100.63961480669876,13.931821833263475]},"geometry_name":"the_geom","properties":{"id_flood":"072","name":"ประตูระบายน้ำคลองสองใต้","dcode":"1042","location":"คลองสองตัด ถ.สายไหม","type_gate":"05","num_gate":1,"size":"กว้าง6.0ม.*สูง6.0ม.","observed_at":"2026-09-30 07:00","water_level_m":2.0,"previous_water_level_m":2.01,"water_level_delta_m":-0.01,"water_level_trend":"down","critical_level_m":1.8,"status":"critical","discharge_cms":null,"discharge_note":"ไม่มีค่า discharge สดสาธารณะที่ยืนยันได้","source":"BMA floodgate inventory + DDS situation report 2026-09-30"}},{"type":"Feature","id":"Floodgate.26","geometry":{"type":"Point","coordinates":[100.74739799940085,13.82101674502504]},"geometry_name":"the_geom","properties":{"id_flood":"073","name":"ประตูระบายน้ำแสนแสบ (มีนบุรี)","dcode":"1010","location":"ถ.ราษฏร์อุทิศ","type_gate":"05","num_gate":1,"size":"กว้าง6.0ม.*สูง6.0ม.","observed_at":"2026-09-30 07:00","water_level_m":1.23,"previous_water_level_m":1.25,"water_level_delta_m":-0.02,"water_level_trend":"down","critical_level_m":0.7,"status":"critical","discharge_cms":null,"discharge_note":"ไม่มีค่า discharge สดสาธารณะที่ยืนยันได้","source":"BMA floodgate inventory + DDS situation report 2026-09-30"}},{"type":"Feature","id":"Floodgate.27","geometry":{"type":"Point","coordinates":[100.749900735862,13.724153326898072]},"geometry_name":"the_geom","properties":{"id_flood":"074","name":"ประตูระบายน้ำลาดกระบัง","dcode":"1032","location":"ถ.อ่อนนุช","type_gate":"05","num_gate":1,"size":"กว้าง6.0ม.*สูง6.0ม.","observed_at":"2026-09-30 07:00","water_level_m":0.93,"previous_water_level_m":0.93,"water_level_delta_m":0.0,"water_level_trend":"steady","critical_level_m":0.35,"status":"critical","discharge_cms":null,"discharge_note":"ไม่มีค่า discharge สดสาธารณะที่ยืนยันได้","source":"BMA floodgate inventory + DDS situation report 2026-09-30"}},{"type":"Feature","id":"Floodgate.28","geometry":{"type":"Point","coordinates":[100.68719865969372,13.92120902207083]},"geometry_name":"the_geom","properties":{"id_flood":"018","name":"ประตูระบายน้ำพระยาสุเรนทร์(เหนือ)","dcode":"1042","location":"ใกล้วัดหนองใหญ่ ถ.สายไหม","type_gate":"05","num_gate":1,"size":"กว้าง4.0ม.*สูง4.0ม.","observed_at":null,"water_level_m":null,"previous_water_level_m":null,"water_level_delta_m":null,"water_level_trend":"unknown","critical_level_m":null,"status":"inventory","discharge_cms":null,"discharge_note":"ไม่มีค่า discharge สดสาธารณะที่ยืนยันได้","source":"BMA floodgate inventory"}},{"type":"Feature","id":"Floodgate.29","geometry":{"type":"Point","coordinates":[100.86990533943057,13.828581133050537]},"geometry_name":"the_geom","properties":{"id_flood":"006","name":"ประตูระบายน้ำคลองหนึ่งลำปลาทิว","dcode":"1003","location":"คลองหนึ่งลำปลาทิว ตัด ถ.อยู่วิทยา","type_gate":"05","num_gate":1,"size":"กว้าง4.0ม*สูง4.0ม.","observed_at":null,"water_level_m":null,"previous_water_level_m":null,"water_level_delta_m":null,"water_level_trend":"unknown","critical_level_m":null,"status":"inventory","discharge_cms":null,"discharge_note":"ไม่มีค่า discharge สดสาธารณะที่ยืนยันได้","source":"BMA floodgate inventory"}},{"type":"Feature","id":"Floodgate.30","geometry":{"type":"Point","coordinates":[100.73314624097257,13.850573146957721]},"geometry_name":"the_geom","properties":{"id_flood":"007","name":"ประตูระบายน้ำคลองหนึ่งตะวันออก","dcode":"1003","location":"คลองหนึ่งตะวันออก ตัด ถ.นิมิตรใหม่","type_gate":"05","num_gate":1,"size":"กว้าง4.0ม*สูง4.0ม.","observed_at":null,"water_level_m":null,"previous_water_level_m":null,"water_level_delta_m":null,"water_level_trend":"unknown","critical_level_m":null,"status":"inventory","discharge_cms":null,"discharge_note":"ไม่มีค่า discharge สดสาธารณะที่ยืนยันได้","source":"BMA floodgate inventory"}},{"type":"Feature","id":"Floodgate.31","geometry":{"type":"Point","coordinates":[100.87193200000023,13.815829056350127]},"geometry_name":"the_geom","properties":{"id_flood":"019","name":"ประตูระบายน้ำคลองลำปลาทิว","dcode":"1003","location":"คลองสองลำปลาทิว ตัด ถ.อยู่วิทยา","type_gate":"05","num_gate":1,"size":"กว้าง4.0ม.*สูง4.0ม.","observed_at":null,"water_level_m":null,"previous_water_level_m":null,"water_level_delta_m":null,"water_level_trend":"unknown","critical_level_m":null,"status":"inventory","discharge_cms":null,"discharge_note":"ไม่มีค่า discharge สดสาธารณะที่ยืนยันได้","source":"BMA floodgate inventory"}},{"type":"Feature","id":"Floodgate.32","geometry":{"type":"Point","coordinates":[100.7231108822043,13.864023983165389]},"geometry_name":"the_geom","properties":{"id_flood":"020","name":"ประตูระบายน้ำคลองสองตะวันตก","dcode":"1046","location":"คลองสองตะวันตก ตัด ถ. หทัยราษฏร์","type_gate":"05","num_gate":1,"size":"กว้าง4.0ม.*สูง4.0ม.","observed_at":null,"water_level_m":null,"previous_water_level_m":null,"water_level_delta_m":null,"water_level_trend":"unknown","critical_level_m":null,"status":"inventory","discharge_cms":null,"discharge_note":"ไม่มีค่า discharge สดสาธารณะที่ยืนยันได้","source":"BMA floodgate inventory"}},{"type":"Feature","id":"Floodgate.33","geometry":{"type":"Point","coordinates":[100.72279969928529,13.879554133883207]},"geometry_name":"the_geom","properties":{"id_flood":"004","name":"ประตูระบายน้ำคลองสามตะวันออก","dcode":"1046","location":"คลองสามตะวันตกตัด ถ. หทัยราษฏร์","type_gate":"05","num_gate":1,"size":"กว้ง4.0ม.*สูง4.0ม.","observed_at":null,"water_level_m":null,"previous_water_level_m":null,"water_level_delta_m":null,"water_level_trend":"unknown","critical_level_m":null,"status":"inventory","discharge_cms":null,"discharge_note":"ไม่มีค่า discharge สดสาธารณะที่ยืนยันได้","source":"BMA floodgate inventory"}},{"type":"Feature","id":"Floodgate.34","geometry":{"type":"Point","coordinates":[100.72246360759485,13.895875637653912]},"geometry_name":"the_geom","properties":{"id_flood":"021","name":"ประตูระบายน้ำคลองสี่ตะวักตก","dcode":"1046","location":"คลองสี่ตะวันตก ตัด ถ. หทัยราษฏร์","type_gate":"05","num_gate":1,"size":"กว้าง4.0ม.*สูง4.0ม.","observed_at":null,"water_level_m":null,"previous_water_level_m":null,"water_level_delta_m":null,"water_level_trend":"unknown","critical_level_m":null,"status":"inventory","discharge_cms":null,"discharge_note":"ไม่มีค่า discharge สดสาธารณะที่ยืนยันได้","source":"BMA floodgate inventory"}},{"type":"Feature","id":"Floodgate.35","geometry":{"type":"Point","coordinates":[100.72923804410975,13.859569822572903]},"geometry_name":"the_geom","properties":{"id_flood":"075","name":"ประตูระบายน้ำคลองสามวา","dcode":"1046","location":"คลองสามวา ตัด ถ. หทัยนฤมิตร","type_gate":"05","num_gate":1,"size":"กว้าง6.0ม.*สูง6.0ม.","observed_at":null,"water_level_m":null,"previous_water_level_m":null,"water_level_delta_m":null,"water_level_trend":"unknown","critical_level_m":null,"status":"inventory","discharge_cms":null,"discharge_note":"ไม่มีค่า discharge สดสาธารณะที่ยืนยันได้","source":"BMA floodgate inventory"}},{"type":"Feature","id":"Floodgate.36","geometry":{"type":"Point","coordinates":[100.72227580409795,13.906730645388203]},"geometry_name":"the_geom","properties":{"id_flood":"022","name":"ประตูระบายน้ำคลองลำเบน","dcode":"1046","location":"คลองลำเบนตัด ถ. หทัยราษกร์","type_gate":"05","num_gate":1,"size":"กว้าง4.0ม.*สูง4.0ม.","observed_at":null,"water_level_m":null,"previous_water_level_m":null,"water_level_delta_m":null,"water_level_trend":"unknown","critical_level_m":null,"status":"inventory","discharge_cms":null,"discharge_note":"ไม่มีค่า discharge สดสาธารณะที่ยืนยันได้","source":"BMA floodgate inventory"}},{"type":"Feature","id":"Floodgate.37","geometry":{"type":"Point","coordinates":[100.74475492862213,13.799509405624402]},"geometry_name":"the_geom","properties":{"id_flood":"076","name":"ประตูระบายน้ำคลองลำบึงขวาง","dcode":"1010","location":"คลองลำบึงขวาง ตัด ถ.ร่มเกล้า","type_gate":"05","num_gate":1,"size":"กว้าง6.0ม.*สูง6.0ม.","observed_at":null,"water_level_m":null,"previous_water_level_m":null,"water_level_delta_m":null,"water_level_trend":"unknown","critical_level_m":null,"status":"inventory","discharge_cms":null,"discharge_note":"ไม่มีค่า discharge สดสาธารณะที่ยืนยันได้","source":"BMA floodgate inventory"}},{"type":"Feature","id":"Floodgate.38","geometry":{"type":"Point","coordinates":[100.85828911263523,13.727754031564785]},"geometry_name":"the_geom","properties":{"id_flood":"058","name":"ทำนบและประตูระบายน้ำคลองปากคลองลำต้อยติง","dcode":"1011","location":"คลองหลวงแพ่ง ถ.ร่วมพัฒนา","type_gate":"06","num_gate":1,"size":"กว้าง4.30ม.*สูง3.0ม.","observed_at":null,"water_level_m":null,"previous_water_level_m":null,"water_level_delta_m":null,"water_level_trend":"unknown","critical_level_m":null,"status":"inventory","discharge_cms":null,"discharge_note":"ไม่มีค่า discharge สดสาธารณะที่ยืนยันได้","source":"BMA floodgate inventory"}},{"type":"Feature","id":"Floodgate.39","geometry":{"type":"Point","coordinates":[100.87251370327735,13.797437465044926]},"geometry_name":"the_geom","properties":{"id_flood":"059","name":"ทำนบและประตูระบายน้ำคลองลำตาแฝง","dcode":"1003","location":"คลองหลวงแพ่ง ถ.ร่วมพัฒนา","type_gate":"03","num_gate":1,"size":"กว้าง4.3ม.*สูง3.0ม.","observed_at":null,"water_level_m":null,"previous_water_level_m":null,"water_level_delta_m":null,"water_level_trend":"unknown","critical_level_m":null,"status":"inventory","discharge_cms":null,"discharge_note":"ไม่มีค่า discharge สดสาธารณะที่ยืนยันได้","source":"BMA floodgate inventory"}},{"type":"Feature","id":"Floodgate.40","geometry":{"type":"Point","coordinates":[100.48513721293178,13.747188532319136]},"geometry_name":"the_geom","properties":{"id_flood":"023","name":"ประตูระบายน้ำวัดอรุณ","dcode":"1016","location":"ถ.อรุณอัมรินทร์","type_gate":"03","num_gate":1,"size":"กว้าง4.0ม.*สูง4.0ม.","observed_at":null,"water_level_m":null,"previous_water_level_m":null,"water_level_delta_m":null,"water_level_trend":"unknown","critical_level_m":null,"status":"inventory","discharge_cms":null,"discharge_note":"ไม่มีค่า discharge สดสาธารณะที่ยืนยันได้","source":"BMA floodgate inventory"}},{"type":"Feature","id":"Floodgate.41","geometry":{"type":"Point","coordinates":[100.48374953098342,13.752132627838595]},"geometry_name":"the_geom","properties":{"id_flood":"024","name":"ประตูระบายน้ำวัดระฆัง","dcode":"1016","location":"ถ.อรุณอัมรินทร์","type_gate":"03","num_gate":1,"size":"กว้าง4.0ม.*สูง4.0ม.","observed_at":null,"water_level_m":null,"previous_water_level_m":null,"water_level_delta_m":null,"water_level_trend":"unknown","critical_level_m":null,"status":"inventory","discharge_cms":null,"discharge_note":"ไม่มีค่า discharge สดสาธารณะที่ยืนยันได้","source":"BMA floodgate inventory"}},{"type":"Feature","id":"Floodgate.42","geometry":{"type":"Point","coordinates":[100.34683126797124,13.77885129667366]},"geometry_name":"the_geom","properties":{"id_flood":"056","name":"ประตูระบายน้ำคลองสวัสดิ์","dcode":"1048","location":"ซ.บรมราชชนี 121 ทางเข้าหมู่บ้านพรรณพฤกษา","type_gate":"03","num_gate":1,"size":"กว้าง4.25ม.*สูง4.1ม.","observed_at":null,"water_level_m":null,"previous_water_level_m":null,"water_level_delta_m":null,"water_level_trend":"unknown","critical_level_m":null,"status":"inventory","discharge_cms":null,"discharge_note":"ไม่มีค่า discharge สดสาธารณะที่ยืนยันได้","source":"BMA floodgate inventory"}},{"type":"Feature","id":"Floodgate.43","geometry":{"type":"Point","coordinates":[100.47088852169584,13.715744097838975]},"geometry_name":"the_geom","properties":{"id_flood":"011","name":"ประตูระบายน้ำคลองวัดนาคปรก","dcode":"1015","location":"ถ.วุฒากาศ ทางเข้าวัดนาคปรก","type_gate":"03","num_gate":1,"size":"กว้าง4.0ม.*สูง3.75ม.","observed_at":null,"water_level_m":null,"previous_water_level_m":null,"water_level_delta_m":null,"water_level_trend":"unknown","critical_level_m":null,"status":"inventory","discharge_cms":null,"discharge_note":"ไม่มีค่า discharge สดสาธารณะที่ยืนยันได้","source":"BMA floodgate inventory"}},{"type":"Feature","id":"Floodgate.44","geometry":{"type":"Point","coordinates":[100.46482473255728,13.778915421544106]},"geometry_name":"the_geom","properties":{"id_flood":"025","name":"ประตูระบายน้ำคลองวัดเจ้าอาม","dcode":"1019","location":"ถ.บางขุนนนท์-ตลิ่งชัน เยื้องวัดเจ้าอาม","type_gate":"03","num_gate":1,"size":"กว้าง4.0ม.*สูง4.0ม.","observed_at":null,"water_level_m":null,"previous_water_level_m":null,"water_level_delta_m":null,"water_level_trend":"unknown","critical_level_m":null,"status":"inventory","discharge_cms":null,"discharge_note":"ไม่มีค่า discharge สดสาธารณะที่ยืนยันได้","source":"BMA floodgate inventory"}},{"type":"Feature","id":"Floodgate.45","geometry":{"type":"Point","coordinates":[100.39483416750049,13.796749229990068]},"geometry_name":"the_geom","properties":{"id_flood":"067","name":"ประตูระบายน้ำคลองโพ","dcode":"1048","location":"ถ.พุทธมณฑลสาย2","type_gate":"03","num_gate":1,"size":"กว้าง6.0ม.*สูง4.5ม.","observed_at":null,"water_level_m":null,"previous_water_level_m":null,"water_level_delta_m":null,"water_level_trend":"unknown","critical_level_m":null,"status":"inventory","discharge_cms":null,"discharge_note":"ไม่มีค่า discharge สดสาธารณะที่ยืนยันได้","source":"BMA floodgate inventory"}},{"type":"Feature","id":"Floodgate.46","geometry":{"type":"Point","coordinates":[100.35950221266583,13.800005604596945]},"geometry_name":"the_geom","properties":{"id_flood":"046","name":"ประตูระบายน้ำคลองบางคูเวียง","dcode":"1048","location":"ถ.พัฒนาศาลาธรรมสพน์","type_gate":"03","num_gate":1,"size":"กว้าง4.0ม.*สูง4.5ม.","observed_at":null,"water_level_m":null,"previous_water_level_m":null,"water_level_delta_m":null,"water_level_trend":"unknown","critical_level_m":null,"status":"inventory","discharge_cms":null,"discharge_note":"ไม่มีค่า discharge สดสาธารณะที่ยืนยันได้","source":"BMA floodgate inventory"}},{"type":"Feature","id":"Floodgate.47","geometry":{"type":"Point","coordinates":[100.46688084640401,13.772945747761087]},"geometry_name":"the_geom","properties":{"id_flood":"026","name":"ประตูระบายน้ำคลองบางขุนนท์","dcode":"1020","location":"ถ.บางขุนนท์- ตลิ่งชัน","type_gate":"03","num_gate":1,"size":"กว้าง4.0ม.*สูง4.0ม.","observed_at":null,"water_level_m":null,"previous_water_level_m":null,"water_level_delta_m":null,"water_level_trend":"unknown","critical_level_m":null,"status":"inventory","discharge_cms":null,"discharge_note":"ไม่มีค่า discharge สดสาธารณะที่ยืนยันได้","source":"BMA floodgate inventory"}},{"type":"Feature","id":"Floodgate.48","geometry":{"type":"Point","coordinates":[100.4165223545454,13.79916907604764]},"geometry_name":"the_geom","properties":{"id_flood":"047","name":"ประตูระบายน้ำคลองบัว","dcode":"1019","location":"ทางรถไฟสายใต้","type_gate":"03","num_gate":1,"size":"กว้าง4.0ม.*สูง4.5ม.","observed_at":null,"water_level_m":null,"previous_water_level_m":null,"water_level_delta_m":null,"water_level_trend":"unknown","critical_level_m":null,"status":"inventory","discharge_cms":null,"discharge_note":"ไม่มีค่า discharge สดสาธารณะที่ยืนยันได้","source":"BMA floodgate inventory"}},{"type":"Feature","id":"Floodgate.49","geometry":{"type":"Point","coordinates":[100.32974549609904,13.800471077258488]},"geometry_name":"the_geom","properties":{"id_flood":"068","name":"ประตูระบายน้ำคลองทวีวัฒนา","dcode":"1048","location":"ถ.พัฒนาศาลาธรรมสพน์","type_gate":"03","num_gate":1,"size":"กว้าง6.0ม.*สูง5.0ม.","observed_at":null,"water_level_m":null,"previous_water_level_m":null,"water_level_delta_m":null,"water_level_trend":"unknown","critical_level_m":null,"status":"inventory","discharge_cms":null,"discharge_note":"ไม่มีค่า discharge สดสาธารณะที่ยืนยันได้","source":"BMA floodgate inventory"}},{"type":"Feature","id":"Floodgate.50","geometry":{"type":"Point","coordinates":[100.3814752750909,13.797617730738258]},"geometry_name":"the_geom","properties":{"id_flood":"048","name":"ประตูระบายน้ำคลองควาย","dcode":"1048","location":"ถ.พัฒนาศาลาธรรมสพน์","type_gate":"03","num_gate":1,"size":"กว้าง4.0ม.*สูง4.5ม.","observed_at":null,"water_level_m":null,"previous_water_level_m":null,"water_level_delta_m":null,"water_level_trend":"unknown","critical_level_m":null,"status":"inventory","discharge_cms":null,"discharge_note":"ไม่มีค่า discharge สดสาธารณะที่ยืนยันได้","source":"BMA floodgate inventory"}},{"type":"Feature","id":"Floodgate.51","geometry":{"type":"Point","coordinates":[100.38192229937887,13.795445799913827]},"geometry_name":"the_geom","properties":{"id_flood":"049","name":"ประตูระบายน้ำคลองซอย","dcode":"1048","location":"ถ.พัฒนาศาลาธรรมสพน์","type_gate":"03","num_gate":1,"size":"กว้าง4.0ม.*สูง4.5ม.","observed_at":null,"water_level_m":null,"previous_water_level_m":null,"water_level_delta_m":null,"water_level_trend":"unknown","critical_level_m":null,"status":"inventory","discharge_cms":null,"discharge_note":"ไม่มีค่า discharge สดสาธารณะที่ยืนยันได้","source":"BMA floodgate inventory"}},{"type":"Feature","id":"Floodgate.52","geometry":{"type":"Point","coordinates":[100.3692339943131,13.798878473923725]},"geometry_name":"the_geom","properties":{"id_flood":"050","name":"ประตูระบายน้ำคลองขุนศรีบุรีรักษ์","dcode":"1048","location":"ถ.พัฒนาศาลาธรรมสพน์","type_gate":"03","num_gate":1,"size":"กว้าง4.0ม.*สูง4.5ม.","observed_at":null,"water_level_m":null,"previous_water_level_m":null,"water_level_delta_m":null,"water_level_trend":"unknown","critical_level_m":null,"status":"inventory","discharge_cms":null,"discharge_note":"ไม่มีค่า discharge สดสาธารณะที่ยืนยันได้","source":"BMA floodgate inventory"}},{"type":"Feature","id":"Floodgate.53","geometry":{"type":"Point","coordinates":[100.50327735335998,13.724917560207135]},"geometry_name":"the_geom","properties":{"id_flood":"027","name":"ประตูระบายน้ำปากคลองวัดทองเพลง","dcode":"1018","location":"สะพานเจริญนคร 2","type_gate":"03","num_gate":1,"size":"กว้าง4.0ม.*สูง4.0ม.","observed_at":null,"water_level_m":null,"previous_water_level_m":null,"water_level_delta_m":null,"water_level_trend":"unknown","critical_level_m":null,"status":"inventory","discharge_cms":null,"discharge_note":"ไม่มีค่า discharge สดสาธารณะที่ยืนยันได้","source":"BMA floodgate inventory"}},{"type":"Feature","id":"Floodgate.54","geometry":{"type":"Point","coordinates":[100.50522783123536,13.714697881382577]},"geometry_name":"the_geom","properties":{"id_flood":"028","name":"ประตูระบายน้ำปากคลองบางลำภูล่าง","dcode":"1018","location":"ปากคลองวัดเศวต ซอยเจริญนคร 4","type_gate":"03","num_gate":1,"size":"กว้าง4.0ม.*สูง4.0ม.","observed_at":null,"water_level_m":null,"previous_water_level_m":null,"water_level_delta_m":null,"water_level_trend":"unknown","critical_level_m":null,"status":"inventory","discharge_cms":null,"discharge_note":"ไม่มีค่า discharge สดสาธารณะที่ยืนยันได้","source":"BMA floodgate inventory"}},{"type":"Feature","id":"Floodgate.55","geometry":{"type":"Point","coordinates":[100.50902809965378,13.729789200887934]},"geometry_name":"the_geom","properties":{"id_flood":"029","name":"ประตูระบายน้ำปากคลองต้นไทร","dcode":"1018","location":"สะพานเจริญนคร 3","type_gate":"03","num_gate":1,"size":"กว้าง4.0ม.*สูง4.0ม.","observed_at":null,"water_level_m":null,"previous_water_level_m":null,"water_level_delta_m":null,"water_level_trend":"unknown","critical_level_m":null,"status":"inventory","discharge_cms":null,"discharge_note":"ไม่มีค่า discharge สดสาธารณะที่ยืนยันได้","source":"BMA floodgate inventory"}},{"type":"Feature","id":"Floodgate.56","geometry":{"type":"Point","coordinates":[100.46847656787644,13.701637794034886]},"geometry_name":"the_geom","properties":{"id_flood":"030","name":"ประตูระบายน้ำคลองห้าเจดีย์","dcode":"1035","location":"คลองด่าน ถ.วุฒากาศ","type_gate":"03","num_gate":1,"size":"กว้าง4.0ม.*สูง4.0ม.","observed_at":null,"water_level_m":null,"previous_water_level_m":null,"water_level_delta_m":null,"water_level_trend":"unknown","critical_level_m":null,"status":"inventory","discharge_cms":null,"discharge_note":"ไม่มีค่า discharge สดสาธารณะที่ยืนยันได้","source":"BMA floodgate inventory"}},{"type":"Feature","id":"Floodgate.57","geometry":{"type":"Point","coordinates":[100.4821260618252,13.722450475967038]},"geometry_name":"the_geom","properties":{"id_flood":"031","name":"ประตูระบายน้ำคลองสำเหร่ ถนนเทอไท","dcode":"1015","location":"ถ.เทอดไท","type_gate":"01","num_gate":2,"size":"กว้าง4.0ม.*สูง4.0ม.","observed_at":null,"water_level_m":null,"previous_water_level_m":null,"water_level_delta_m":null,"water_level_trend":"unknown","critical_level_m":null,"status":"inventory","discharge_cms":null,"discharge_note":"ไม่มีค่า discharge สดสาธารณะที่ยืนยันได้","source":"BMA floodgate inventory"}},{"type":"Feature","id":"Floodgate.58","geometry":{"type":"Point","coordinates":[100.49807324775787,13.73641069900895]},"geometry_name":"the_geom","properties":{"id_flood":"032","name":"ประตูระบายน้ำคลองวัดอนงค์","dcode":"1018","location":"ซอยอุทัย ถ.พญาไม้","type_gate":"01","num_gate":2,"size":"กว้าง4.0ม.*สูง4.0ม.","observed_at":null,"water_level_m":null,"previous_water_level_m":null,"water_level_delta_m":null,"water_level_trend":"unknown","critical_level_m":null,"status":"inventory","discharge_cms":null,"discharge_note":"ไม่มีค่า discharge สดสาธารณะที่ยืนยันได้","source":"BMA floodgate inventory"}},{"type":"Feature","id":"Floodgate.59","geometry":{"type":"Point","coordinates":[100.50936448658467,13.72567707220093]},"geometry_name":"the_geom","properties":{"id_flood":"033","name":"ประตูระบายน้ำคลองวัดเศวต เจริญนคร 4","dcode":"1018","location":"สะพานเจริญนคร 4","type_gate":"01","num_gate":1,"size":"กว้าง4.0ม.*สูง4.0ม.","observed_at":null,"water_level_m":null,"previous_water_level_m":null,"water_level_delta_m":null,"water_level_trend":"unknown","critical_level_m":null,"status":"inventory","discharge_cms":null,"discharge_note":"ไม่มีค่า discharge สดสาธารณะที่ยืนยันได้","source":"BMA floodgate inventory"}},{"type":"Feature","id":"Floodgate.60","geometry":{"type":"Point","coordinates":[100.50429339484602,13.725081055289865]},"geometry_name":"the_geom","properties":{"id_flood":"060","name":"ประตูระบายน้ำคลองวัดทองเพลง เจริญนคร 2","dcode":"1018","location":"สะพานเจริญนคร 2","type_gate":"01","num_gate":1,"size":"กว้าง5.0ม.*สูง4.0ม.","observed_at":null,"water_level_m":null,"previous_water_level_m":null,"water_level_delta_m":null,"water_level_trend":"unknown","critical_level_m":null,"status":"inventory","discharge_cms":null,"discharge_note":"ไม่มีค่า discharge สดสาธารณะที่ยืนยันได้","source":"BMA floodgate inventory"}},{"type":"Feature","id":"Floodgate.61","geometry":{"type":"Point","coordinates":[100.49027274810555,13.736289358878878]},"geometry_name":"the_geom","properties":{"id_flood":"034","name":"ประตูระบายน้ำคลองบุบผาราม","dcode":"1015","location":"ข้างสน.บุปผาราม","type_gate":"01","num_gate":1,"size":"กว้าง4.0ม.*สูง4.0ม.","observed_at":null,"water_level_m":null,"previous_water_level_m":null,"water_level_delta_m":null,"water_level_trend":"unknown","critical_level_m":null,"status":"inventory","discharge_cms":null,"discharge_note":"ไม่มีค่า discharge สดสาธารณะที่ยืนยันได้","source":"BMA floodgate inventory"}},{"type":"Feature","id":"Floodgate.62","geometry":{"type":"Point","coordinates":[100.50512264527237,13.682361490180798]},"geometry_name":"the_geom","properties":{"id_flood":"052","name":"ประตูระบายนน้ำคลองบางบูน","dcode":"1024","location":"ถ.ราษฏร์บูรณะ","type_gate":"03","num_gate":1,"size":"กว้าง4.0ม.*สูง5.0ม.","observed_at":null,"water_level_m":null,"previous_water_level_m":null,"water_level_delta_m":null,"water_level_trend":"unknown","critical_level_m":null,"status":"inventory","discharge_cms":null,"discharge_note":"ไม่มีค่า discharge สดสาธารณะที่ยืนยันได้","source":"BMA floodgate inventory"}},{"type":"Feature","id":"Floodgate.63","geometry":{"type":"Point","coordinates":[100.4719075697791,13.7167728981908]},"geometry_name":"the_geom","properties":{"id_flood":"035","name":"ประตูระบายน้ำคลองบางค้อ(ตอนถนนวุฒากาศ)","dcode":"1015","location":"สะพานวุฒากาศ 2","type_gate":"01","num_gate":1,"size":"กว้าง4.0ม.*สูง4.0ม.","observed_at":null,"water_level_m":null,"previous_water_level_m":null,"water_level_delta_m":null,"water_level_trend":"unknown","critical_level_m":null,"status":"inventory","discharge_cms":null,"discharge_note":"ไม่มีค่า discharge สดสาธารณะที่ยืนยันได้","source":"BMA floodgate inventory"}},{"type":"Feature","id":"Floodgate.64","geometry":{"type":"Point","coordinates":[100.51137180409914,13.728171357271497]},"geometry_name":"the_geom","properties":{"id_flood":"065","name":"ประตูระบายน้ำคลองต้นไทร เจริญนคร 3","dcode":"1018","location":"สะพานเจริญนคร 3","type_gate":"01","num_gate":1,"size":"กว้าง6.0ม.*สูง4.0ม.","observed_at":null,"water_level_m":null,"previous_water_level_m":null,"water_level_delta_m":null,"water_level_trend":"unknown","critical_level_m":null,"status":"inventory","discharge_cms":null,"discharge_note":"ไม่มีค่า discharge สดสาธารณะที่ยืนยันได้","source":"BMA floodgate inventory"}},{"type":"Feature","id":"Floodgate.65","geometry":{"type":"Point","coordinates":[100.44192004240928,13.570460969746662]},"geometry_name":"the_geom","properties":{"id_flood":"066","name":"ประตูระบายน้ำประตูเรือสัญจร วัดลูกวัว","dcode":"1021","location":"ซ.เทียนทะเล25 ถ.บางขุนเทียน-ชายฝั่งทะเล","type_gate":"03","num_gate":1,"size":"กว้าง6.0ม.*สูง4.0ม.","observed_at":null,"water_level_m":null,"previous_water_level_m":null,"water_level_delta_m":null,"water_level_trend":"unknown","critical_level_m":null,"status":"inventory","discharge_cms":null,"discharge_note":"ไม่มีค่า discharge สดสาธารณะที่ยืนยันได้","source":"BMA floodgate inventory"}},{"type":"Feature","id":"Floodgate.66","geometry":{"type":"Point","coordinates":[100.43170933278788,13.572972516724592]},"geometry_name":"the_geom","properties":{"id_flood":"009","name":"ประตูระบายน้ำลองแยกคลองเชิงตาแพ","dcode":"1021","location":"ซ.เทียนทะเล25 ถ.บางขุนเทียน-ชายฝั่งทะเล","type_gate":"03","num_gate":1,"size":"กว้าง4.0ม.*สูง3.5ม.","observed_at":null,"water_level_m":null,"previous_water_level_m":null,"water_level_delta_m":null,"water_level_trend":"unknown","critical_level_m":null,"status":"inventory","discharge_cms":null,"discharge_note":"ไม่มีค่า discharge สดสาธารณะที่ยืนยันได้","source":"BMA floodgate inventory"}},{"type":"Feature","id":"Floodgate.67","geometry":{"type":"Point","coordinates":[100.43409298228181,13.593654448850113]},"geometry_name":"the_geom","properties":{"id_flood":"010","name":"ประตูระบายน้ำลองรางยายเพียร","dcode":"1021","location":"ซ.เทียนทะเล25 ถ.บางขุนเทียน-ชายฝั่งทะเล","type_gate":"03","num_gate":1,"size":"กว้าง4.0ม.*สูง3.5ม.","observed_at":null,"water_level_m":null,"previous_water_level_m":null,"water_level_delta_m":null,"water_level_trend":"unknown","critical_level_m":null,"status":"inventory","discharge_cms":null,"discharge_note":"ไม่มีค่า discharge สดสาธารณะที่ยืนยันได้","source":"BMA floodgate inventory"}},{"type":"Feature","id":"Floodgate.68","geometry":{"type":"Point","coordinates":[100.43206378614559,13.50042678226838]},"geometry_name":"the_geom","properties":{"id_flood":"036","name":"ประตูระบายน้ำคลองรางยายคง","dcode":"1021","location":"ถ.บางขุนเทียน-ชายฝั่งทะเล","type_gate":"03","num_gate":1,"size":"กว้าง4.0ม.*สูง4.0ม.","observed_at":null,"water_level_m":null,"previous_water_level_m":null,"water_level_delta_m":null,"water_level_trend":"unknown","critical_level_m":null,"status":"inventory","discharge_cms":null,"discharge_note":"ไม่มีค่า discharge สดสาธารณะที่ยืนยันได้","source":"BMA floodgate inventory"}},{"type":"Feature","id":"Floodgate.69","geometry":{"type":"Point","coordinates":[100.44561130848729,13.572278716336081]},"geometry_name":"the_geom","properties":{"id_flood":"037","name":"ประตูระบายน้ำคลองหัวกระบือ","dcode":"1021","location":"ถ.แสมดำ เขตบางุนเทียน","type_gate":"03","num_gate":1,"size":"กว้าง4.0ม.*สูง4.0ม.","observed_at":null,"water_level_m":null,"previous_water_level_m":null,"water_level_delta_m":null,"water_level_trend":"unknown","critical_level_m":null,"status":"inventory","discharge_cms":null,"discharge_note":"ไม่มีค่า discharge สดสาธารณะที่ยืนยันได้","source":"BMA floodgate inventory"}},{"type":"Feature","id":"Floodgate.70","geometry":{"type":"Point","coordinates":[100.41050820853113,13.610129003538779]},"geometry_name":"the_geom","properties":{"id_flood":"038","name":"ประตูระบายน้ำคลองรางโพธิ์","dcode":"1021","location":"ถ.อนามัยงามเจริญ เขตบางขุนเทียน","type_gate":"03","num_gate":1,"size":"กว้าง4.0ม.*สูง4.0ม.","observed_at":null,"water_level_m":null,"previous_water_level_m":null,"water_level_delta_m":null,"water_level_trend":"unknown","critical_level_m":null,"status":"inventory","discharge_cms":null,"discharge_note":"ไม่มีค่า discharge สดสาธารณะที่ยืนยันได้","source":"BMA floodgate inventory"}},{"type":"Feature","id":"Floodgate.71","geometry":{"type":"Point","coordinates":[100.41311690938863,13.606924492731295]},"geometry_name":"the_geom","properties":{"id_flood":"039","name":"ประตูระบายน้ำคลองบุญสขุ","dcode":"1021","location":"ถ.อนามัยงามเจริญ เขตบางขุนเทียน","type_gate":"03","num_gate":1,"size":"กว้าง4.0ม.*สูง4.0ม.","observed_at":null,"water_level_m":null,"previous_water_level_m":null,"water_level_delta_m":null,"water_level_trend":"unknown","critical_level_m":null,"status":"inventory","discharge_cms":null,"discharge_note":"ไม่มีค่า discharge สดสาธารณะที่ยืนยันได้","source":"BMA floodgate inventory"}},{"type":"Feature","id":"Floodgate.72","geometry":{"type":"Point","coordinates":[100.43413847837128,13.62549359822402]},"geometry_name":"the_geom","properties":{"id_flood":"040","name":"ประตูระบายน้ำคลองรางสะแก","dcode":"1021","location":"ถ.อนามัยงามเจริญ เขตบางขุนเทียน","type_gate":"03","num_gate":1,"size":"กว้าง4.0ม.*สูง4.0ม.","observed_at":null,"water_level_m":null,"previous_water_level_m":null,"water_level_delta_m":null,"water_level_trend":"unknown","critical_level_m":null,"status":"inventory","discharge_cms":null,"discharge_note":"ไม่มีค่า discharge สดสาธารณะที่ยืนยันได้","source":"BMA floodgate inventory"}},{"type":"Feature","id":"Floodgate.73","geometry":{"type":"Point","coordinates":[100.46847922479675,13.604962682937451]},"geometry_name":"the_geom","properties":{"id_flood":"041","name":"ประตูระบายน้ำคลองนา","dcode":"1021","location":"ถนนคลองกระออม-คลองสวน","type_gate":"03","num_gate":1,"size":"กว้าง4.0ม.*สูง4.0ม.","observed_at":null,"water_level_m":null,"previous_water_level_m":null,"water_level_delta_m":null,"water_level_trend":"unknown","critical_level_m":null,"status":"inventory","discharge_cms":null,"discharge_note":"ไม่มีค่า discharge สดสาธารณะที่ยืนยันได้","source":"BMA floodgate inventory"}},{"type":"Feature","id":"Floodgate.74","geometry":{"type":"Point","coordinates":[100.40192356293002,13.605240835271545]},"geometry_name":"the_geom","properties":{"id_flood":"042","name":"ประตูระบายน้ำคลองม่วง","dcode":"1021","location":"ซ.บางกระดี่ 32 ถ.บางกระดี่ แขวงแสมดำ","type_gate":"03","num_gate":1,"size":"กว้าง4.0ม.*สูง4.0ม.","observed_at":null,"water_level_m":null,"previous_water_level_m":null,"water_level_delta_m":null,"water_level_trend":"unknown","critical_level_m":null,"status":"inventory","discharge_cms":null,"discharge_note":"ไม่มีค่า discharge สดสาธารณะที่ยืนยันได้","source":"BMA floodgate inventory"}},{"type":"Feature","id":"Floodgate.75","geometry":{"type":"Point","coordinates":[100.39199129311257,13.595294388213675]},"geometry_name":"the_geom","properties":{"id_flood":"043","name":"ประตูระบายน้ำคลองบางขนุน","dcode":"1021","location":"ซ.บางกระดี่ 32 ถ.บางกระดี่ แขวงแสมดำ","type_gate":"03","num_gate":1,"size":"กว้าง4.0ม.*สูง4.0ม.","observed_at":null,"water_level_m":null,"previous_water_level_m":null,"water_level_delta_m":null,"water_level_trend":"unknown","critical_level_m":null,"status":"inventory","discharge_cms":null,"discharge_note":"ไม่มีค่า discharge สดสาธารณะที่ยืนยันได้","source":"BMA floodgate inventory"}},{"type":"Feature","id":"Floodgate.76","geometry":{"type":"Point","coordinates":[100.41160101415905,13.61402770943297]},"geometry_name":"the_geom","properties":{"id_flood":"044","name":"ประตูระบายน้ำคลองตรง","dcode":"1021","location":"ซ.จุลพงษ์ ถ.บางขุนเทียน-ชายทะเล","type_gate":"03","num_gate":1,"size":"กว้าง4.0ม.*สูง4.0ม.","observed_at":null,"water_level_m":null,"previous_water_level_m":null,"water_level_delta_m":null,"water_level_trend":"unknown","critical_level_m":null,"status":"inventory","discharge_cms":null,"discharge_note":"ไม่มีค่า discharge สดสาธารณะที่ยืนยันได้","source":"BMA floodgate inventory"}},{"type":"Feature","id":"Floodgate.77","geometry":{"type":"Point","coordinates":[100.46818770687193,13.777540314987178]},"geometry_name":"the_geom","properties":{"id_flood":"045","name":"ประตูระบายน้ำคลองวัดใหม่ภาวนา(ปากคลอง)","dcode":"1020","location":"ซ.วัดใหม่ภาวนา ถ.บางขุนนท์-ตลิ่งชัน","type_gate":"03","num_gate":1,"size":"กว้าง4.0ม.*สูง4.0ม.","observed_at":null,"water_level_m":null,"previous_water_level_m":null,"water_level_delta_m":null,"water_level_trend":"unknown","critical_level_m":null,"status":"inventory","discharge_cms":null,"discharge_note":"ไม่มีค่า discharge สดสาธารณะที่ยืนยันได้","source":"BMA floodgate inventory"}}],"crs":{"type":"name","properties":{"name":"urn:ogc:def:crs:EPSG::32647"}}}